company,agency_name,agency_type,sworn_active_persnl,hq_addr1,hq_addr2,hq_city,hq_state,hq_zip,addr1,addr2,po_box,city,state,county,zip,hq_ph,hq_fax,org_type,website,fips,Full_Address,Latitude,Longitude
Berkeley County Sheriff's Office,South Carolina Highway Patrol,Primary state law enforcement agency,967, , , , , ,10311 Wilson Blvd, , ,Blythewood,SC,Richland,29016, , , , ,45079,"10311 Wilson Blvd, Blythewood, SC 29016",34.1782945,-80.97378959999999
Berkeley County Sheriff's Office,Savannah-Chatham Metropolitan Police Department,Local police department,534, , , , , ,Post Office Box 8032, , ,Savannah,GA,Chatham,31412, , , , ,13051,"Post Office Box 8032, Savannah, GA 31412",32.079528,-81.0900806
Berkeley County Sheriff's Office,Richland County Sheriff's Office,Sheriff's office,512, , , , , ,211 W Market St, , ,Columbia,SC,Richland,29223, , , , ,45079,"211 W Market St, Columbia, SC 29223",34.1058378,-80.92077370000001
Berkeley County Sheriff's Office,Charleston Police Department,Local police department,382, , , , , ,Post Office Box 420, , ,Charleston,SC,Charleston,29403, , , , ,45019,"Post Office Box 420, Charleston, SC 29403",32.8007242,-79.9500477
Berkeley County Sheriff's Office,Columbia Police Department,Local police department,351, , , , , ,Po Box 10, , ,Columbia,SC,Richland,29201, , , , ,45079,"Po Box 10, Columbia, SC 29201",33.9873389,-81.0368211
Berkeley County Sheriff's Office,South Carolina Law Enforcement Division,Special jurisdiction,344, , , , , ,Po Box 21398, , ,Columbia,SC,Richland,29221, , , , ,45079,"Po Box 21398, Columbia, SC 29221",34.0008322,-81.035147
Berkeley County Sheriff's Office,North Charleston Police Department,Local police department,325, , , , , ,Po Box 62558, , ,North Charleston,SC,Charleston,29419, , , , ,45019,"Po Box 62558, North Charleston, SC 29419",32.8769132,-80.01138689999999
Berkeley County Sheriff's Office,Charleston County Sheriff's Office,Sheriff's office,259, , , , , ,3505 Pinehaven Dr, , ,Charleston,SC,Charleston,29405, , , , ,45019,"3505 Pinehaven Dr, Charleston, SC 29405",32.8560597,-79.97997409999999
Berkeley County Sheriff's Office,Lexington County Sheriff's Office,Sheriff's office,249, , , , , ,Po Box 639, , ,Lexington,SC,Lexington,29071, , , , ,45063,"Po Box 639, Lexington, SC 29071",33.9799999,-81.24
Berkeley County Sheriff's Office,Horry County Police Department,Local police department,243, , , , , ,"2560 N. Main Street, Suite 7", , ,Conway,SC,Horry,29526, , , , ,45051,"2560 N. Main Street, Suite 7, Conway, SC 29526",33.8643407,-79.0532727
Berkeley County Sheriff's Office,South Carolina Department of Natural Resources,Special jurisdiction,238, , , , , ,Po Box 167, , ,Columbia,SC,Richland,29202, , , , ,45079,"Po Box 167, Columbia, SC 29202",34.0,-81.03999999999999
Berkeley County Sheriff's Office,Beaufort County Sheriff's Office,Sheriff's office,209, , , , , ,2001 Duke St,PO Box 1758, ,Beaufort,SC,Beaufort,29902, , , , ,45013,"2001 Duke St, Beaufort, SC 29902",32.4364985,-80.686221
Berkeley County Sheriff's Office,Florence County Sheriff's Office,Sheriff's office,192, , , , , ,Po Box 678, , ,Effingham,SC,Florence,29541, , , , ,45041,"Po Box 678, Effingham, SC 29541",34.0575712,-79.75341159999999
Berkeley County Sheriff's Office,Myrtle Beach Police Department,Local police department,179, , , , , ,1101 Oak Street, , ,Myrtle Beach,SC,Horry,29577, , , , ,45051,"1101 Oak Street, Myrtle Beach, SC 29577",33.6977914,-78.88203969999999
Berkeley County Sheriff's Office,Mount Pleasant Police Department,Local police department,137, , , , , ,P.O. Box 426, , ,Mount Pleasant,SC,Charleston,29464, , , , ,45019,"P.O. Box 426, Mount Pleasant, SC 29464",32.8234848,-79.8520818
Berkeley County Sheriff's Office,Berkeley County Sheriff's Office,Sheriff's office,134, , , , , ,223 N Live Oak Dr, , ,Moncks Corner,SC,Berkeley,29461, , , , ,45015,"223 N Live Oak Dr, Moncks Corner, SC 29461",33.2002712,-80.0063369
Berkeley County Sheriff's Office,Sumter County Sheriff's Office,Sheriff's office,118, , , , , ,107 E Hampton Ave, , ,Sumter,SC,Sumter,29150, , , , ,45085,"107 E Hampton Ave, Sumter, SC 29150",33.9219028,-80.3392963
Blytheville Police Department,Memphis Police Department,Local police department,1549, , , , , ,201 Poplar, , ,Memphis,TN,Shelby,38103, , , , ,47157,"201 Poplar, Memphis, TN 38103",35.1491527,-90.04789579999999
Blytheville Police Department,Shelby County Sheriff's Office,Sheriff's office,516, , , , , ,"501 Main St, Courthouse, Ste 8", , ,Memphis,TN,Shelby,38103, , , , ,47157,"501 Main St, Courthouse, Ste 8, Memphis, TN 38103",35.1337542,-90.05897519999999
Blytheville Police Department,Jackson Police Department,Local police department,204, , , , , ,Po Box 614, , ,Jackson,TN,Madison,38301, , , , ,47113,"Po Box 614, Jackson, TN 38301",35.5821649,-88.8455037
Blytheville Police Department,Jonesboro Police Department,Local police department,134, , , , , ,100 4Th St., , ,Jonesboro,AR,Craighead,72401, , , , ,5031,"100 4Th St., Jonesboro, AR 72401",35.8478682,-90.7083005
Franklin County Sheriff's Office,North Carolina State Highway Patrol,Primary state law enforcement agency,1827, , , , , ,Archdale Building, , ,Raleigh,NC,Wake,27611, , , , ,37183,"Archdale Building, Raleigh, NC 27611",35.7868535,-78.63875929999999
Franklin County Sheriff's Office,Raleigh Police Department,Local police department,702, , , , , ,Po Box 590, , ,Raleigh,NC,Wake,27602, , , , ,37183,"Po Box 590, Raleigh, NC 27602",35.7756018,-78.64039869999999
Franklin County Sheriff's Office,Greensboro Police Department,Local police department,593, , , , , ,1101 Main Street, , ,Greensboro,NC,Guilford,27402, , , , ,37081,"1101 Main Street, Greensboro, NC 27402",35.9963855,-79.91852449999999
Franklin County Sheriff's Office,Durham Police Department,Local police department,494, , , , , ,86 Dover Road, , ,Durham,NC,Durham,27701, , , , ,37063,"86 Dover Road, Durham, NC 27701",35.9510198,-78.9518477
Franklin County Sheriff's Office,Chesterfield County Police Department,Local police department,475, , , , , ,P. O. Box 148, , ,Chesterfield,VA,Chesterfield,23832, , , , ,51041,"P. O. Box 148, Chesterfield, VA 23832",37.3770935,-77.5049863
Franklin County Sheriff's Office,North Carolina State Bureau of Investigation,Special jurisdiction,367, , , , , ,Po Box 29500, , ,Raleigh,NC,Wake,27626, , , , ,37183,"Po Box 29500, Raleigh, NC 27626",35.77,-78.64
Franklin County Sheriff's Office,Wake County Sheriff's Office,Sheriff's office,354, , , , , ,Po Box 550, , ,Raleigh,NC,Wake,27602, , , , ,37183,"Po Box 550, Raleigh, NC 27602",35.7756018,-78.64039869999999
Franklin County Sheriff's Office,Fayetteville Police Department,Local police department,341, , , , , ,308 West Market Street, , ,Fayetteville,NC,Cumberland,28301, , , , ,37051,"308 West Market Street, Fayetteville, NC 28301",35.06375209999999,-78.8722341
Franklin County Sheriff's Office,Cumberland County Sheriff's Office,Sheriff's office,300, , , , , ,Po Box 56,166 Courthouse Square, ,Fayetteville,NC,Cumberland,28301, , , , ,37051,"Po Box 56, Fayetteville, NC 28301",35.06375209999999,-78.8722341
Franklin County Sheriff's Office,Guilford County Sheriff's Office,Sheriff's office,240, , , , , ,Po Box 3427, , ,Greensboro,NC,Guilford,27402, , , , ,37081,"Po Box 3427, Greensboro, NC 27402",35.9670631,-79.7722673
Franklin County Sheriff's Office,High Point Police Department,Local police department,225, , , , , ,1009 Leonard Ave., , ,High Point,NC,Guilford,27260, , , , ,37081,"1009 Leonard Ave., High Point, NC 27260",35.9598143,-79.9933851
Franklin County Sheriff's Office,Chesterfield County Sheriff's Office,Sheriff's office,225, , , , , ,Po Box 7,9500 Courthouse Rd, ,Chesterfield,VA,Chesterfield,23832, , , , ,51041,"Po Box 7, Chesterfield, VA 23832",37.3770935,-77.5049863
Franklin County Sheriff's Office,North Carolina Wildlife Resources Commission,Special jurisdiction,209, , , , , ,1717 Msc, , ,Raleigh,NC,Wake,27699, , , , ,37183,"1717 Msc, Raleigh, NC 27699",35.67,-78.66
Franklin County Sheriff's Office,North Carolina DMV Enforcement,Special jurisdiction,197, , , , , ,1100 New Bern Ave., , ,Raleigh,NC,Wake,27697, , , , ,37183,"1100 New Bern Ave., Raleigh, NC 27697",35.7785584,-78.6225844
Franklin County Sheriff's Office,North Carolina Division of State Parks & Recreation,Special jurisdiction,185, , , , , ,1615 Msc, , ,Raleigh,NC,Wake,27699, , , , ,37183,"1615 Msc, Raleigh, NC 27699",35.67,-78.66
Franklin County Sheriff's Office,Greenville Police Department,Local police department,175, , , , , ,Po Box 1109, , ,Greenville,NC,Pitt,27835, , , , ,37147,"Po Box 1109, Greenville, NC 27835",35.61,-77.36999999999999
Franklin County Sheriff's Office,Durham County Sheriff's Office,Sheriff's office,168, , , , , ,Po Box 170, , ,Durham,NC,Durham,27702, , , , ,37063,"Po Box 170, Durham, NC 27702",35.98999999999999,-78.89999999999999
Franklin County Sheriff's Office,Cary Police Department,Local police department,162, , , , , ,Po Box 8005, , ,Cary,NC,Wake,27512, , , , ,37183,"Po Box 8005, Cary, NC 27512",35.76,-78.78999999999999
Franklin County Sheriff's Office,Randolph County Sheriff's Office,Sheriff's office,161, , , , , ,372 Highway Jj, , ,Asheboro,NC,Randolph,27205, , , , ,37151,"372 Highway Jj, Asheboro, NC 27205",35.68935099999999,-79.8119372
Franklin County Sheriff's Office,Rocky Mount Police Department,Local police department,143, , , , , ,Po Box 1180, , ,Rocky Mount,NC,Nash,27802, , , , ,37127,"Po Box 1180, Rocky Mount, NC 27802",35.9628234,-77.8529159
Franklin County Sheriff's Office,Alamance County Sheriff's Office,Sheriff's office,136, , , , , ,109 S Maple St, , ,Graham,NC,Alamance,27253, , , , ,37001,"109 S Maple St, Graham, NC 27253",36.0684415,-79.4034501
Franklin County Sheriff's Office,Danville Police Department,Local police department,126, , , , , ,410 W. Main St., , ,Danville,VA,Pittsylvania,24543, , , , ,51143,"410 W. Main St., Danville, VA 24543",36.5773425,-79.4128341
Franklin County Sheriff's Office,Pitt County Sheriff's Office,Sheriff's office,125, , , , , ,Po Box 528, , ,Greenville,NC,Pitt,27835, , , , ,37147,"Po Box 528, Greenville, NC 27835",35.61,-77.36999999999999
Franklin County Sheriff's Office,Orange County Sheriff's Office,Sheriff's office,115, , , , , ,Po Box 1468, , ,Hillsborough,NC,Orange,27278, , , , ,37135,"Po Box 1468, Hillsborough, NC 27278",36.0754183,-79.0997347
Franklin County Sheriff's Office,Wilson Police Department,Local police department,114, , , , , ,Po Box 454, , ,Wilson,NC,Wilson,27894, , , , ,37195,"Po Box 454, Wilson, NC 27894",35.72,-77.92
Franklin County Sheriff's Office,Pittsylvania County Sheriff's Office,Sheriff's office,113, , , , , ,21 N. Main Street,P.O. Box 407, ,Chatham,VA,Pittsylvania,24531, , , , ,51143,"21 N. Main Street, Chatham, VA 24531",36.82569429999999,-79.3980806
Franklin County Sheriff's Office,Chapel Hill Police Department,Local police department,112, , , , , ,P.O. Box 157, , ,Chapel Hill,NC,Orange,27514, , , , ,37135,"P.O. Box 157, Chapel Hill, NC 27514",35.9722081,-79.04755589999999
Grant Parish Sheriff's Office,Calcasieu Parish Sheriff's Office,Sheriff's office,592, , , , , ,Po Box 3722,5400 E Broad St, ,Lake Charles,LA,Calcasieu,70602, , , , ,22019,"Po Box 3722, Lake Charles, LA 70602",30.2268519,-93.2132614
Grant Parish Sheriff's Office,Shreveport Police Department,Local police department,511, , , , , ,1234 Texas Ave, , ,Shreveport,LA,Caddo,71101, , , , ,22017,"1234 Texas Ave, Shreveport, LA 71101",32.5008041,-93.7553436
Grant Parish Sheriff's Office,Caddo Parish Sheriff's Office,Sheriff's office,440, , , , , ,501 Texas St Rm 101, , ,Shreveport,LA,Caddo,71101, , , , ,22017,"501 Texas St Rm 101, Shreveport, LA 71101",32.5120844,-93.7497777
Grant Parish Sheriff's Office,Ouachita Parish Sheriff's Office,Sheriff's office,431, , , , , ,400 St John St, , ,Monroe,LA,Ouachita,71201, , , , ,22073,"400 St John St, Monroe, LA 71201",32.4983098,-92.1155308
Grant Parish Sheriff's Office,Lafayette Parish Sheriff's Office,Sheriff's office,367, , , , , ,316 W Main St,PO Drawer 3508, ,Lafayette,LA,Lafayette,70501, , , , ,22055,"316 W Main St, Lafayette, LA 70501",30.223113,-92.0215959
Grant Parish Sheriff's Office,Concordia Parish Sheriff's Office,Sheriff's office,250, , , , , ,4001 Carter St Rm 7, , ,Vidalia,LA,Concordia,71373, , , , ,22029,"4001 Carter St Rm 7, Vidalia, LA 71373",31.5752343,-91.4580074
Grant Parish Sheriff's Office,Lafayette Police Department,Local police department,243, , , , , ,Post Office Box 87, , ,Lafayette,LA,Lafayette,70502, , , , ,22055,"Post Office Box 87, Lafayette, LA 70502",30.2276425,-92.0147366
Grant Parish Sheriff's Office,Rapides Parish Sheriff's Office,Sheriff's office,212, , , , , ,Po Box 1510, , ,Alexandria,LA,Rapides,71309, , , , ,22079,"Po Box 1510, Alexandria, LA 71309",31.31943799999999,-92.4672927
Grant Parish Sheriff's Office,Monroe Police Department,Local police department,188, , , , , ,818 W Main, , ,Monroe,LA,Ouachita,71210, , , , ,22073,"818 W Main, Monroe, LA 71210",32.5,-92.11
Grant Parish Sheriff's Office,Bossier City Police Dept,Local police department,178, , , , , ,Po Box 6216, , ,Bossier City,LA,Bossier,71171, , , , ,22015,"Po Box 6216, Bossier City, LA 71171",32.5170024,-93.7168371
Grant Parish Sheriff's Office,Alexandria Police Department,Local police department,167, , , , , ,8236 W. Main St., , ,Alexandria,LA,Rapides,71301, , , , ,22079,"8236 W. Main St., Alexandria, LA 71301",31.3080674,-92.43957
Grant Parish Sheriff's Office,Avoyelles Parish Sheriff's Office,Sheriff's office,159, , , , , ,675 Government St, , ,Marksville,LA,Avoyelles,71351, , , , ,22009,"675 Government St, Marksville, LA 71351",31.1168186,-92.0673527
Grant Parish Sheriff's Office,Lake Charles Police Department,Local police department,153, , , , , ,Po Box 1564, , ,Lake Charles,LA,Calcasieu,70602, , , , ,22019,"Po Box 1564, Lake Charles, LA 70602",30.2268519,-93.2132614
Grant Parish Sheriff's Office,Richland Parish Sheriff's Office,Sheriff's office,150, , , , , ,708 Julia St, , ,Rayville,LA,Richland,71269, , , , ,22083,"708 Julia St, Rayville, LA 71269",32.4768394,-91.7591768
Hagerstown Police Department,Pennsylvania State Police,Primary state law enforcement agency,4458, , , , , ,1800 Elmerton Ave, , ,Harrisburg,PA,Dauphin,17110, , , , ,42043,"1800 Elmerton Ave, Harrisburg, PA 17110",40.2975963,-76.8601869
Hagerstown Police Department,Washington Metropolitan Police Department,Local police department,3742, , , , , ,300 Indiana Avenue NW, , ,Washington,DC,District of Columbia,20001, , , , ,11001,"300 Indiana Avenue NW, Washington, DC 20001",38.8941731,-77.0165485
Hagerstown Police Department,Baltimore Police Department,Local police department,2990, , , , , ,416 West Market Street, , ,Baltimore,MD,Baltimore City,21211, , , , ,24510,"416 West Market Street, Baltimore, MD 21211",39.3289463,-76.63838319999999
Hagerstown Police Department,Baltimore County Police Department,Local police department,1910, , , , , ,700 E. Joppa Rd, , ,Towson,MD,Baltimore,21286, , , , ,24005,"700 E. Joppa Rd, Towson, MD 21286",39.4004596,-76.58894120000001
Hagerstown Police Department,Prince George's County Police Department,Local police department,1578, , , , , ,7600 Barlowe Road, , ,Landover,MD,Prince Georges,20785, , , , ,24033,"7600 Barlowe Road, Landover, MD 20785",38.9181202,-76.87533289999999
Hagerstown Police Department,Maryland State Police,Primary state law enforcement agency,1440, , , , , ,1201 Reisterstown Rd, , ,Pikesville,MD,Baltimore,21208, , , , ,24005,"1201 Reisterstown Rd, Pikesville, MD 21208",39.3764468,-76.7217407
Hagerstown Police Department,Fairfax County Police Department,Local police department,1419, , , , , ,4100 Chain Bridge Road, , ,Fairfax,VA,Fairfax,22030, , , , ,51059,"4100 Chain Bridge Road, Fairfax, VA 22030",38.8450521,-77.3091888
Hagerstown Police Department,Montgomery County Police Department,Local police department,1206, , , , , ,2350 Research Blvd., , ,Rockville,MD,Montgomery,20850, , , , ,24031,"2350 Research Blvd., Rockville, MD 20850",39.1034006,-77.1861511
Hagerstown Police Department,Anne Arundel County Police Department,Local police department,633, , , , , ,8495 Veterans Highway, , ,Millersville,MD,Anne Arundel,21108, , , , ,24003,"8495 Veterans Highway, Millersville, MD 21108",39.0992853,-76.6257475
Hagerstown Police Department,Prince William County Police Department,Local police department,546, , , , , ,1 County Complex Court, , ,Prince William,VA,Prince William,22192, , , , ,51153,"1 County Complex Court, Prince William, VA 22192",38.679809,-77.35211819999999
Hagerstown Police Department,Fairfax County Sheriff's Office,Sheriff's office,499, , , , , ,4110 Chain Bridge Rd, , ,Fairfax,VA,Fairfax,22030, , , , ,51059,"4110 Chain Bridge Rd, Fairfax, VA 22030",38.8437621,-77.309071
Hagerstown Police Department,Maryland Transportation Authority Police,Special jurisdiction,456, , , , , ,4330 Broening Hwy, , ,Baltimore,MD,Baltimore,21222, , , , ,24005,"4330 Broening Hwy, Baltimore, MD 21222",39.2324431,-76.50360959999999
Hagerstown Police Department,Loudoun County Sheriff's Office,Sheriff's office,448, , , , , ,39 Catoctin Circle Se, , ,Leesburg,VA,Loudoun,20175, , , , ,51107,"39 Catoctin Circle Se, Leesburg, VA 20175",39.1064224,-77.5649048
Hagerstown Police Department,Washington Metropolitan Area Transit Authority Police,Special jurisdiction,442, , , , , ,"600 Fifth St., N.W. Rm 5 D 23", , ,Washington,DC,District of Columbia,20001, , , , ,11001,"600 Fifth St., N.W. Rm 5 D 23, Washington, DC 20001",38.8979138,-77.01947270000001
Hagerstown Police Department,Howard County Police Department,Local police department,424, , , , , ,3410 Courthouse Dr, , ,Ellicott City,MD,Howard,21043, , , , ,24027,"3410 Courthouse Dr, Ellicott City, MD 21043",39.275709,-76.8074358
Hagerstown Police Department,Arlington County Police Department,Local police department,364, , , , , ,1425 N. Courthouse Rd., , ,Arlington,VA,Arlington,22201, , , , ,51013,"1425 N. Courthouse Rd., Arlington, VA 22201",38.889881,-77.0831772
Hagerstown Police Department,Alexandria Police Department,Local police department,315, , , , , ,8236 W. Main St., , ,Alexandria,VA,Alexandria City,22314, , , , ,51510,"8236 W. Main St., Alexandria, VA 22314",38.8048355,-77.0469214
Hagerstown Police Department,Charles County Sheriff's Office,Sheriff's office,289, , , , , ,6915 Crain Hwy,PO Box 189, ,La Plata,MD,Charles,20646, , , , ,24017,"6915 Crain Hwy, La Plata, MD 20646",38.5230625,-76.9828951
Hagerstown Police Department,Harford County Sheriff's Office,Sheriff's office,280, , , , , ,45 S Main St,PO Box 150, ,Bel Air,MD,Harford,21014, , , , ,24025,"45 S Main St, Bel Air, MD 21014",39.5360421,-76.34828449999999
Hagerstown Police Department,Maryland State Forest And Park Service,Special jurisdiction,261, , , , , ,"Tawes, 580 Taylor Avenue; E-3", , ,Annapolis,MD,Anne Arundel,21401, , , , ,24003,"Tawes, 580 Taylor Avenue; E-3, Annapolis, MD 21401",38.9861813,-76.5030767
Hagerstown Police Department,Prince George's County Sheriff's Office,Sheriff's office,233, , , , , ,Po Box 548, , ,Upper Marlboro,MD,Prince Georges,20773, , , , ,24033,"Po Box 548, Upper Marlboro, MD 20773",38.82,-76.75
Hagerstown Police Department,Maryland Natural Resources Police,Special jurisdiction,224, , , , , ,580 Taylor Ave E-3, , ,Annapolis,MD,Anne Arundel,21401, , , , ,24003,"580 Taylor Ave E-3, Annapolis, MD 21401",38.9861813,-76.5030767
Hagerstown Police Department,Arlington County Sheriff's Office,Sheriff's office,211, , , , , ,"1425 N Court House Rd, Ste 9100", , ,Arlington,VA,Arlington,22201, , , , ,51013,"1425 N Court House Rd, Ste 9100, Arlington, VA 22201",38.8899796,-77.08349299999999
Hagerstown Police Department,Metropolitan Washington Airports Authority Police,Special jurisdiction,206, , , , , ,"Headquarters Reagan-National,", , ,Arlington,VA,Arlington,22202, , , , ,51013,"Headquarters Reagan-National,, Arlington, VA 22202",38.851242,-77.04023149999999
Hagerstown Police Department,Pennsylvania Game Commission - Law Enforcement,Special jurisdiction,191, , , , , ,2001 Elmerton Ave, , ,Harrisburg,PA,Dauphin,17110, , , , ,42043,"2001 Elmerton Ave, Harrisburg, PA 17110",40.2948084,-76.8547083
Hagerstown Police Department,Frederick County Sheriff's Office,Sheriff's office,177, , , , , ,Frederick County Sheriff'S Office,1080 Coverstone Dr, ,Frederick,MD,Frederick,21701, , , , ,24021,"Frederick County Sheriff'S Office, Frederick, MD 21701",39.4076788,-77.37558039999999
Hagerstown Police Department,Alexandria (City) Sheriff's Office,Sheriff's office,172, , , , , ,2003 Mill Road, , ,Alexandria,VA,Alexandria City,22314, , , , ,51510,"2003 Mill Road, Alexandria, VA 22314",38.7981298,-77.0646677
Hagerstown Police Department,Lancaster Police Department,Local police department,161, , , , , ,25 Main Street, , ,Lancaster,PA,Lancaster,17603, , , , ,42071,"25 Main Street, Lancaster, PA 17603",40.0144597,-76.3289941
Hagerstown Police Department,Spotsylvania County Sheriff's Office,Sheriff's office,156, , , , , ,Po Box 124, , ,Spotsylvania,VA,Spotsylvania,22553, , , , ,51177,"Po Box 124, Spotsylvania, VA 22553",38.1979096,-77.58776519999999
Hagerstown Police Department,Harrisburg Police Department,Local police department,155, , , , , ,123 Walnut Street, , ,Harrisburg,PA,Dauphin,17101, , , , ,42043,"123 Walnut Street, Harrisburg, PA 17101",40.2600382,-76.88358180000002
Hagerstown Police Department,Stafford County Sheriff's Office,Sheriff's office,148, , , , , ,209 N Broadway St, , ,Stafford,VA,Stafford,22555, , , , ,51179,"209 N Broadway St, Stafford, VA 22555",38.42,-77.41
Hagerstown Police Department,Montgomery County Sheriff's Office,Sheriff's office,143, , , , , ,Po Box 432,200 Clark Dr, ,Rockville,MD,Montgomery,20850, , , , ,24031,"Po Box 432, Rockville, MD 20850",39.0839994,-77.1527813
Hagerstown Police Department,Baltimore City School Police Dept.,Special jurisdiction,142, , , , , ,200 E. North Avenue,Room 002, ,Baltimore,MD,Baltimore City,21202, , , , ,24510,"200 E. North Avenue, Baltimore, MD 21202",39.3119016,-76.6132013
Hagerstown Police Department,Maryland Transit Administration Police,Special jurisdiction,140, , , , , ,1040 Park Ave,Ste 306, ,Baltimore,MD,Baltimore City,21201, , , , ,24510,"1040 Park Ave, Baltimore, MD 21201",39.3035401,-76.6196831
Hagerstown Police Department,Frederick Police Department,Local police department,138, , , , , ,100 W. Patrick Street, , ,Frederick,MD,Frederick,21701, , , , ,24021,"100 W. Patrick Street, Frederick, MD 21701",39.4136667,-77.412909
Hagerstown Police Department,Annapolis Police Department,Local police department,114, , , , , ,199 Taylor Ave, , ,Annapolis,MD,Anne Arundel,21401, , , , ,24003,"199 Taylor Ave, Annapolis, MD 21401",38.9790564,-76.5064779
Hagerstown Police Department,Fauquier County Sheriff's Office,Sheriff's office,113, , , , , ,78 W Lee St Ste 200, , ,Warrenton,VA,Fauquier,20186, , , , ,51061,"78 W Lee St Ste 200, Warrenton, VA 20186",38.7128606,-77.7987468
Houston Fire-Arson,Houston Police Department,Local police department,5053, , , , , ,17000 Aldine Westfield, , ,Houston,TX,Harris,77073, , , , ,48201,"17000 Aldine Westfield, Houston, TX 77073",29.9668297,-95.3621635
Houston Fire-Arson,Harris County Sheriff's Office,Sheriff's office,2558, , , , , ,1200 Baker St, , ,Houston,TX,Harris,77002, , , , ,48201,"1200 Baker St, Houston, TX 77002",29.7633996,-95.3565019
Houston Fire-Arson,Fort Bend County Sheriff's Office,Sheriff's office,400, , , , , ,1410 Ransom Rd, , ,Richmond,TX,Fort Bend,77469, , , , ,48157,"1410 Ransom Rd, Richmond, TX 77469",29.5640319,-95.7052364
Houston Fire-Arson,Montgomery County Sheriff's Office,Sheriff's office,357, , , , , ,Po Box 432,200 Clark Dr, ,Conroe,TX,Montgomery,77301, , , , ,48339,"Po Box 432, Conroe, TX 77301",30.3120301,-95.4253757
Houston Fire-Arson,Harris County Constable Pct. 4,Constable/marshal,346, , , , , ,6831 Cypresswood Dr,Attn: Lt. Walls, ,Spring,TX,Harris,77379, , , , ,48201,"6831 Cypresswood Dr, Spring, TX 77379",30.0118442,-95.5115587
Houston Fire-Arson,Harris County Constable Pct. 5,Constable/marshal,318, , , , , ,17423 Katy Freeway, , ,Houston,TX,Harris,77094, , , , ,48201,"17423 Katy Freeway, Houston, TX 77094",29.783774,-95.6824889
Houston Fire-Arson,Pasadena Police Department,Local police department,260, , , , , ,1114 JEFF GINN MEMORIAL DRIVE, , ,Pasadena,TX,Harris,77506, , , , ,48201,"1114 JEFF GINN MEMORIAL DRIVE, Pasadena, TX 77506",29.6885512,-95.1976788
Houston Fire-Arson,Beaumont Police Department,Local police department,246, , , , , ,P. O. Box 3827, , ,Beaumont,TX,Jefferson,77704, , , , ,48245,"P. O. Box 3827, Beaumont, TX 77704",30.0802412,-94.0997344
Houston Fire-Arson,Harris County Constable Pct. 1,Constable/marshal,240, , , , , ,"1302 Preston, 3Rd Floor", , ,Houston,TX,Harris,77002, , , , ,48201,"1302 Preston, 3Rd Floor, Houston, TX 77002",29.7595776,-95.3585162
Houston Fire-Arson,Galveston County Sheriff's Office,Sheriff's office,240, , , , , ,601-54Th St, , ,Galveston,TX,Galveston,77551, , , , ,48167,"601-54Th St, Galveston, TX 77551",29.2933928,-94.8305804
Houston Fire-Arson,Houston I.S.D. Police Dept.,Special jurisdiction,197, , , , , ,3500 TAMPA STREET, , ,Houston,TX,Harris,77021, , , , ,48201,"3500 TAMPA STREET, Houston, TX 77021",29.7037113,-95.3656176
Houston Fire-Arson,Harris County Metropolitan Transit Authority Police Dept.,Special jurisdiction,179, , , , , ,810 N. San Jacinto, , ,Houston,TX,Harris,77002, , , , ,48201,"810 N. San Jacinto, Houston, TX 77002",29.7658745,-95.3565491
Houston Fire-Arson,Galveston Police Department,Local police department,161, , , , , ,P.O. Box 17251, , ,Galveston,TX,Galveston,77552, , , , ,48167,"P.O. Box 17251, Galveston, TX 77552",29.2895189,-94.832519
Houston Fire-Arson,Jefferson County Sheriff's Office,Sheriff's office,142, , , , , ,16001 State Route 7, , ,Beaumont,TX,Jefferson,77701, , , , ,48245,"16001 State Route 7, Beaumont, TX 77701",30.0887749,-94.1203406
Houston Fire-Arson,Baytown Police Department,Local police department,136, , , , , ,3200 North Main, , ,Baytown,TX,Harris,77521, , , , ,48201,"3200 North Main, Baytown, TX 77521",29.7562772,-94.9627152
Houston Fire-Arson,Sugar Land Police Department,Local police department,130, , , , , ,PO BOX 110, , ,Sugar Land,TX,Fort Bend,77478, , , , ,48157,"PO BOX 110, Sugar Land, TX 77478",29.6185208,-95.6090009
Houston Fire-Arson,Brazoria County Sheriff's Office,Sheriff's office,127, , , , , ,3602 County Rd 45, , ,Angleton,TX,Brazoria,77515, , , , ,48039,"3602 County Rd 45, Angleton, TX 77515",29.2438635,-95.4088103
Houston Fire-Arson,Pearland Police Department,Local police department,124, , , , , ,2703 Veterans Drive, , ,Pearland,TX,Brazoria,77584, , , , ,48039,"2703 Veterans Drive, Pearland, TX 77584",29.5580333,-95.2890917
Houston Fire-Arson,Bryan Police Department,Local police department,123, , , , , ,103 North Beech Street, , ,Bryan,TX,Brazos,77805, , , , ,48041,"103 North Beech Street, Bryan, TX 77805",30.6743643,-96.3699632
Houston Fire-Arson,Port Arthur Police Department,Local police department,118, , , , , ,P. O. Box 1089, , ,Port Arthur,TX,Jefferson,77641, , , , ,48245,"P. O. Box 1089, Port Arthur, TX 77641",29.8688563,-93.9337944
Houston Fire-Arson,Harris County Constable Pct. 3,Constable/marshal,114, , , , , ,701 W. Baker Rd., , ,Baytown,TX,Harris,77521, , , , ,48201,"701 W. Baker Rd., Baytown, TX 77521",29.7687356,-94.9711336
Meridian Technology Center,Oklahoma City Police Department,Local police department,1046, , , , , ,701 Colcord Drive, , ,Okla. City,OK,Oklahoma,73102, , , , ,40109,"701 Colcord Drive, Okla. City, OK 73102",35.4689202,-97.524875
Meridian Technology Center,Tulsa Police Department,Local police department,826, , , , , ,600 Civic Center, , ,Tulsa,OK,Tulsa,74103, , , , ,40143,"600 Civic Center, Tulsa, OK 74103",36.1496181,-95.995404
Meridian Technology Center,Oklahoma Department of Public Safety,Primary state law enforcement agency,825, , , , , ,P. O. Box 11415, , ,"Okla. City,",OK,Oklahoma,73136, , , , ,40109,"P. O. Box 11415, Okla. City,, OK 73136",35.48999999999999,-97.48
Meridian Technology Center,Seminole County Sheriff's Office,Sheriff's office,355, , , , , ,"Courthouse, 110 S Wewoka", , ,Sanford,FL,Seminole,32773, , , , ,12117,"Courthouse, 110 S Wewoka, Sanford, FL 32773",35.1586902,-96.4933457
Meridian Technology Center,Tulsa County Sheriff's Office,Sheriff's office,237, , , , , ,500 S Denver Ave, , ,Tulsa,OK,Tulsa,74103, , , , ,40143,"500 S Denver Ave, Tulsa, OK 74103",36.1546259,-95.9913068
Meridian Technology Center,Oklahoma County Sheriff's Office,Sheriff's office,196, , , , , ,201 N Shartel Ave, , ,Oklahoma City,OK,Oklahoma,73102, , , , ,40109,"201 N Shartel Ave, Oklahoma City, OK 73102",35.4696416,-97.5267827
Meridian Technology Center,Oklahoma State Bureau of Investigation,Special jurisdiction,149, , , , , ,6600 N. Harvey, , ,"Okla. City,",OK,Oklahoma,73116, , , , ,40109,"6600 N. Harvey, Okla. City,, OK 73116",35.5405521,-97.5182837
Meridian Technology Center,Norman Police Department,Local police department,130, , , , , ,201-B West Gray, , ,Norman,OK,Cleveland,73069, , , , ,40027,"201-B West Gray, Norman, OK 73069",35.2229932,-97.446108
Meridian Technology Center,Broken Arrow Police Department,Local police department,124, , , , , ,P. O. Box 610, , ,Broken Arrow,OK,Tulsa,74012, , , , ,40143,"P. O. Box 610, Broken Arrow, OK 74012",36.05826630000001,-95.7932008
Meridian Technology Center,Oklahoma Dept. of Wildlife Conservation,Special jurisdiction,113, , , , , ,1801 N. Lincoln, , ,"Okla. City,",OK,Oklahoma,73105, , , , ,40109,"1801 N. Lincoln, Okla. City,, OK 73105",35.4876492,-97.5043232
Newton County Sheriff's Office,Atlanta Police Department,Local police department,1719, , , , , ,"675 Ponce De Leon, 9Th Floor", , ,Atlanta,GA,Fulton,30308, , , , ,13121,"675 Ponce De Leon, 9Th Floor, Atlanta, GA 30308",33.7728691,-84.3657303
Newton County Sheriff's Office,DeKalb County Police Department,Local police department,1074, , , , , ,1960 West Exchange Place, , ,Tucker,GA,DeKalb,30084, , , , ,13089,"1960 West Exchange Place, Tucker, GA 30084",33.8408368,-84.2457943
Newton County Sheriff's Office,Georgia Department of Public Safety,Primary state law enforcement agency,1048, , , , , ,P.O. Box 1456, , ,Atlanta,GA,Fulton,30371, , , , ,13121,"P.O. Box 1456, Atlanta, GA 30371",33.75,-84.39
Newton County Sheriff's Office,Gwinnett County Police Department,Local police department,682, , , , , ,770 Hi Hope Road, , ,Lawrenceville,GA,Gwinnett,30045, , , , ,13135,"770 Hi Hope Road, Lawrenceville, GA 30045",33.9871782,-83.97304989999999
Newton County Sheriff's Office,Cobb County Police Department,Local police department,590, , , , , ,140 North Marietta Parkway, , ,Marietta,GA,Cobb,30060, , , , ,13067,"140 North Marietta Parkway, Marietta, GA 30060",33.9576978,-84.54836259999999
Newton County Sheriff's Office,Gwinnett County Sheriff's Office,Sheriff's office,531, , , , , ,2900 University Pkwy, , ,Lawrenceville,GA,Gwinnett,30043, , , , ,13135,"2900 University Pkwy, Lawrenceville, GA 30043",33.9821569,-83.97731979999999
Newton County Sheriff's Office,Fulton County Sheriff's Office,Sheriff's office,516, , , , , ,P. O. Box 7,2216 Myron Cory Drive, ,Atlanta,GA,Fulton,30303, , , , ,13121,"P. O. Box 7, Atlanta, GA 30303",33.755711,-84.3883717
Newton County Sheriff's Office,Cobb County Sheriff's Office,Sheriff's office,435, , , , , ,185 Roswell St Ne, , ,Marietta,GA,Cobb,30060, , , , ,13067,"185 Roswell St Ne, Marietta, GA 30060",33.9523312,-84.54750899999999
Newton County Sheriff's Office,Cherokee County Sheriff's Office,Sheriff's office,340, , , , , ,111 N 5Th St, , ,Canton,GA,Cherokee,30115, , , , ,13057,"111 N 5Th St, Canton, GA 30115",34.2367621,-84.4907621
Newton County Sheriff's Office,Clayton County Police Department,Local police department,336, , , , , ,7930 N. Mcdonough Street, , ,Jonesboro,GA,Clayton,30236, , , , ,13063,"7930 N. Mcdonough Street, Jonesboro, GA 30236",33.5397805,-84.3461411
Newton County Sheriff's Office,DeKalb County Sheriff's Office,Sheriff's office,325, , , , , ,4415 Memorial Dr, , ,Decatur,GA,DeKalb,30032, , , , ,13089,"4415 Memorial Dr, Decatur, GA 30032",33.7756919,-84.24480260000001
Newton County Sheriff's Office,MARTA Police Department,Special jurisdiction,309, , , , , ,2424 Piedmont Rd N.E., , ,Atlanta,GA,Fulton,30324, , , , ,13121,"2424 Piedmont Rd N.E., Atlanta, GA 30324",33.8241328,-84.3684155
Newton County Sheriff's Office,Bibb County Sheriff's Office,Sheriff's office,290, , , , , ,668 Oglethorpe St,PO Box 930, ,Macon,GA,Bibb,31201, , , , ,13021,"668 Oglethorpe St, Macon, GA 31201",32.8291993,-83.6372538
Newton County Sheriff's Office,Georgia Bureau of Investigation,Special jurisdiction,278, , , , , ,3121 Panthersville Road, , ,Decatur,GA,DeKalb,30034, , , , ,13089,"3121 Panthersville Road, Decatur, GA 30034",33.6927503,-84.27303739999999
Newton County Sheriff's Office,Macon Police Department,Local police department,270, , , , , ,301 E Bourke Street, , ,Macon,GA,Bibb,31202, , , , ,13021,"301 E Bourke Street, Macon, GA 31202",32.8406946,-83.6324022
Newton County Sheriff's Office,Hall County Sheriff's Office,Sheriff's office,257, , , , , ,"512 Main St, Ste 7", , ,Gainesville,GA,Hall,30501, , , , ,13139,"512 Main St, Ste 7, Gainesville, GA 30501",34.2959669,-83.8254604
Newton County Sheriff's Office,Forsyth County Sheriff's Office,Sheriff's office,253, , , , , ,120 W 3Rd St,PO Box 21089, ,Cumming,GA,Forsyth,30040, , , , ,13117,"120 W 3Rd St, Cumming, GA 30040",34.2073196,-84.14019259999999
Newton County Sheriff's Office,Henry County Police Department,Local police department,225, , , , , ,108 South Zack Hinton Parkway, , ,McDonough,GA,Henry,30253, , , , ,13151,"108 South Zack Hinton Parkway, McDonough, GA 30253",33.4439086,-84.13722279999999
Newton County Sheriff's Office,Douglas County Sheriff's Office,Sheriff's office,223, , , , , ,6856 Broad St, , ,Douglasville,GA,Douglas,30134, , , , ,13097,"6856 Broad St, Douglasville, GA 30134",33.7514966,-84.7477136
Newton County Sheriff's Office,Athens-Clarke County Police Dept,Local police department,213, , , , , ,3035 Lexington Road, , ,Athens,GA,Clarke,30605, , , , ,13059,"3035 Lexington Road, Athens, GA 30605",33.9422911,-83.328259
Newton County Sheriff's Office,Georgia Department of Natural Resources - Wildlife Resource Div.,Special jurisdiction,209, , , , , ,2070 U.S. Highway 278 Southwest, , ,Social Circle,GA,Walton,30025, , , , ,13297,"2070 U.S. Highway 278 Southwest, Social Circle, GA 30025",33.6241971,-83.6782371
Newton County Sheriff's Office,Columbia County Sheriff's Office,Sheriff's office,206, , , , , ,4917 Us Highway 90, , ,Appling,GA,Columbia,30802, , , , ,13073,"4917 Us Highway 90, Appling, GA 30802",33.54609000000001,-82.3163154
Newton County Sheriff's Office,Anderson County Sheriff's Office,Sheriff's office,191, , , , , ,141 S Main St, , ,Anderson,SC,Anderson,29625, , , , ,45007,"141 S Main St, Anderson, SC 29625",34.5031186,-82.6492222
Newton County Sheriff's Office,Paulding County Sheriff's Office,Sheriff's office,175, , , , , ,500 E Perry St, , ,Dallas,GA,Paulding,30132, , , , ,13223,"500 E Perry St, Dallas, GA 30132",33.9244531,-84.8413056
Newton County Sheriff's Office,Bartow County Sheriff's Office,Sheriff's office,172, , , , , ,104 Zena Dr,PO Box 476, ,Cartersville,GA,Bartow,30121, , , , ,13015,"104 Zena Dr, Cartersville, GA 30121",34.1911781,-84.7774105
Newton County Sheriff's Office,Rockdale County Sheriff's Office,Sheriff's office,170, , , , , ,911 Chambers Dr Nw, , ,Conyers,GA,Rockdale,30012, , , , ,13247,"911 Chambers Dr Nw, Conyers, GA 30012",33.6866407,-84.0573503
Newton County Sheriff's Office,Newton County Sheriff's Office,Sheriff's office,152, , , , , ,304 E Seymour St, , ,Covington,GA,Newton,30014, , , , ,13217,"304 E Seymour St, Covington, GA 30014",33.5937082,-83.8557361
Newton County Sheriff's Office,Fayette County Sheriff's Office,Sheriff's office,143, , , , , ,Po Box 509, , ,Fayetteville,GA,Fayette,30214, , , , ,13113,"Po Box 509, Fayetteville, GA 30214",33.473501,-84.5012435
Newton County Sheriff's Office,Coweta County Sheriff's Office,Sheriff's office,137, , , , , ,560 Greison Trl, , ,Newnan,GA,Coweta,30263, , , , ,13077,"560 Greison Trl, Newnan, GA 30263",33.3818052,-84.783293
Newton County Sheriff's Office,Marietta Police Department,Local police department,133, , , , , ,101 W. Main, , ,Marietta,GA,Cobb,30060, , , , ,13067,"101 W. Main, Marietta, GA 30060",33.95260200000001,-84.5499327
Newton County Sheriff's Office,Fulton County Police Department,Local police department,129, , , , , ,130 Peachtree St.S.W., , ,Atlanta,GA,Fulton,30303, , , , ,13121,"130 Peachtree St.S.W., Atlanta, GA 30303",33.7513039,-84.3922613
Newton County Sheriff's Office,Clarke County Sheriff's Office,Sheriff's office,128, , , , , ,220 Town Line Rd,PO Box 537, ,Athens,GA,Clarke,30601, , , , ,13059,"220 Town Line Rd, Athens, GA 30601",34.00684500000001,-83.3468784
Newton County Sheriff's Office,Henry County Sheriff's Office,Sheriff's office,127, , , , , ,3250 Kings Mountain Rd, , ,Mcdonough,GA,Henry,30253, , , , ,13151,"3250 Kings Mountain Rd, Mcdonough, GA 30253",33.4473361,-84.1468616
Newton County Sheriff's Office,Barrow County Sheriff's Office,Sheriff's office,127, , , , , ,30 N Broad St, , ,Winder,GA,Barrow,30680, , , , ,13013,"30 N Broad St, Winder, GA 30680",33.9923013,-83.72195889999999
Newton County Sheriff's Office,Walton County Sheriff's Office,Sheriff's office,123, , , , , ,1425 S Madison Ave, , ,Monroe,GA,Walton,30655, , , , ,13297,"1425 S Madison Ave, Monroe, GA 30655",33.770767,-83.69944029999999
Newton County Sheriff's Office,Roswell Police Department,Local police department,122, , , , , ,P.O. Box 1994, , ,Roswell,GA,Fulton,30075, , , , ,13121,"P.O. Box 1994, Roswell, GA 30075",34.0586259,-84.38574419999999
Newton County Sheriff's Office,Sandy Springs Police Department,Local police department,120, , , , , ,5995 Barfield Road, , ,Sandy Springs,GA,Fulton,30328, , , , ,13121,"5995 Barfield Road, Sandy Springs, GA 30328",33.9193034,-84.35902630000001
Newton County Sheriff's Office,East Point Police Department,Local police department,116, , , , , ,2727 East Point Street, , ,East Point,GA,Fulton,30344, , , , ,13121,"2727 East Point Street, East Point, GA 30344",33.6806015,-84.44194929999999
Newton County Sheriff's Office,Houston County Sheriff's Office,Sheriff's office,114, , , , , ,3330 State Hwy 149, , ,Warner Robins,GA,Houston,31088, , , , ,13153,"3330 State Hwy 149, Warner Robins, GA 31088",32.590481,-83.624201
Newton County Sheriff's Office,Clayton County Sheriff's Office,Sheriff's office,113, , , , , ,P.O. Box 10,22680 230th Street, ,Jonesboro,GA,Clayton,30236, , , , ,13063,"P.O. Box 10, Jonesboro, GA 30236",33.5215013,-84.3538128
Sahuarita Police Department ,Tucson Police Department,Local police department,1032, , , , , ,270 South Stone Street, , ,Tucson,AZ,Pima,85701, , , , ,4019,"270 South Stone Street, Tucson, AZ 85701",32.21744350000001,-110.9713127
Sahuarita Police Department ,Pima County Sheriff's Dept.,Sheriff's office,554, , , , , ,1750 E. Benson Hwy, , ,Tucson,AZ,Pima,85714, , , , ,4019,"1750 E. Benson Hwy, Tucson, AZ 85714",32.1710491,-110.9465928
Sahuarita Police Department ,Pinal County Sheriff's Office,Sheriff's office,218, , , , , ,"971 N Jason Lopez Circle, Bldg C",PO Box 867, ,Florence,AZ,Pinal,85232, , , , ,4021,"971 N Jason Lopez Circle, Bldg C, Florence, AZ 85232",33.0412483,-111.3760986
Shreveport Police Department,Shreveport Police Department,Local police department,511, , , , , ,1234 Texas Ave, , ,Shreveport,LA,Caddo,71101, , , , ,22017,"1234 Texas Ave, Shreveport, LA 71101",32.5008041,-93.7553436
Shreveport Police Department,Caddo Parish Sheriff's Office,Sheriff's office,440, , , , , ,501 Texas St Rm 101, , ,Shreveport,LA,Caddo,71101, , , , ,22017,"501 Texas St Rm 101, Shreveport, LA 71101",32.5120844,-93.7497777
Shreveport Police Department,Ouachita Parish Sheriff's Office,Sheriff's office,431, , , , , ,400 St John St, , ,Monroe,LA,Ouachita,71201, , , , ,22073,"400 St John St, Monroe, LA 71201",32.4983098,-92.1155308
Shreveport Police Department,Bossier Parish Sheriff's Office,Sheriff's office,300, , , , , ,Po Box 850, , ,Benton,LA,Bossier,71006, , , , ,22015,"Po Box 850, Benton, LA 71006",32.6948677,-93.7418454
Shreveport Police Department,Monroe Police Department,Local police department,188, , , , , ,818 W Main, , ,Monroe,LA,Ouachita,71210, , , , ,22073,"818 W Main, Monroe, LA 71210",32.5,-92.11
Shreveport Police Department,Tyler Police Department,Local police department,185, , , , , ,711 West Ferguson St., , ,Tyler,TX,Smith,75702, , , , ,48423,"711 West Ferguson St., Tyler, TX 75702",32.352354,-95.3078977
Shreveport Police Department,Bossier City Police Dept,Local police department,178, , , , , ,Po Box 6216, , ,Bossier City,LA,Bossier,71171, , , , ,22015,"Po Box 6216, Bossier City, LA 71171",32.5170024,-93.7168371
Shreveport Police Department,Longview Police Department,Local police department,165, , , , , ,P. O. Box 1952, , ,Longview,TX,Gregg,75606, , , , ,48183,"P. O. Box 1952, Longview, TX 75606",32.462314,-94.730502
Soddy Daisy Police Department,Knox County Sheriff's Office,Sheriff's office,456, , , , , ,Po Box 1669, , ,Knoxville,TN,Knox,37902, , , , ,47093,"Po Box 1669, Knoxville, TN 37902",35.9641189,-83.92016559999999
Soddy Daisy Police Department,Chattanooga Police Department,Local police department,434, , , , , ,3410 Amnicola Hwy., , ,Chattanooga,TN,Hamilton,37406, , , , ,47065,"3410 Amnicola Hwy., Chattanooga, TN 37406",35.0818065,-85.26308879999999
Soddy Daisy Police Department,Huntsville Police Department,Local police department,405, , , , , ,205 S Main Street, , ,Huntsville,AL,Madison,35804, , , , ,1089,"205 S Main Street, Huntsville, AL 35804",34.7303688,-86.5861037
Soddy Daisy Police Department,Knoxville Police Department,Local police department,375, , , , , ,P.O. Box 3610, , ,Knoxville,TN,Knox,37927, , , , ,47093,"P.O. Box 3610, Knoxville, TN 37927",36.0,-83.92000000000002
Soddy Daisy Police Department,Cherokee County Sheriff's Office,Sheriff's office,340, , , , , ,111 N 5Th St, , ,Canton,GA,Cherokee,30115, , , , ,13057,"111 N 5Th St, Canton, GA 30115",34.2367621,-84.4907621
Soddy Daisy Police Department,Forsyth County Sheriff's Office,Sheriff's office,253, , , , , ,120 W 3Rd St,PO Box 21089, ,Cumming,GA,Forsyth,30040, , , , ,13117,"120 W 3Rd St, Cumming, GA 30040",34.2073196,-84.14019259999999
Soddy Daisy Police Department,Murfreesboro Police Department,Local police department,213, , , , , ,302 S. Church St., , ,Murfreesboro,TN,Rutherford,37130, , , , ,47149,"302 S. Church St., Murfreesboro, TN 37130",35.8437759,-86.39215519999999
Soddy Daisy Police Department,Wilson County Sheriff's Office,Sheriff's office,202, , , , , ,925 Pierce St, , ,Lebanon,TN,Wilson,37087, , , , ,47189,"925 Pierce St, Lebanon, TN 37087",36.2169091,-86.3346882
Soddy Daisy Police Department,Bradley County Sheriff's Office,Sheriff's office,200, , , , , ,107 N. Myrtle St., , ,Cleveland,TN,Bradley,37311, , , , ,47011,"107 N. Myrtle St., Cleveland, TN 37311",35.0981107,-84.9297206
Soddy Daisy Police Department,Rutherford County Sheriff's Office,Sheriff's office,189, , , , , ,198 N Washington St, , ,Murfreesboro,TN,Rutherford,37129, , , , ,47149,"198 N Washington St, Murfreesboro, TN 37129",35.9173416,-86.4490926
Soddy Daisy Police Department,Blount County Sheriff's Office,Sheriff's office,176, , , , , ,225 Industrial Park Rd, , ,Maryville,TN,Blount,37804, , , , ,47009,"225 Industrial Park Rd, Maryville, TN 37804",35.7830899,-83.91089680000002
Soddy Daisy Police Department,Paulding County Sheriff's Office,Sheriff's office,175, , , , , ,500 E Perry St, , ,Dallas,GA,Paulding,30132, , , , ,13223,"500 E Perry St, Dallas, GA 30132",33.9244531,-84.8413056
Soddy Daisy Police Department,Bartow County Sheriff's Office,Sheriff's office,172, , , , , ,104 Zena Dr,PO Box 476, ,Cartersville,GA,Bartow,30121, , , , ,13015,"104 Zena Dr, Cartersville, GA 30121",34.1911781,-84.7774105
Soddy Daisy Police Department,Hamilton County Sheriff's Office,Sheriff's office,146, , , , , ,Po Box 764,103 West Ave C, ,Chattanooga,TN,Hamilton,37402, , , , ,47065,"Po Box 764, Chattanooga, TN 37402",35.0449767,-85.31620660000002
Soddy Daisy Police Department,Roswell Police Department,Local police department,122, , , , , ,P.O. Box 1994, , ,Roswell,GA,Fulton,30075, , , , ,13121,"P.O. Box 1994, Roswell, GA 30075",34.0586259,-84.38574419999999
Soddy Daisy Police Department,Whitfield County Sheriff's Office,Sheriff's office,115, , , , , ,805 Professional Blvd, , ,Dalton,GA,Whitfield,30720, , , , ,13313,"805 Professional Blvd, Dalton, GA 30720",34.7937394,-84.979935
Victoria Police Department,Corpus Christi Police Department,Local police department,448, , , , , ,P. O. Box 9016, , ,Corpus Christi,TX,Nueces,78469, , , , ,48355,"P. O. Box 9016, Corpus Christi, TX 78469",27.798027,-97.4290094
Victoria Police Department,Fort Bend County Sheriff's Office,Sheriff's office,400, , , , , ,1410 Ransom Rd, , ,Richmond,TX,Fort Bend,77469, , , , ,48157,"1410 Ransom Rd, Richmond, TX 77469",29.5640319,-95.7052364
Victoria Police Department,Hays County Sheriff's Office,Sheriff's office,124, , , , , ,1307 Uhland Rd, , ,San Marcos,TX,Hays,78666, , , , ,48209,"1307 Uhland Rd, San Marcos, TX 78666",29.8964274,-97.9037991
Williamson County Sheriff's Office,Texas Department of Public Safety,Primary state law enforcement agency,3529, , , , , ,"Attn: Cindy Torres, Hr",P O Box 4087, ,Austin,TX,Travis,78773, , , , ,48453,"Attn: Cindy Torres, Hr, Austin, TX 78773",30.32999999999999,-97.7
Williamson County Sheriff's Office,San Antonio Police Department,Local police department,2020, , , , , ,214 W. Nueva St., , ,San Antonio,TX,Bexar,78207, , , , ,48029,"214 W. Nueva St., San Antonio, TX 78207",29.4227696,-98.4970303
Williamson County Sheriff's Office,Austin Police Department,Local police department,1515, , , , , ,201 1St Street Ne, , ,Austin,TX,Travis,78768, , , , ,48453,"201 1St Street Ne, Austin, TX 78768",30.27,-97.74
Williamson County Sheriff's Office,Bexar County Sheriff's Office,Sheriff's office,526, , , , , ,200 N Comal, , ,San Antonio,TX,Bexar,78207, , , , ,48029,"200 N Comal, San Antonio, TX 78207",29.4285128,-98.5066296
Williamson County Sheriff's Office,Texas Parks & Wildlife Department,Special jurisdiction,480, , , , , ,4200 Smith School Rd,Attn: Randall Odom, ,Austin,TX,Travis,78744, , , , ,48453,"4200 Smith School Rd, Austin, TX 78744",30.1927581,-97.7153718
Williamson County Sheriff's Office,Travis County Sheriff's Office,Sheriff's office,290, , , , , ,P.O. Box 1748, , ,Austin,TX,Travis,78767, , , , ,48453,"P.O. Box 1748, Austin, TX 78767",30.2694174,-97.739694
Williamson County Sheriff's Office,Texas Alcoholic Beverage Commission,Special jurisdiction,277, , , , , ,5806 Mesa Drive,Enforcement Training Section, ,Austin,TX,Travis,78731, , , , ,48453,"5806 Mesa Drive, Austin, TX 78731",30.3421103,-97.7712124
Williamson County Sheriff's Office,Waco Police Department,Local police department,246, , , , , ,721 N. 4Th, , ,Waco,TX,McLennan,76701, , , , ,48309,"721 N. 4Th, Waco, TX 76701",31.5624483,-97.1357805
Williamson County Sheriff's Office,Williamson County Sheriff's Office,Sheriff's office,206, , , , , ,200 W Jefferson St, , ,Georgetown,TX,Williamson,78626, , , , ,48491,"200 W Jefferson St, Georgetown, TX 78626",30.6414662,-97.6812055
Williamson County Sheriff's Office,McLennan County Sheriff's Office,Sheriff's office,200, , , , , ,901 Washington Avenue, , ,Waco,TX,McLennan,76701, , , , ,48309,"901 Washington Avenue, Waco, TX 76701",31.5545724,-97.1367872
Williamson County Sheriff's Office,Killeen Police Department,Local police department,190, , , , , ,402 N. 2Nd Street, , ,Killeen,TX,Bell,76541, , , , ,48027,"402 N. 2Nd Street, Killeen, TX 76541",31.1216937,-97.7295669
Williamson County Sheriff's Office,Round Rock Police Department,Local police department,133, , , , , ,2701 N. Mays St., , ,Round Rock,TX,Williamson,78665, , , , ,48491,"2701 N. Mays St., Round Rock, TX 78665",30.5408259,-97.6870314
Williamson County Sheriff's Office,Temple Police Department,Local police department,132, , , , , ,Post Office Box 160, , ,Temple,TX,Bell,76501, , , , ,48027,"Post Office Box 160, Temple, TX 76501",31.082147,-97.2437105
Williamson County Sheriff's Office,Hays County Sheriff's Office,Sheriff's office,124, , , , , ,1307 Uhland Rd, , ,San Marcos,TX,Hays,78666, , , , ,48209,"1307 Uhland Rd, San Marcos, TX 78666",29.8964274,-97.9037991
Williamson County Sheriff's Office,Bryan Police Department,Local police department,123, , , , , ,103 North Beech Street, , ,Bryan,TX,Brazos,77805, , , , ,48041,"103 North Beech Street, Bryan, TX 77805",30.6743643,-96.3699632
Yoakum Police Department,Texas Department of Public Safety,Primary state law enforcement agency,3529, , , , , ,"Attn: Cindy Torres, Hr",P O Box 4087, ,Austin,TX,Travis,78773, , , , ,48453,"Attn: Cindy Torres, Hr, Austin, TX 78773",30.32999999999999,-97.7
Yoakum Police Department,San Antonio Police Department,Local police department,2020, , , , , ,214 W. Nueva St., , ,San Antonio,TX,Bexar,78207, , , , ,48029,"214 W. Nueva St., San Antonio, TX 78207",29.4227696,-98.4970303
Yoakum Police Department,Austin Police Department,Local police department,1515, , , , , ,201 1St Street Ne, , ,Austin,TX,Travis,78768, , , , ,48453,"201 1St Street Ne, Austin, TX 78768",30.27,-97.74
Yoakum Police Department,Bexar County Sheriff's Office,Sheriff's office,526, , , , , ,200 N Comal, , ,San Antonio,TX,Bexar,78207, , , , ,48029,"200 N Comal, San Antonio, TX 78207",29.4285128,-98.5066296
Yoakum Police Department,Texas Parks & Wildlife Department,Special jurisdiction,480, , , , , ,4200 Smith School Rd,Attn: Randall Odom, ,Austin,TX,Travis,78744, , , , ,48453,"4200 Smith School Rd, Austin, TX 78744",30.1927581,-97.7153718
Yoakum Police Department,Corpus Christi Police Department,Local police department,448, , , , , ,P. O. Box 9016, , ,Corpus Christi,TX,Nueces,78469, , , , ,48355,"P. O. Box 9016, Corpus Christi, TX 78469",27.798027,-97.4290094
Yoakum Police Department,Fort Bend County Sheriff's Office,Sheriff's office,400, , , , , ,1410 Ransom Rd, , ,Richmond,TX,Fort Bend,77469, , , , ,48157,"1410 Ransom Rd, Richmond, TX 77469",29.5640319,-95.7052364
Yoakum Police Department,Harris County Constable Pct. 5,Constable/marshal,318, , , , , ,17423 Katy Freeway, , ,Houston,TX,Harris,77094, , , , ,48201,"17423 Katy Freeway, Houston, TX 77094",29.783774,-95.6824889
Yoakum Police Department,Travis County Sheriff's Office,Sheriff's office,290, , , , , ,P.O. Box 1748, , ,Austin,TX,Travis,78767, , , , ,48453,"P.O. Box 1748, Austin, TX 78767",30.2694174,-97.739694
Yoakum Police Department,Texas Alcoholic Beverage Commission,Special jurisdiction,277, , , , , ,5806 Mesa Drive,Enforcement Training Section, ,Austin,TX,Travis,78731, , , , ,48453,"5806 Mesa Drive, Austin, TX 78731",30.3421103,-97.7712124
Yoakum Police Department,Round Rock Police Department,Local police department,133, , , , , ,2701 N. Mays St., , ,Round Rock,TX,Williamson,78665, , , , ,48491,"2701 N. Mays St., Round Rock, TX 78665",30.5408259,-97.6870314
Yoakum Police Department,Sugar Land Police Department,Local police department,130, , , , , ,PO BOX 110, , ,Sugar Land,TX,Fort Bend,77478, , , , ,48157,"PO BOX 110, Sugar Land, TX 77478",29.6185208,-95.6090009
Yoakum Police Department,Hays County Sheriff's Office,Sheriff's office,124, , , , , ,1307 Uhland Rd, , ,San Marcos,TX,Hays,78666, , , , ,48209,"1307 Uhland Rd, San Marcos, TX 78666",29.8964274,-97.9037991
