agency_name,agency_type,sworn_active_persnl,hq_addr1,hq_addr2,hq_city,hq_state,hq_zip,addr1,addr2,po_box,city,state,county,zip,hq_ph,hq_fax,org_type,website,fips,Full_Address,Latitude,Longitude
New York City Police Department,Local police department,36023, , , , , ,"One Police Plaza, Room 1400", , ,New York,NY,New York,10038, , , , ,36061,"One Police Plaza, Room 1400, New York, NY 10038",40.71206189999999,-74.0023853
Chicago Police Dept,Local police department,13354, , , , , ,3510 S Michigan, , ,Chicago,IL,Cook,60653, , , , ,17031,"3510 S Michigan, Chicago, IL 60653",41.8302264,-87.62380809999999
Los Angeles Police Department,Local police department,9727, , , , , ,150 N. Los Angeles Street, , ,Los Angeles,CA,Los Angeles,90012, , , , ,6037,"150 N. Los Angeles Street, Los Angeles, CA 90012",34.051507,-118.241245
Los Angeles County Sheriff's Office,Sheriff's office,9461, , , , , ,Unit 1,4700 W. Ramona Blvd., ,Monterey Park,CA,Los Angeles,91754, , , , ,6037,"Unit 1, Monterey Park, CA 91754",34.0472318,-118.1415261
California Highway Patrol,Primary state law enforcement agency,7202, , , , , ,2555 First Ave, , ,Sacramento,CA,Sacramento,95818, , , , ,6067,"2555 First Ave, Sacramento, CA 95818",38.55623509999999,-121.4796074
Philadelphia Police Department,Local police department,6624, , , , , ,523 Main Street, , ,Philadelphia,PA,Philadelphia,19136, , , , ,42101,"523 Main Street, Philadelphia, PA 19136",39.9183989,-75.2584046
Cook County Sheriff's Office,Sheriff's office,5655, , , , , ,143 Gunflint Trail, , ,Chicago,IL,Cook,60602, , , , ,17031,"143 Gunflint Trail, Chicago, IL 60602",41.8781136,-87.6297982
Houston Police Department,Local police department,5053, , , , , ,17000 Aldine Westfield, , ,Houston,TX,Harris,77073, , , , ,48201,"17000 Aldine Westfield, Houston, TX 77073",29.9668297,-95.36216350000001
New York State Police,Primary state law enforcement agency,4847, , , , , ,Building 22,1220 Washington Avenue, ,Albany,NY,Albany,12226, , , , ,36001,"Building 22, Albany, NY 12226",42.6820502,-73.8088221
Pennsylvania State Police,Primary state law enforcement agency,4458, , , , , ,1800 Elmerton Ave, , ,Harrisburg,PA,Dauphin,17110, , , , ,42043,"1800 Elmerton Ave, Harrisburg, PA 17110",40.2975963,-76.8601869
Washington Metropolitan Police Department,Local police department,3742, , , , , ,300 Indiana Avenue NW, , ,Washington,DC,District of Columbia,20001, , , , ,11001,"300 Indiana Avenue NW, Washington, DC 20001",38.8941731,-77.0165485
Texas Department of Public Safety,Primary state law enforcement agency,3529, , , , , ,"Attn: Cindy Torres, Hr",P O Box 4087, ,Austin,TX,Travis,78773, , , , ,48453,"Attn: Cindy Torres, Hr, Austin, TX 78773",30.32999999999999,-97.69999999999999
Dallas Police Department,Local police department,3389, , , , , ,131 N. Gaston Avenue, , ,Dallas,TX,Dallas,75215, , , , ,48113,"131 N. Gaston Avenue, Dallas, TX 75215",32.8044938,-96.7641
Phoenix Police Department,Local police department,3388, , , , , ,Po Box 330, , ,Phoenix,AZ,Maricopa,85003, , , , ,4013,"Po Box 330, Phoenix, AZ 85003",33.4495511,-112.0789355
Miami-Dade (County) Police Department,Local police department,3093, , , , , ,9105 N.W. 25Th Street, , ,Miami,FL,Miami-Dade,33172, , , , ,12086,"9105 N.W. 25Th Street, Miami, FL 33172",25.7984045,-80.34402589999999
New Jersey State Police,Primary state law enforcement agency,3053, , , , , ,P.O. Box 7068; River Road, , ,West Trenton,NJ,Mercer,8628, , , , ,34021,"P.O. Box 7068; River Road, West Trenton, NJ 8628",40.4080369,-75.0418771
Baltimore Police Department,Local police department,2990, , , , , ,416 West Market Street, , ,Baltimore,MD,Baltimore City,21211, , , , ,24510,"416 West Market Street, Baltimore, MD 21211",39.3289463,-76.63838319999999
Las Vegas Metro Police Department,Local police department,2942, , , , , ,3141 Sunrise Ave, , ,Las Vegas,NV,Clark,89101, , , , ,32003,"3141 Sunrise Ave, Las Vegas, NV 89101",36.161741,-115.103705
Nassau County Police Department,Local police department,2732, , , , , ,1490 Franklin Avenue, , ,Mineola,NY,Nassau,11501, , , , ,36059,"1490 Franklin Avenue, Mineola, NY 11501",40.7367215,-73.6393666
Suffolk County Police Department,Local police department,2622, , , , , ,30 Yaphank Avenue, , ,Yaphank,NY,Suffolk,11980, , , , ,36103,"30 Yaphank Avenue, Yaphank, NY 11980",40.8207487,-72.91811129999999
Harris County Sheriff's Office,Sheriff's office,2558, , , , , ,1200 Baker St, , ,Houston,TX,Harris,77002, , , , ,48201,"1200 Baker St, Houston, TX 77002",29.7633996,-95.3565019
Massachusetts State Police,Primary state law enforcement agency,2310, , , , , ,470 Worcester Rd, , ,Framingham,MA,Middlesex,1701, , , , ,25017,"470 Worcester Rd, Framingham, MA 1701",42.2958082,-71.414973
Detroit Police Department,Local police department,2250, , , , , ,1300 Beaubien, , ,Detroit,MI,Wayne,48226, , , , ,26163,"1300 Beaubien, Detroit, MI 48226",42.3361369,-83.04284779999999
Boston Police Department,Local police department,2181, , , , , ,1 Schroeder Plaza, , ,Boston,MA,Suffolk,2120, , , , ,25025,"1 Schroeder Plaza, Boston, MA 2120",42.334307,-71.0905415
Riverside County Sheriff's Office,Sheriff's office,2147, , , , , ,4095 Lemon St Fl 2,PO Box 512, ,Riverside,CA,Riverside,92501, , , , ,6065,"4095 Lemon St Fl 2, Riverside, CA 92501",33.9783467,-117.3744144
Illinois State Police,Primary state law enforcement agency,2105, , , , , ,Po Box 19461, , ,Springfield,IL,Sangamon,62794, , , , ,17167,"Po Box 19461, Springfield, IL 62794",39.78172130000001,-89.6501481
San Antonio Police Department,Local police department,2020, , , , , ,214 W. Nueva St., , ,San Antonio,TX,Bexar,78207, , , , ,48029,"214 W. Nueva St., San Antonio, TX 78207",29.4227696,-98.49703029999999
Milwaukee Police Department,Local police department,1987, , , , , ,749 West State Street,P.O. Box 531, ,Milwaukee,WI,Milwaukee,53201, , , , ,55079,"749 West State Street, Milwaukee, WI 53201",43.0426483,-87.9212718
San Diego Police Department,Local police department,1951, , , , , ,404 South Mier, , ,San Diego,CA,San Diego,92101, , , , ,6073,"404 South Mier, San Diego, CA 92101",32.7269669,-117.1647094
San Francisco Police Department,Local police department,1940, , , , , ,Suite 475,850 Bryant Street, ,San Francisco,CA,San Francisco,94103, , , , ,6075,"Suite 475, San Francisco, CA 94103",37.7726402,-122.4099154
Honolulu (City and County) Police Department,Local police department,1934, , , , , ,801 South Beretania Street, , ,Honolulu,HI,Honolulu,96813, , , , ,15003,"801 South Beretania Street, Honolulu, HI 96813",21.3042103,-157.8520417
Baltimore County Police Department,Local police department,1910, , , , , ,700 E. Joppa Rd, , ,Towson,MD,Baltimore,21286, , , , ,24005,"700 E. Joppa Rd, Towson, MD 21286",39.4004596,-76.58894120000001
Columbus Police Department,Local police department,1886, , , , , ,300 E Maple, , ,Columbus,OH,Franklin,43215, , , , ,39049,"300 E Maple, Columbus, OH 43215",39.9602601,-83.0092803
Virginia State Police,Primary state law enforcement agency,1873, , , , , ,7700 Midlothian Turnpike, , ,Richmond,VA,Chesterfield,23235, , , , ,51041,"7700 Midlothian Turnpike, Richmond, VA 23235",37.5000723,-77.5394587
North Carolina State Highway Patrol,Primary state law enforcement agency,1827, , , , , ,Archdale Building, , ,Raleigh,NC,Wake,27611, , , , ,37183,"Archdale Building, Raleigh, NC 27611",35.7868535,-78.63875929999999
San Bernardino County Sheriff's Office,Sheriff's office,1797, , , , , ,655 E 3Rd St, , ,San Bernardino,CA,San Bernardino,92415, , , , ,6071,"655 E 3Rd St, San Bernardino, CA 92415",34.1037671,-117.2729152
Orange County Sheriff-Coroner Department,Sheriff's office,1794, , , , , ,Po Box 449,550 N Flower St, ,Santa Ana,CA,Orange,92702, , , , ,6059,"Po Box 449, Santa Ana, CA 92702",33.7490375,-117.8657702
Michigan State Police,Primary state law enforcement agency,1732, , , , , ,714 South Harrison Rd, , ,East Lansing,MI,Ingham,48823, , , , ,26065,"714 South Harrison Rd, East Lansing, MI 48823",42.7259312,-84.4956092
Atlanta Police Department,Local police department,1719, , , , , ,"675 Ponce De Leon, 9Th Floor", , ,Atlanta,GA,Fulton,30308, , , , ,13121,"675 Ponce De Leon, 9Th Floor, Atlanta, GA 30308",33.7728691,-84.3657303
Charlotte - Mecklenburg Police Department,Local police department,1672, , , , , ,601 East Trade Street, , ,Charlotte,NC,Mecklenburg,28202, , , , ,37119,"601 East Trade Street, Charlotte, NC 28202",35.2226924,-80.83722440000001
Port Authority of New York & New Jersey Police Department,Special jurisdiction,1667, , , , , ,Rm 302,241 Erie St., ,Jersey City,NJ,Hudson,7310, , , , ,34017,"Rm 302, Jersey City, NJ 7310",40.7300567,-74.03294989999999
Jacksonville Sheriff's Office,Local police department,1662, , , , , ,501 E Bay St, , ,Jacksonville,FL,Duval,32202, , , , ,12031,"501 E Bay St, Jacksonville, FL 32202",30.3253528,-81.6518973
Broward County Sheriff's Office,Sheriff's office,1624, , , , , ,2601 W Broward Blvd, , ,Fort Lauderdale,FL,Broward,33312, , , , ,12011,"2601 W Broward Blvd, Fort Lauderdale, FL 33312",26.1224855,-80.17716899999999
Cleveland Police Department,Local police department,1616, , , , , ,209 W Main Street, , ,Cleveland,OH,Cuyahoga,44113, , , , ,39035,"209 W Main Street, Cleveland, OH 44113",39.7458164,-84.3894641
Florida Highway Patrol,Primary state law enforcement agency,1606, , , , , ,Neil Kirkman Bldg,2900 Apalachee Pkwy, ,Tallahassee,FL,Leon,32399, , , , ,12073,"Neil Kirkman Bldg, Tallahassee, FL 32399",30.3848991,-84.2291968
Indianapolis Police,Local police department,1582, , , , , ,50 North Alabama Street, , ,Indianapolis,IN,Marion,46204, , , , ,18097,"50 North Alabama Street, Indianapolis, IN 46204",39.7679576,-86.1529832
Prince George's County Police Department,Local police department,1578, , , , , ,7600 Barlowe Road, , ,Landover,MD,Prince Georges,20785, , , , ,24033,"7600 Barlowe Road, Landover, MD 20785",38.9181202,-76.87533289999999
Ohio State Highway Patrol,Primary state law enforcement agency,1560, , , , , ,740 E. 17th Avenue, , ,Columbus,OH,Franklin,43211, , , , ,39049,"740 E. 17th Avenue, Columbus, OH 43211",40.0024546,-82.9884945
Memphis Police Department,Local police department,1549, , , , , ,201 Poplar, , ,Memphis,TN,Shelby,38103, , , , ,47157,"201 Poplar, Memphis, TN 38103",35.1491527,-90.04789579999999
Denver Police Department,Local police department,1525, , , , , ,Po Box 489, , ,Denver,CO,Denver,80204, , , , ,8031,"Po Box 489, Denver, CO 80204",39.7380371,-105.0265195
Austin Police Department,Local police department,1515, , , , , ,201 1St Street Ne, , ,Austin,TX,Travis,78768, , , , ,48453,"201 1St Street Ne, Austin, TX 78768",30.27,-97.74
Fort Worth Police Department,Local police department,1489, , , , , ,350 W. Belknap Street, , ,Fort Worth,TX,Tarrant,76102, , , , ,48439,"350 W. Belknap Street, Fort Worth, TX 76102",32.7570952,-97.33576959999999
Palm Beach County Sheriff's Office,Sheriff's office,1447, , , , , ,3228 Gun Club Rd, , ,West Palm Beach,FL,Palm Beach,33406, , , , ,12099,"3228 Gun Club Rd, West Palm Beach, FL 33406",26.6709505,-80.0924474
Maryland State Police,Primary state law enforcement agency,1440, , , , , ,1201 Reisterstown Rd, , ,Pikesville,MD,Baltimore,21208, , , , ,24005,"1201 Reisterstown Rd, Pikesville, MD 21208",39.3764468,-76.7217407
New Orleans Police Department,Local police department,1425, , , , , ,715 South Broad, , ,New Orleans,LA,Orleans,70119, , , , ,22071,"715 South Broad, New Orleans, LA 70119",29.9608084,-90.0927964
Kansas City Police Department,Local police department,1421, , , , , ,1125 Locust Street, , ,Kansas City,MO,Jackson,64106, , , , ,29095,"1125 Locust Street, Kansas City, MO 64106",39.100029,-94.5769794
Fairfax County Police Department,Local police department,1419, , , , , ,4100 Chain Bridge Road, , ,Fairfax,VA,Fairfax,22030, , , , ,51059,"4100 Chain Bridge Road, Fairfax, VA 22030",38.8450521,-77.3091888
Sacramento County Sheriff's Office,Sheriff's office,1409, , , , , ,711 G St,PO Box 988, ,Sacramento,CA,Sacramento,95814, , , , ,6067,"711 G St, Sacramento, CA 95814",38.5848245,-121.4955348
Orange County Sheriff's Office,Sheriff's office,1398, , , , , ,Po Box 1468, , ,Orlando,FL,Orange,32804, , , , ,12095,"Po Box 1468, Orlando, FL 32804",28.5747416,-81.3949264
San Jose Police Department,Local police department,1382, , , , , ,201 W. Mission Street, , ,San Jose,CA,Santa Clara,95110, , , , ,6085,"201 W. Mission Street, San Jose, CA 95110",37.3495467,-121.9057198
St. Louis (city) Police Dept,Local police department,1351, , , , , ,1200 Clark Ave - Room 103, , ,St Louis,MO,St. Louis City,63103, , , , ,29510,"1200 Clark Ave - Room 103, St Louis, MO 63103",38.6250772,-90.2000346
San Diego County Sheriff's Office,Sheriff's office,1322, , , , , ,Po Box 939062,9621 Ridgehaven Ct, ,San Diego,CA,San Diego,92193, , , , ,6073,"Po Box 939062, San Diego, CA 92193",32.8015902,-117.1400471
Nashville Metro Police Department,Local police department,1315, , , , , ,200 James Robertson Pkwy., , ,Nashville,TN,Davidson,37201, , , , ,47037,"200 James Robertson Pkwy., Nashville, TN 37201",36.1677661,-86.7792858
Indiana State Police,Primary state law enforcement agency,1315, , , , , ,100 N. Senate Avenue Igcn 301, , ,Indianapolis,IN,Marion,46204, , , , ,18097,"100 N. Senate Avenue Igcn 301, Indianapolis, IN 46204",39.7691722,-86.1650219
Newark Police,Local police department,1310, , , , , ,31 Green Street, , ,Newark,NJ,Essex,7102, , , , ,34013,"31 Green Street, Newark, NJ 7102",40.731829,-74.1725891
Seattle Police Department,Local police department,1283, , , , , ,610 5Th Avenue,PO BOX 34986, ,Seattle,WA,King,98124, , , , ,53033,"610 5Th Avenue, Seattle, WA 98124",47.6042153,-122.3290443
Arizona Department of Public Safety,Primary state law enforcement agency,1244, , , , , ,P. O. Box 6638 Mail Drop 1000, , ,Phoenix,AZ,Maricopa,85005, , , , ,4013,"P. O. Box 6638 Mail Drop 1000, Phoenix, AZ 85005",33.4476587,-112.1345677
Connecticut State Police,Primary state law enforcement agency,1227, , , , , ,1111 Country Club Rd, , ,Middletown,CT,Middlesex,6457, , , , ,9007,"1111 Country Club Rd, Middletown, CT 6457",41.5692299,-72.72757740000002
Hillsborough County Sheriff's Office,Sheriff's office,1223, , , , , ,329 Mast Rd, , ,Tampa,FL,Hillsborough,33601, , , , ,12057,"329 Mast Rd, Tampa, FL 33601",27.9401015,-82.4501944
Louisiana State Police,Primary state law enforcement agency,1215, , , , , ,7919 Independence Blvd, , ,Baton Rouge,LA,East Baton Rouge,70806, , , , ,22033,"7919 Independence Blvd, Baton Rouge, LA 70806",30.4493038,-91.10612010000001
Montgomery County Police Department,Local police department,1206, , , , , ,2350 Research Blvd., , ,Rockville,MD,Montgomery,20850, , , , ,24031,"2350 Research Blvd., Rockville, MD 20850",39.1034006,-77.1861511
Louisville Metro Police Department,Local police department,1197, , , , , ,633 West Jefferson St., , ,Louisville,KY,Jefferson,40202, , , , ,21111,"633 West Jefferson St., Louisville, KY 40202",38.2546671,-85.761618
El Paso Police Department,Local police department,1132, , , , , ,911 N.  Raynor, , ,El Paso,TX,El Paso,79903, , , , ,48141,"911 N.  Raynor, El Paso, TX 79903",31.7834488,-106.4604002
Washington State Patrol,Primary state law enforcement agency,1132, , , , , ,Po Box 42601, , ,Olympia,WA,Thurston,98504, , , , ,53067,"Po Box 42601, Olympia, WA 98504",47.0378741,-122.9006951
Miami Police Department,Local police department,1104, , , , , ,P. O. Box 1206, , ,Miami,FL,Miami-Dade,33128, , , , ,12086,"P. O. Box 1206, Miami, FL 33128",25.7767549,-80.20284889999999
Cincinnati Police Department,Local police department,1082, , , , , ,310 Ezzard Charles Drive, , ,Cincinnati,OH,Hamilton,45214, , , , ,39061,"310 Ezzard Charles Drive, Cincinnati, OH 45214",39.1095967,-84.5208748
DeKalb County Police Department,Local police department,1074, , , , , ,1960 West Exchange Place, , ,Tucker,GA,DeKalb,30084, , , , ,13089,"1960 West Exchange Place, Tucker, GA 30084",33.8408368,-84.2457943
Wayne County Sheriff's Office,Sheriff's office,1062, , , , , ,510 N Pearl St, , ,Detroit,MI,Wayne,48226, , , , ,26163,"510 N Pearl St, Detroit, MI 48226",42.3121397,-83.1315265
Georgia Department of Public Safety,Primary state law enforcement agency,1048, , , , , ,P.O. Box 1456, , ,Atlanta,GA,Fulton,30371, , , , ,13121,"P.O. Box 1456, Atlanta, GA 30371",33.75,-84.39
Oklahoma City Police Department,Local police department,1046, , , , , ,701 Colcord Drive, , ,Okla. City,OK,Oklahoma,73102, , , , ,40109,"701 Colcord Drive, Okla. City, OK 73102",35.4689202,-97.524875
Tucson Police Department,Local police department,1032, , , , , ,270 South Stone Street, , ,Tucson,AZ,Pima,85701, , , , ,4019,"270 South Stone Street, Tucson, AZ 85701",32.21744350000001,-110.9713127
Missouri State Highway Patrol,Primary state law enforcement agency,1028, , , , , ,P O Box 568, , ,Jefferson City,MO,Cole,65102, , , , ,29051,"P O Box 568, Jefferson City, MO 65102",38.5,-92.14999999999999
Albuquerque Police Department,Local police department,1020, , , , , ,"400 Roma, Nw", , ,Albuquerque,NM,Bernalillo,87102, , , , ,35001,"400 Roma, Nw, Albuquerque, NM 87102",35.0888909,-106.6514194
Tampa Police Department,Local police department,980, , , , , ,411 North Franklin Street, , ,Tampa,FL,Hillsborough,33602, , , , ,12057,"411 North Franklin Street, Tampa, FL 33602",27.948315,-82.4579638
Long Beach Police Department,Local police department,968, , , , , ,400 West Broadway, , ,Long Beach,CA,Los Angeles,90802, , , , ,6037,"400 West Broadway, Long Beach, CA 90802",33.7690841,-118.1971124
South Carolina Highway Patrol,Primary state law enforcement agency,967, , , , , ,10311 Wilson Blvd, , ,Blythewood,SC,Richland,29016, , , , ,45079,"10311 Wilson Blvd, Blythewood, SC 29016",34.1782945,-80.97378959999999
Alameda County Sheriff's Office,Sheriff's office,928, , , , , ,"1401 Lakeside Dr, Ste 1200", , ,Oakland,CA,Alameda,94612, , , , ,6001,"1401 Lakeside Dr, Ste 1200, Oakland, CA 94612",37.8012612,-122.2629746
Portland Police Bureau,Local police department,928, , , , , ,1111 Sw 2Nd Avenue #1180, , ,Portland,OR,Multnomah,97204, , , , ,41051,"1111 Sw 2Nd Avenue #1180, Portland, OR 97204",45.5150265,-122.6763215
Minneapolis Police Department,Local police department,902, , , , , ,209 N Sheridan St, , ,Minneapolis,MN,Hennepin,55415, , , , ,27053,"209 N Sheridan St, Minneapolis, MN 55415",44.97583909999999,-93.25710339999999
Jersey City Police,Local police department,900, , , , , ,8 Erie Street, , ,Jersey City,NJ,Hudson,7302, , , , ,34017,"8 Erie Street, Jersey City, NJ 7302",40.7267814,-74.0435256
Pittsburgh Police Department,Local police department,891, , , , , ,1203 Western Avenue, , ,Pittsburgh,PA,Allegheny,15233, , , , ,42003,"1203 Western Avenue, Pittsburgh, PA 15233",40.4501064,-80.0214304
Kentucky State Police,Primary state law enforcement agency,882, , , , , ,919 Versailles Rd, , ,Frankfort,KY,Franklin,40601, , , , ,21073,"919 Versailles Rd, Frankfort, KY 40601",38.1863122,-84.8215376
Pinellas County Sheriff's Office,Sheriff's office,863, , , , , ,Po Box 2500, , ,Largo,FL,Pinellas,33779, , , , ,12103,"Po Box 2500, Largo, FL 33779",27.909382,-82.7882558
San Francisco Sheriff's Department,Sheriff's office,838, , , , , ,"City Hall, Room 456",1 Dr. Carlton B. Goodlett Pl, ,San Francisco,CA,San Francisco,94102, , , , ,6075,"City Hall, Room 456, San Francisco, CA 94102",37.779275,-122.4192417
Mesa Police Department,Local police department,831, , , , , ,130 North Robson Street, , ,Mesa,AZ,Maricopa,85201, , , , ,4013,"130 North Robson Street, Mesa, AZ 85201",33.4183701,-111.8375268
Fresno Police Department,Local police department,828, , , , , ,2323 Mariposa Mall, , ,Fresno,CA,Fresno,93721, , , , ,6019,"2323 Mariposa Mall, Fresno, CA 93721",36.7384468,-119.7881499
Tulsa Police Department,Local police department,826, , , , , ,600 Civic Center, , ,Tulsa,OK,Tulsa,74103, , , , ,40143,"600 Civic Center, Tulsa, OK 74103",36.1496181,-95.995404
Jefferson Parish Sheriff's Office,Sheriff's office,825, , , , , ,1233 Westbank Expy Bldg B,5th Floor, ,Harvey,LA,Jefferson,70058, , , , ,22051,"1233 Westbank Expy Bldg B, Harvey, LA 70058",29.9061775,-90.0642355
Oklahoma Department of Public Safety,Primary state law enforcement agency,825, , , , , ,P. O. Box 11415, , ,"Okla. City,",OK,Oklahoma,73136, , , , ,40109,"P. O. Box 11415, Okla. City,, OK 73136",35.48999999999999,-97.47999999999999
Birmingham Police Department,Local police department,816, , , , , ,151 Martin St.,PO Box 3001, ,Birmingham,AL,Jefferson,35203, , , , ,1073,"151 Martin St., Birmingham, AL 35203",33.6627471,-86.6348014
Virginia Beach Police Department,Local police department,813, , , , , ,Municipal Cntr-2509 Princess, , ,Virginia Beach,VA,Virginia Beach City,23456, , , , ,51810,"Municipal Cntr-2509 Princess, Virginia Beach, VA 23456",36.7525905,-76.0563555
Oakland County Sheriff's Office,Sheriff's office,796, , , , , ,"1200  N Telegraph Rd, Bld 38 E", , ,Pontiac,MI,Oakland,48341, , , , ,26125,"1200  N Telegraph Rd, Bld 38 E, Pontiac, MI 48341",42.6555799,-83.3268003
Buffalo Police Department,Local police department,793, , , , , ,215 1St Ave Ne, , ,Buffalo,NY,Erie,14202, , , , ,36029,"215 1St Ave Ne, Buffalo, NY 14202",42.8943161,-78.8736493
St. Louis County Police Dept,Local police department,781, , , , , ,7900 Forsyth Blvd, , ,St Louis,MO,St. Louis,63105, , , , ,29189,"7900 Forsyth Blvd, St Louis, MO 63105",38.6498993,-90.3390235
Oakland Police Department,Local police department,773, , , , , ,P.O. Box 56, , ,Oakland,CA,Alameda,94607, , , , ,6001,"P.O. Box 56, Oakland, CA 94607",37.8404338,-122.2719169
Norfolk Police Department,Local police department,772, , , , , ,117 Main St, , ,Norfolk,VA,Norfolk City,23510, , , , ,51710,"117 Main St, Norfolk, VA 23510",36.8459888,-76.2919325
Maricopa County Sheriff's Office,Sheriff's office,766, , , , , ,19Th Floor,100 W. Washington, ,Phoenix,AZ,Maricopa,85003, , , , ,4013,"19Th Floor, Phoenix, AZ 85003",33.4495511,-112.0789355
Alabama Department of Public Safety,Primary state law enforcement agency,763, , , , , ,P.O. Box 1511,301 South Ripley Street, ,Montgomery,AL,Montgomery,36102, , , , ,1101,"P.O. Box 1511, Montgomery, AL 36102",32.37,-86.3
Orlando Police Department,Local police department,757, , , , , ,100 South Hughey Avenue, , ,Orlando,FL,Orange,32801, , , , ,12095,"100 South Hughey Avenue, Orlando, FL 32801",28.5411823,-81.3834354
Ventura County Sheriff's Office,Sheriff's office,755, , , , , ,800 S Victoria Ave, , ,Ventura,CA,Ventura,93009, , , , ,6111,"800 S Victoria Ave, Ventura, CA 93009",34.2674864,-119.210384
Richmond Police Department,Local police department,752, , , , , ,207 Summit Street, , ,Richmond,VA,Richmond City,23220, , , , ,51760,"207 Summit Street, Richmond, VA 23220",37.5676634,-77.4705552
Omaha Police Dept,Local police department,747, , , , , ,505 S. 15Th Street, , ,Omaha,NE,Douglas,68102, , , , ,31055,"505 S. 15Th Street, Omaha, NE 68102",41.2551536,-95.9351011
Colorado State Patrol,Primary state law enforcement agency,742, , , , , ,"700 Kipling St, Ste 2000", , ,Lakewood,CO,Jefferson,80215, , , , ,8059,"700 Kipling St, Ste 2000, Lakewood, CO 80215",39.7267988,-105.1073649
Marion County Sheriff's Office,Sheriff's office,740, , , , , ,2715 E Highway 76 Ste C, , ,Indianapolis,IN,Marion,46204, , , , ,18097,"2715 E Highway 76 Ste C, Indianapolis, IN 46204",39.7713348,-86.1543633
King County Sheriff's Office,Sheriff's office,721, , , , , ,Po Box 66,800 US Hwy 82 & 83 Baker, ,Seattle,WA,King,98104, , , , ,53033,"Po Box 66, Seattle, WA 98104",47.6015566,-122.3323351
Rochester Police Department,Local police department,703, , , , , ,P. O. Box 186, , ,Rochester,NY,Monroe,14614, , , , ,36055,"P. O. Box 186, Rochester, NY 14614",43.153975,-77.6120835
Raleigh Police Department,Local police department,702, , , , , ,Po Box 590, , ,Raleigh,NC,Wake,27602, , , , ,37183,"Po Box 590, Raleigh, NC 27602",35.7756018,-78.64039869999999
Sacramento Police Department,Local police department,701, , , , , ,"5770 Freeport Blvd., Suite 100", , ,Sacramento,CA,Sacramento,95822, , , , ,6067,"5770 Freeport Blvd., Suite 100, Sacramento, CA 95822",38.5219066,-121.4992284
New York State Metropolitan Transportation Authority Police,Special jurisdiction,694, , , , , ,347 Madison Avenue, , ,New York,NY,New York,10017, , , , ,36061,"347 Madison Avenue, New York, NY 10017",40.7542963,-73.9778947
Gwinnett County Police Department,Local police department,682, , , , , ,770 Hi Hope Road, , ,Lawrenceville,GA,Gwinnett,30045, , , , ,13135,"770 Hi Hope Road, Lawrenceville, GA 30045",33.9871782,-83.97304989999999
Contra Costa County Sheriff's Office,Sheriff's office,679, , , , , ,"651 Pine St, 7Th Floor",PO Box 391, ,Martinez,CA,Contra Costa,94553, , , , ,6013,"651 Pine St, 7Th Floor, Martinez, CA 94553",38.0192762,-122.1336651
Iowa Department of Public Safety,Primary state law enforcement agency,669, , , , , ,215 E. 7th Street, , ,Des Moines,IA,Polk,50319, , , , ,19153,"215 E. 7th Street, Des Moines, IA 50319",41.5883337,-93.607297
Colorado Springs Police Department,Local police department,668, , , , , ,705 S. Nevada Ave, , ,Colorado Springs,CO,El Paso,80901, , , , ,8041,"705 S. Nevada Ave, Colorado Springs, CO 80901",38.8241311,-104.8214812
West Virginia State Police,Primary state law enforcement agency,667, , , , , ,725 Jefferson Road, , ,South Charleston,WV,Kanawha,25309, , , , ,54039,"725 Jefferson Road, South Charleston, WV 25309",38.3551112,-81.71442309999999
Wichita Police Department,Local police department,662, , , , , ,455 N. Main - 4th Floor, , ,Wichita,KS,Sedgwick,67202, , , , ,20173,"455 N. Main - 4th Floor, Wichita, KS 67202",37.6929141,-97.33898200000002
Delaware State Police,Primary state law enforcement agency,658, , , , , ,P.O. Box 430, , ,Dover,DE,Kent,19903, , , , ,10001,"P.O. Box 430, Dover, DE 19903",39.15821469999999,-75.5233588
California Parks & Recreation - Law Enforcement,Special jurisdiction,645, , , , , ,1416 9Th Street, , ,Sacramento,CA,Sacramento,95814, , , , ,6067,"1416 9Th Street, Sacramento, CA 95814",38.5756389,-121.4974296
Yonkers Police Department,Local police department,641, , , , , ,104 South Broadway, , ,Yonkers,NY,Westchester,10701, , , , ,36119,"104 South Broadway, Yonkers, NY 10701",40.9302933,-73.8971364
Toledo Police Department,Local police department,640, , , , , ,250 Nw Highway 20, , ,Toledo,OH,Lucas,43624, , , , ,39095,"250 Nw Highway 20, Toledo, OH 43624",41.625534,-83.6645127
Anne Arundel County Police Department,Local police department,633, , , , , ,8495 Veterans Highway, , ,Millersville,MD,Anne Arundel,21108, , , , ,24003,"8495 Veterans Highway, Millersville, MD 21108",39.0992853,-76.6257475
Baton Rouge Police Department,Local police department,630, , , , , ,Po Box 2406, , ,Baton Rouge,LA,East Baton Rouge,70802, , , , ,22033,"Po Box 2406, Baton Rouge, LA 70802",30.4362298,-91.17850159999999
Collier County Sheriff's Office,Sheriff's office,628, , , , , ,"3301 E Tamiami Tr, Bldg J", , ,Naples,FL,Collier,34112, , , , ,12021,"3301 E Tamiami Tr, Bldg J, Naples, FL 34112",26.1237525,-81.7458845
Aurora Police Department,Local police department,627, , , , , ,100 South Aurora Road, , ,Aurora,CO,Arapahoe,80012, , , , ,8005,"100 South Aurora Road, Aurora, CO 80012",39.712579,-104.8239922
Lee County Sheriff's Office,Sheriff's office,621, , , , , ,Po Box 177, , ,Fort Myers,FL,Lee,33912, , , , ,12071,"Po Box 177, Fort Myers, FL 33912",26.5273497,-81.8333656
Arlington Police Department,Local police department,610, , , , , ,620 W. Division, , ,Arlington,TX,Tarrant,76011, , , , ,48439,"620 W. Division, Arlington, TX 76011",32.7384531,-97.1134798
Polk County Sheriff's Office,Sheriff's office,600, , , , , ,Po Box 69, , ,Bartow,FL,Polk,33830, , , , ,12105,"Po Box 69, Bartow, FL 33830",27.8915661,-81.8005724
St. Paul Police Department,Local police department,598, , , , , ,P O  Box 66, , ,St. Paul,MN,Ramsey,55101, , , , ,27123,"P O  Box 66, St. Paul, MN 55101",44.9513188,-93.0901841
Oregon State Police,Primary state law enforcement agency,596, , , , , ,4190 Aumsville Highway Se, , ,Salem,OR,Marion,97317, , , , ,41047,"4190 Aumsville Highway Se, Salem, OR 97317",44.8928987,-122.9558441
Mississippi Highway Safety Patrol,Primary state law enforcement agency,594, , , , , ,1900 E Woodrow Wilson Boulevard,Human Resources, ,Jackson,MS,Hinds,39216, , , , ,28049,"1900 E Woodrow Wilson Boulevard, Jackson, MS 39216",32.3278507,-90.16235929999999
Greensboro Police Department,Local police department,593, , , , , ,1101 Main Street, , ,Greensboro,NC,Guilford,27402, , , , ,37081,"1101 Main Street, Greensboro, NC 27402",35.9963855,-79.91852449999999
Calcasieu Parish Sheriff's Office,Sheriff's office,592, , , , , ,Po Box 3722,5400 E Broad St, ,Lake Charles,LA,Calcasieu,70602, , , , ,22019,"Po Box 3722, Lake Charles, LA 70602",30.2268519,-93.2132614
Cobb County Police Department,Local police department,590, , , , , ,140 North Marietta Parkway, , ,Marietta,GA,Cobb,30060, , , , ,13067,"140 North Marietta Parkway, Marietta, GA 30060",33.9576978,-84.54836259999999
Los Angeles World Airports Police,Special jurisdiction,577, , , , , ,6150 Century Blvd,3rd Fl, ,Los Angeles,CA,Los Angeles,90045, , , , ,6037,"6150 Century Blvd, Los Angeles, CA 90045",33.9454115,-118.3920428
Jefferson County Sheriff's Office,Sheriff's office,556, , , , , ,16001 State Route 7, , ,Birmingham,AL,Jefferson,35203, , , , ,1073,"16001 State Route 7, Birmingham, AL 35203",33.2418282,-87.1398928
Henrico County Division of Police,Local police department,554, , , , , ,Post Office Box 90775,7721 East Parham Road, ,Henrico,VA,Henrico,23273, , , , ,51087,"Post Office Box 90775, Henrico, VA 23273",37.63721590000001,-77.4737823
Pima County Sheriff's Dept.,Sheriff's office,554, , , , , ,1750 E. Benson Hwy, , ,Tucson,AZ,Pima,85714, , , , ,4019,"1750 E. Benson Hwy, Tucson, AZ 85714",32.1710491,-110.9465928
Lexington Division of Police,Local police department,549, , , , , ,150 E. Main Street, , ,Lexington,KY,Fayette,40507, , , , ,21067,"150 E. Main Street, Lexington, KY 40507",38.0453458,-84.49612619999999
Prince William County Police Department,Local police department,546, , , , , ,1 County Complex Court, , ,Prince William,VA,Prince William,22192, , , , ,51153,"1 County Complex Court, Prince William, VA 22192",38.679809,-77.35211819999999
Jefferson County Sheriff's Office,Sheriff's office,537, , , , , ,16001 State Route 7, , ,Golden,CO,Jefferson,80401, , , , ,8059,"16001 State Route 7, Golden, CO 80401",39.7593699,-105.226695
Savannah-Chatham Metropolitan Police Department,Local police department,534, , , , , ,Post Office Box 8032, , ,Savannah,GA,Chatham,31412, , , , ,13051,"Post Office Box 8032, Savannah, GA 31412",32.079528,-81.0900806
Gwinnett County Sheriff's Office,Sheriff's office,531, , , , , ,2900 University Pkwy, , ,Lawrenceville,GA,Gwinnett,30043, , , , ,13135,"2900 University Pkwy, Lawrenceville, GA 30043",33.9821569,-83.97731979999999
Minnesota State Patrol,Primary state law enforcement agency,530, , , , , ,444 Cedar St. Ste. 130, , ,St. Paul,MN,Ramsey,55101, , , , ,27123,"444 Cedar St. Ste. 130, St. Paul, MN 55101",44.9513188,-93.0901841
Passaic County Sheriff's Office,Sheriff's office,530, , , , , ,435 Hamburg Tpke, , ,Wayne,NJ,Passaic,7470, , , , ,34031,"435 Hamburg Tpke, Wayne, NJ 7470",40.9522301,-74.2118018
New Mexico State Police,Primary state law enforcement agency,528, , , , , ,4491 Cerrillos Road, , ,Santa Fe,NM,Santa Fe,87507, , , , ,35049,"4491 Cerrillos Road, Santa Fe, NM 87507",35.6287758,-106.0259624
Bexar County Sheriff's Office,Sheriff's office,526, , , , , ,200 N Comal, , ,San Antonio,TX,Bexar,78207, , , , ,48029,"200 N Comal, San Antonio, TX 78207",29.4285128,-98.5066296
Arkansas State Police,Primary state law enforcement agency,525, , , , , ,#1 State Police Plaza Drive, , ,Little Rock,AR,Pulaski,72209, , , , ,5119,"#1 State Police Plaza Drive, Little Rock, AR 72209",34.6782582,-92.3408601
Kansas Highway Patrol,Primary state law enforcement agency,525, , , , , ,122 Sw Seventh St, , ,Topeka,KS,Shawnee,66603, , , , ,20177,"122 Sw Seventh St, Topeka, KS 66603",39.0507569,-95.6749722
Milwaukee County Sheriff's Office,Sheriff's office,524, , , , , ,821 W State St Rm 107, , ,Milwaukee,WI,Milwaukee,53233, , , , ,55079,"821 W State St Rm 107, Milwaukee, WI 53233",43.0425413,-87.9223339
Little Rock Police Department,Local police department,520, , , , , ,700 West Markham Street, , ,Little Rock,AR,Pulaski,72201, , , , ,5119,"700 West Markham Street, Little Rock, AR 72201",34.7494147,-92.2776563
Fulton County Sheriff's Office,Sheriff's office,516, , , , , ,P. O. Box 7,2216 Myron Cory Drive, ,Atlanta,GA,Fulton,30303, , , , ,13121,"P. O. Box 7, Atlanta, GA 30303",33.755711,-84.3883717
Shelby County Sheriff's Office,Sheriff's office,516, , , , , ,"501 Main St, Courthouse, Ste 8", , ,Memphis,TN,Shelby,38103, , , , ,47157,"501 Main St, Courthouse, Ste 8, Memphis, TN 38103",35.1337542,-90.05897519999999
Mobile Police Department,Local police department,515, , , , , ,2460 Government Boulevard, , ,Mobile,AL,Mobile,36606, , , , ,1097,"2460 Government Boulevard, Mobile, AL 36606",30.6724508,-88.0992969
Tulare County Sheriff's Office,Sheriff's office,513, , , , , ,2404 W Burrel Ave,County Civic Center, ,Visalia,CA,Tulare,93291, , , , ,6107,"2404 W Burrel Ave, Visalia, CA 93291",36.3280467,-119.3171937
Richland County Sheriff's Office,Sheriff's office,512, , , , , ,211 W Market St, , ,Columbia,SC,Richland,29223, , , , ,45079,"211 W Market St, Columbia, SC 29223",34.1058378,-80.92077370000001
Kern County Sheriff's Office,Sheriff's office,512, , , , , ,1350 Norris Rd, , ,Bakersfield,CA,Kern,93308, , , , ,6029,"1350 Norris Rd, Bakersfield, CA 93308",35.4214423,-119.0485384
Shreveport Police Department,Local police department,511, , , , , ,1234 Texas Ave, , ,Shreveport,LA,Caddo,71101, , , , ,22017,"1234 Texas Ave, Shreveport, LA 71101",32.5008041,-93.75534359999999
St. Petersburg Police Department,Local police department,510, , , , , ,1300 First Avenue North, , ,St. Petersburg,FL,Pinellas,33705, , , , ,12103,"1300 First Avenue North, St. Petersburg, FL 33705",27.7717378,-82.6523385
Winston-Salem Police Department,Local police department,508, , , , , ,Po Box 1707, , ,Winston-Salem,NC,Forsyth,27102, , , , ,37067,"Po Box 1707, Winston-Salem, NC 27102",36.0026495,-80.2078578
Orleans Parish Sheriff's Office (Criminal Division),Sheriff's office,505, , , , , ,2800 Gravier St, , ,New Orleans,LA,Orleans,70119, , , , ,22071,"2800 Gravier St, New Orleans, LA 70119",29.9614125,-90.0937338
Montgomery Police Department,Local police department,500, , , , , ,320 North Ripley Street, , ,Montgomery,AL,Montgomery,36104, , , , ,1101,"320 North Ripley Street, Montgomery, AL 36104",32.3819047,-86.2979896
Fairfax County Sheriff's Office,Sheriff's office,499, , , , , ,4110 Chain Bridge Rd, , ,Fairfax,VA,Fairfax,22030, , , , ,51059,"4110 Chain Bridge Rd, Fairfax, VA 22030",38.8437621,-77.309071
Brevard County Sheriff's Office,Sheriff's office,497, , , , , ,700 S Park Ave, , ,Titusville,FL,Brevard,32780, , , , ,12009,"700 S Park Ave, Titusville, FL 32780",28.6075022,-80.8199484
Paterson Police,Local police department,497, , , , , ,111 Broadway, , ,Paterson,NJ,Passaic,7505, , , , ,34031,"111 Broadway, Paterson, NJ 7505",40.9190552,-74.1707366
Johnson County Sheriff's Office,Sheriff's office,496, , , , , ,230 DONOVAN-HARRISON RD, , ,Olathe,KS,Johnson,66061, , , , ,20091,"230 DONOVAN-HARRISON RD, Olathe, KS 66061",38.8653874,-94.8157671
Durham Police Department,Local police department,494, , , , , ,86 Dover Road, , ,Durham,NC,Durham,27701, , , , ,37063,"86 Dover Road, Durham, NC 27701",35.9510198,-78.9518477
Monmouth County Sheriff's Office,Sheriff's office,494, , , , , ,50 E Main St, , ,Freehold,NJ,Monmouth,7728, , , , ,34025,"50 E Main St, Freehold, NJ 7728",40.2612901,-74.2720062
Wisconsin State Patrol,Primary state law enforcement agency,492, , , , , ,"4802 Sheboygan Avenue, Room 551",P.O. Box 7912, ,Madison,WI,Dane,53707, , , , ,55025,"4802 Sheboygan Avenue, Room 551, Madison, WI 53707",43.0744204,-89.4606416
Nebraska State Patrol,Primary state law enforcement agency,491, , , , , ,P.O. Box 94907,1600 Highway 2, ,Lincoln,NE,Lancaster,68509, , , , ,31109,"P.O. Box 94907, Lincoln, NE 68509",40.7998287,-96.6701451
Syracuse Police Department,Local police department,489, , , , , ,511 South State Street, , ,Syracuse,NY,Onondaga,13202, , , , ,36067,"511 South State Street, Syracuse, NY 13202",43.0467096,-76.1470059
Pasco County Sheriff's Office,Sheriff's office,485, , , , , ,8700 Citizen Dr, , ,New Port Richey,FL,Pasco,34654, , , , ,12101,"8700 Citizen Dr, New Port Richey, FL 34654",28.2672077,-82.67110129999999
Providence Police Department,Local police department,483, , , , , ,220 N WILLOW ST, , ,Providence,RI,Providence,2903, , , , ,44007,"220 N WILLOW ST, Providence, RI 2903",41.8140307,-71.4357347
Worcester Police Department,Local police department,482, , , , , ,9-11 Lincoln Square, , ,Worcester,MA,Worcester,1608, , , , ,25027,"9-11 Lincoln Square, Worcester, MA 1608",42.2708644,-71.7980186
Fort Lauderdale Police Department,Local police department,482, , , , , ,1300 West Broward Blvd., , ,Fort Lauderdale,FL,Broward,33312, , , , ,12011,"1300 West Broward Blvd., Fort Lauderdale, FL 33312",26.1214142,-80.1588648
Jackson Police Department,Local police department,480, , , , , ,Po Box 614, , ,Jackson,MS,Hinds,39205, , , , ,28049,"Po Box 614, Jackson, MS 39205",32.3503996,-90.1529468
Texas Parks & Wildlife Department,Special jurisdiction,480, , , , , ,4200 Smith School Rd,Attn: Randall Odom, ,Austin,TX,Travis,78744, , , , ,48453,"4200 Smith School Rd, Austin, TX 78744",30.1927581,-97.7153718
Manatee County Sheriff's Office,Sheriff's office,476, , , , , ,600 8Th Ave W Ste A, , ,Palmetto,FL,Manatee,34221, , , , ,12081,"600 8Th Ave W Ste A, Palmetto, FL 34221",27.5165979,-82.57259599999999
Chesterfield County Police Department,Local police department,475, , , , , ,P. O. Box 148, , ,Chesterfield,VA,Chesterfield,23832, , , , ,51041,"P. O. Box 148, Chesterfield, VA 23832",37.3770935,-77.5049863
Utah Department of Public Safety,Primary state law enforcement agency,475, , , , , ,4501 S. 2700 W.,Box 141100, ,Salt Lake City,UT,Salt Lake,84114, , , , ,49035,"4501 S. 2700 W., Salt Lake City, UT 84114",40.6716459,-111.9579727
Akron Police Department,Local police department,472, , , , , ,217 South High Street, , ,Akron,OH,Summit,44308, , , , ,39153,"217 South High Street, Akron, OH 44308",41.0791448,-81.5182513
North Las Vegas Police Department,Local police department,471, , , , , ,1301 E. Lake Mead Blvd., , ,North Las Vegas,NV,Clark,89030, , , , ,32003,"1301 E. Lake Mead Blvd., North Las Vegas, NV 89030",36.1954191,-115.1247902
Springfield Police Department,Local police department,464, , , , , ,Po Box 31, , ,Springfield,MA,Hampden,1105, , , , ,25013,"Po Box 31, Springfield, MA 1105",42.1014831,-72.589811
Fresno County Sheriff's Office,Sheriff's office,461, , , , , ,2200 Fresno St, , ,Fresno,CA,Fresno,93721, , , , ,6019,"2200 Fresno St, Fresno, CA 93721",36.7368167,-119.7896844
Maryland Transportation Authority Police,Special jurisdiction,456, , , , , ,4330 Broening Hwy, , ,Baltimore,MD,Baltimore,21222, , , , ,24005,"4330 Broening Hwy, Baltimore, MD 21222",39.2324431,-76.50360959999999
Knox County Sheriff's Office,Sheriff's office,456, , , , , ,Po Box 1669, , ,Knoxville,TN,Knox,37902, , , , ,47093,"Po Box 1669, Knoxville, TN 37902",35.9641189,-83.92016559999999
Franklin County Sheriff's Office,Sheriff's office,455, , , , , ,157 Lincoln Way E, , ,Columbus,OH,Franklin,43215, , , , ,39049,"157 Lincoln Way E, Columbus, OH 43215",39.9771378,-82.9994176
Dane County Sheriff's Office,Sheriff's office,454, , , , , ,115 W Doty St,Public Safety Bldg, ,Madison,WI,Dane,53703, , , , ,55025,"115 W Doty St, Madison, WI 53703",43.0720226,-89.3834443
El Paso County Sheriff's Office,Sheriff's office,454, , , , , ,3850 Justice Drive, , ,Colorado Springs,CO,El Paso,80903, , , , ,8041,"3850 Justice Drive, Colorado Springs, CO 80903",38.8413423,-104.8162784
Bergen County Sheriff's Office,Sheriff's office,452, , , , , ,10 Main St,Justice Center, ,Hackensack,NJ,Bergen,7601, , , , ,34003,"10 Main St, Hackensack, NJ 7601",40.8781148,-74.0437657
Santa Clara County Sheriff's Office,Sheriff's office,450, , , , , ,55 W Younger Ave, , ,San Jose,CA,Santa Clara,95110, , , , ,6085,"55 W Younger Ave, San Jose, CA 95110",37.3552622,-121.9059327
Volusia County Sheriff's Office,Sheriff's office,450, , , , , ,Po Box 569,123 W Indiana Ave, ,Deland,FL,Volusia,32721, , , , ,12127,"Po Box 569, Deland, FL 32721",29.0280044,-81.3062575
Dallas County Sheriff's Office,Sheriff's office,449, , , , , ,"133 N Industrial Blvd, Lb-31", , ,Dallas,TX,Dallas,75207, , , , ,48113,"133 N Industrial Blvd, Lb-31, Dallas, TX 75207",32.7780499,-96.8145851
Tarrant County Sheriff's Office,Sheriff's office,449, , , , , ,Plaza Building,"200 Taylor, 7th Floor", ,Fort Worth,TX,Tarrant,76102, , , , ,48439,"Plaza Building, Fort Worth, TX 76102",32.755027,-97.335216
Richmond County Sheriff's Office,Sheriff's office,449, , , , , ,Po Box 115, , ,Augusta,GA,Richmond,30901, , , , ,13245,"Po Box 115, Augusta, GA 30901",33.4577032,-81.9643913
Corpus Christi Police Department,Local police department,448, , , , , ,P. O. Box 9016, , ,Corpus Christi,TX,Nueces,78469, , , , ,48355,"P. O. Box 9016, Corpus Christi, TX 78469",27.798027,-97.4290094
Loudoun County Sheriff's Office,Sheriff's office,448, , , , , ,39 Catoctin Circle Se, , ,Leesburg,VA,Loudoun,20175, , , , ,51107,"39 Catoctin Circle Se, Leesburg, VA 20175",39.1064224,-77.5649048
Fort Wayne Police,Local police department,447, , , , , ,1320 E. Creighton Avenue, , ,Fort Wayne,IN,Allen,46803, , , , ,18003,"1320 E. Creighton Avenue, Fort Wayne, IN 46803",41.0646227,-85.1194783
Will County Sheriff's Office,Sheriff's office,445, , , , , ,14 W Jefferson St Rm 103, , ,Joliet,IL,Will,60432, , , , ,17197,"14 W Jefferson St Rm 103, Joliet, IL 60432",41.5244776,-88.0822494
Leon County Sheriff's Office,Sheriff's office,443, , , , , ,Po Box 278,606 E St Mary's St, ,Tallahassee,FL,Leon,32302, , , , ,12073,"Po Box 278, Tallahassee, FL 32302",30.43999999999999,-84.28
Washington Metropolitan Area Transit Authority Police,Special jurisdiction,442, , , , , ,"600 Fifth St., N.W. Rm 5 D 23", , ,Washington,DC,District of Columbia,20001, , , , ,11001,"600 Fifth St., N.W. Rm 5 D 23, Washington, DC 20001",38.8979138,-77.01947270000001
Caddo Parish Sheriff's Office,Sheriff's office,440, , , , , ,501 Texas St Rm 101, , ,Shreveport,LA,Caddo,71101, , , , ,22017,"501 Texas St Rm 101, Shreveport, LA 71101",32.5120844,-93.7497777
Madison Police Department,Local police department,437, , , , , ,Post Office Box 32, , ,Madison,WI,Dane,53703, , , , ,55025,"Post Office Box 32, Madison, WI 53703",43.0833196,-89.3724769
New Haven Police Department,Local police department,436, , , , , ,Post Office Box 217, , ,New Haven,CT,New Haven,6519, , , , ,9009,"Post Office Box 217, New Haven, CT 6519",41.2958246,-72.937198
Cobb County Sheriff's Office,Sheriff's office,435, , , , , ,185 Roswell St Ne, , ,Marietta,GA,Cobb,30060, , , , ,13067,"185 Roswell St Ne, Marietta, GA 30060",33.9523312,-84.54750899999999
Chattanooga Police Department,Local police department,434, , , , , ,3410 Amnicola Hwy., , ,Chattanooga,TN,Hamilton,37406, , , , ,47065,"3410 Amnicola Hwy., Chattanooga, TN 37406",35.0818065,-85.26308879999999
Salt Lake City Police Department,Local police department,433, , , , , ,Po Box 145497,P.O. Box 145497, ,Salt Lake City,UT,Salt Lake,84114, , , , ,49035,"Po Box 145497, Salt Lake City, UT 84114",40.7595214,-111.8881542
Ouachita Parish Sheriff's Office,Sheriff's office,431, , , , , ,400 St John St, , ,Monroe,LA,Ouachita,71201, , , , ,22073,"400 St John St, Monroe, LA 71201",32.4983098,-92.1155308
Laredo Police Department,Local police department,430, , , , , ,4712 Maher Ave., , ,Laredo,TX,Webb,78041, , , , ,48479,"4712 Maher Ave., Laredo, TX 78041",27.539287,-99.47082139999999
Virginia Beach (City) Sheriff's Office,Sheriff's office,429, , , , , ,Po Box 6098,Municipal Center, ,Virginia Beach,VA,Virginia Beach City,23456, , , , ,51810,"Po Box 6098, Virginia Beach, VA 23456",36.7358202,-76.02758589999999
Howard County Police Department,Local police department,424, , , , , ,3410 Courthouse Dr, , ,Ellicott City,MD,Howard,21043, , , , ,24027,"3410 Courthouse Dr, Ellicott City, MD 21043",39.275709,-76.8074358
Richmond (City) Sheriff's Office,Sheriff's office,424, , , , , ,1701 Fairfield Way, , ,Richmond,VA,Richmond City,23223, , , , ,51760,"1701 Fairfield Way, Richmond, VA 23223",37.547345,-77.4234902
Glendale Police Department,Local police department,424, , , , , ,424 N Sappington Rd, , ,Glendale,AZ,Maricopa,85301, , , , ,4013,"424 N Sappington Rd, Glendale, AZ 85301",33.5386523,-112.1859866
Essex County Sheriff's Office,Sheriff's office,423, , , , , ,Po Box 955,304 Prince St, ,Newark,NJ,Essex,7102, , , , ,34013,"Po Box 955, Newark, NJ 7102",40.7350747,-74.17390569999999
Bridgeport Police Department,Local police department,422, , , , , ,812 Halsell,1000 THOMPSON STREET, ,Bridgeport,CT,Fairfield,6607, , , , ,9001,"812 Halsell, Bridgeport, CT 6607",41.1743166,-73.1674128
Dayton Police Department,Local police department,421, , , , , ,514 Sixth Ave., , ,Dayton,OH,Montgomery,45402, , , , ,39113,"514 Sixth Ave., Dayton, OH 45402",39.756534,-84.1836196
Hawaii (County) Police Department,Local police department,419, , , , , ,349 Kapiolani Street, , ,Hilo,HI,Hawaii,96720, , , , ,15001,"349 Kapiolani Street, Hilo, HI 96720",19.7155118,-155.0858358
"California Dept. of Justice, Div. of Law Enforcement",Special jurisdiction,419, , , , , ,6Th Floor,1102 Q Street, ,Sacramento,CA,Sacramento,95811, , , , ,6067,"6Th Floor, Sacramento, CA 95811",38.5991884,-121.4923958
Scottsdale Police Dept,Local police department,417, , , , , ,Pdhq,8401 E. Indian School Road, ,Scottsdale,AZ,Maricopa,85251, , , , ,4013,"Pdhq, Scottsdale, AZ 85251",33.4986286,-111.9224398
Nevada Highway Patrol,Primary state law enforcement agency,417, , , , , ,555 Wright Way, , ,Carson City,NV,Carson,89711, , , , ,32510,"555 Wright Way, Carson City, NV 89711",39.1536104,-119.764264
Newport News Police Department,Local police department,415, , , , , ,9710 Jefferson Avenue, , ,Newport News,VA,Newport News City,23605, , , , ,51700,"9710 Jefferson Avenue, Newport News, VA 23605",37.0296547,-76.4499082
Stockton Police Department,Local police department,415, , , , , ,115 S Walnut, , ,Stockton,CA,San Joaquin,95202, , , , ,6077,"115 S Walnut, Stockton, CA 95202",37.9573836,-121.2883857
Norfolk (City) Sheriff's Office,Sheriff's office,414, , , , , ,811 E City Hall Ave, , ,Norfolk,VA,Norfolk City,23510, , , , ,51710,"811 E City Hall Ave, Norfolk, VA 23510",36.8458652,-76.28487129999999
Martin County Sheriff's Office,Sheriff's office,414, , , , , ,Po Box 180,Capitol Ave, ,Stuart,FL,Martin,34994, , , , ,12085,"Po Box 180, Stuart, FL 34994",27.1916272,-80.2488596
Washoe County Sheriff's Office,Sheriff's office,414, , , , , ,911 E Parr Blvd, , ,Reno,NV,Washoe,89512, , , , ,32031,"911 E Parr Blvd, Reno, NV 89512",39.5736323,-119.8109919
St. Tammany Parish Sheriff's Office,Sheriff's office,409, , , , , ,Po Box 1120,Sheriff's Ofc, ,Covington,LA,St. Tammany,70434, , , , ,22103,"Po Box 1120, Covington, LA 70434",30.4940377,-90.107978
Sarasota County Sheriff's Office,Sheriff's office,409, , , , , ,Po Box 4115, , ,Sarasota,FL,Sarasota,34230, , , , ,12115,"Po Box 4115, Sarasota, FL 34230",27.3350021,-82.537412
Hartford Police Department,Local police department,408, , , , , ,19 West Main St, , ,Hartford,CT,Hartford,6120, , , , ,9003,"19 West Main St, Hartford, CT 6120",41.671177,-72.8680962
Arapahoe County Sheriff's Office,Sheriff's office,407, , , , , ,13101 E Broncos Pkwy, , ,Centennial,CO,Arapahoe,80112, , , , ,8005,"13101 E Broncos Pkwy, Centennial, CO 80112",39.5799859,-104.8377392
Suffolk County Sheriff's Office,Sheriff's office,406, , , , , ,20 Bradston St, , ,Boston,MA,Suffolk,2118, , , , ,25025,"20 Bradston St, Boston, MA 2118",42.3337127,-71.0683738
Huntsville Police Department,Local police department,405, , , , , ,205 S Main Street, , ,Huntsville,AL,Madison,35804, , , , ,1089,"205 S Main Street, Huntsville, AL 35804",34.7303688,-86.5861037
Fort Bend County Sheriff's Office,Sheriff's office,400, , , , , ,1410 Ransom Rd, , ,Richmond,TX,Fort Bend,77469, , , , ,48157,"1410 Ransom Rd, Richmond, TX 77469",29.5640319,-95.7052364
Columbus Police Department,Local police department,400, , , , , ,300 E Maple, , ,Columbus,GA,Muscogee,31902, , , , ,13215,"300 E Maple, Columbus, GA 31902",32.46862,-84.99141
Anaheim Police Department,Local police department,398, , , , , ,425 S. Harbor Boulevard, , ,Anaheim,CA,Orange,92805, , , , ,6059,"425 S. Harbor Boulevard, Anaheim, CA 92805",33.8302637,-117.9201191
Camden Police,Local police department,397, , , , , ,800 Federal Street, , ,Camden,NJ,Camden,8103, , , , ,34007,"800 Federal Street, Camden, NJ 8103",39.9437024,-75.1162295
Greenville County Sheriff's Office,Sheriff's office,397, , , , , ,4 Mcgee St, , ,Greenville,SC,Greenville,29601, , , , ,45045,"4 Mcgee St, Greenville, SC 29601",34.8531685,-82.387401
Ohio Department of Natural Resources - Office of Law Enforcement,Special jurisdiction,394, , , , , ,2045 Morse Rd. Bldg. D-3, , ,Columbus,OH,Franklin,43229, , , , ,39049,"2045 Morse Rd. Bldg. D-3, Columbus, OH 43229",40.0583445,-82.9656559
Summit County Sheriff's Office,Sheriff's office,393, , , , , ,Po Box 210,501 North Park Ave, ,Akron,OH,Summit,44308, , , , ,39153,"Po Box 210, Akron, OH 44308",41.08021540000001,-81.5198692
Navajo Nation Tribal Department of Law Enforcement,Local police department,393, , , , , ,P O Box 3360, , ,Window Rock,AZ,Apache,86515, , , , ,4001,"P O Box 3360, Window Rock, AZ 86515",35.680573,-109.0525929
Osceola County Sheriff's Office,Sheriff's office,388, , , , , ,309 6Th St, , ,Kissimmee,FL,Osceola,34744, , , , ,12097,"309 6Th St, Kissimmee, FL 34744",28.2923689,-81.32893969999999
Escambia County Sheriff's Office,Sheriff's office,388, , , , , ,316 Court St, , ,Pensacola,FL,Escambia,32501, , , , ,12033,"316 Court St, Pensacola, FL 32501",30.423724,-87.2269973
Du Page County Sheriff's Office,Sheriff's office,386, , , , , ,501 N County Farm Rd, , ,Wheaton,IL,Du Page,60187, , , , ,17043,"501 N County Farm Rd, Wheaton, IL 60187",41.8687754,-88.140585
Des Moines Police Department,Local police department,385, , , , , ,21900 11Th Ave South, , ,Des Moines,IA,Polk,50309, , , , ,19153,"21900 11Th Ave South, Des Moines, IA 50309",41.581085,-93.5993092
Riverside Police Department,Local police department,385, , , , , ,1791 Harshman Road, , ,Riverside,CA,Riverside,92501, , , , ,6065,"1791 Harshman Road, Riverside, CA 92501",33.9806005,-117.3754942
Charleston Police Department,Local police department,382, , , , , ,Post Office Box 420, , ,Charleston,SC,Charleston,29403, , , , ,45019,"Post Office Box 420, Charleston, SC 29403",32.8007242,-79.9500477
Chesapeake Police Department,Local police department,376, , , , , ,304 Albemarle Drive, , ,Chesapeake,VA,Chesapeake City,23322, , , , ,51550,"304 Albemarle Drive, Chesapeake, VA 23322",36.718202,-76.2491491
Lubbock Police Department,Local police department,376, , , , , ,P. O. Box 2000, , ,Lubbock,TX,Lubbock,79457, , , , ,48303,"P. O. Box 2000, Lubbock, TX 79457",33.56,-101.84
Atlantic City Police,Local police department,376, , , , , ,2711 Atlantic Avenue, , ,Atlantic City,NJ,Atlantic,8401, , , , ,34001,"2711 Atlantic Avenue, Atlantic City, NJ 8401",39.3554809,-74.4450519
Knoxville Police Department,Local police department,375, , , , , ,P.O. Box 3610, , ,Knoxville,TN,Knox,37927, , , , ,47093,"P.O. Box 3610, Knoxville, TN 37927",36.0,-83.92000000000002
Miami Beach Police Department,Local police department,374, , , , , ,1100 Washington Avenue, , ,Miami Beach,FL,Miami-Dade,33139, , , , ,12086,"1100 Washington Avenue, Miami Beach, FL 33139",25.782347,-80.132992
Anchorage Police Department,Local police department,372, , , , , ,11506 Park Rd., , ,Anchorage,AK,Anchorage,99507, , , , ,2020,"11506 Park Rd., Anchorage, AK 99507",61.14876899999999,-149.8010811
Tacoma Police Department,Local police department,371, , , , , ,3701 South Pine, , ,Tacoma,WA,Pierce,98409, , , , ,53053,"3701 South Pine, Tacoma, WA 98409",47.2243804,-122.4728198
Santa Ana Police Department,Local police department,369, , , , , ,60 Civic Center Plaza, , ,Santa Ana,CA,Orange,92701, , , , ,6059,"60 Civic Center Plaza, Santa Ana, CA 92701",33.7479933,-117.8743041
Washington County Sheriff's Office,Sheriff's office,369, , , , , ,399 Broadway, , ,Hillsboro,OR,Washington,97123, , , , ,41067,"399 Broadway, Hillsboro, OR 97123",45.5201249,-122.9898227
Lafayette Parish Sheriff's Office,Sheriff's office,367, , , , , ,316 W Main St,PO Drawer 3508, ,Lafayette,LA,Lafayette,70501, , , , ,22055,"316 W Main St, Lafayette, LA 70501",30.223113,-92.0215959
North Carolina State Bureau of Investigation,Special jurisdiction,367, , , , , ,Po Box 29500, , ,Raleigh,NC,Wake,27626, , , , ,37183,"Po Box 29500, Raleigh, NC 27626",35.77,-78.64
Adams County Sheriff's Office,Sheriff's office,364, , , , , ,313 S 1St St,PO Box 608, ,Brighton,CO,Adams,80601, , , , ,8001,"313 S 1St St, Brighton, CO 80601",39.9845805,-104.8222297
Arlington County Police Department,Local police department,364, , , , , ,1425 N. Courthouse Rd., , ,Arlington,VA,Arlington,22201, , , , ,51013,"1425 N. Courthouse Rd., Arlington, VA 22201",38.889881,-77.0831772
Tallahassee Police Department,Local police department,364, , , , , ,234 East Seventh Avenue, , ,Tallahassee,FL,Leon,32303, , , , ,12073,"234 East Seventh Avenue, Tallahassee, FL 32303",30.4582454,-84.27917
Reno Police Department,Local police department,362, , , , , ,Po Box 1900, , ,Reno,NV,Washoe,89505, , , , ,32031,"Po Box 1900, Reno, NV 89505",39.53,-119.81
East Baton Rouge Parish Sheriff's Office,Sheriff's office,359, , , , , ,Po Box 3277,300 North Blvd-Munic Bldg, ,Baton Rouge,LA,East Baton Rouge,70821, , , , ,22033,"Po Box 3277, Baton Rouge, LA 70821",30.45,-91.17999999999999
Chesapeake (City) Sheriff's Office,Sheriff's office,358, , , , , ,401 Albemarle Dr, , ,Chesapeake,VA,Chesapeake City,23322, , , , ,51550,"401 Albemarle Dr, Chesapeake, VA 23322",36.717701,-76.251674
New Castle County Police Department,Local police department,358, , , , , ,87 Reads Way, , ,New Castle,DE,New Castle,19720, , , , ,10003,"87 Reads Way, New Castle, DE 19720",39.6859012,-75.6130422
Tempe Police Department,Local police department,357, , , , , ,120 E. 5Th Street, , ,Tempe,AZ,Maricopa,85281, , , , ,4013,"120 E. 5Th Street, Tempe, AZ 85281",33.4259087,-111.9375633
Montgomery County Sheriff's Office,Sheriff's office,357, , , , , ,Po Box 432,200 Clark Dr, ,Conroe,TX,Montgomery,77301, , , , ,48339,"Po Box 432, Conroe, TX 77301",30.3120301,-95.42537569999999
Mecklenburg County Sheriff's Office,Sheriff's office,355, , , , , ,700 E 4Th St, , ,Charlotte,NC,Mecklenburg,28202, , , , ,37119,"700 E 4Th St, Charlotte, NC 28202",35.2207455,-80.83860059999999
Seminole County Sheriff's Office,Sheriff's office,355, , , , , ,"Courthouse, 110 S Wewoka", , ,Sanford,FL,Seminole,32773, , , , ,12117,"Courthouse, 110 S Wewoka, Sanford, FL 32773",35.1586902,-96.49334569999999
Kansas City Police Department,Local police department,354, , , , , ,1125 Locust Street, , ,Kansas City,KS,Wyandotte,66101, , , , ,20209,"1125 Locust Street, Kansas City, KS 66101",39.100029,-94.5769794
Wake County Sheriff's Office,Sheriff's office,354, , , , , ,Po Box 550, , ,Raleigh,NC,Wake,27602, , , , ,37183,"Po Box 550, Raleigh, NC 27602",35.7756018,-78.64039869999999
Columbia Police Department,Local police department,351, , , , , ,Po Box 10, , ,Columbia,SC,Richland,29201, , , , ,45079,"Po Box 10, Columbia, SC 29201",33.9873389,-81.0368211
New Hampshire State Police,Primary state law enforcement agency,350, , , , , ,33 Hazen Dr,33 Hazel Dr., ,Concord,NH,Merrimack,3305, , , , ,33013,"33 Hazen Dr, Concord, NH 3305",43.2187293,-71.51267349999999
Marion County Sheriff's Office,Sheriff's office,349, , , , , ,2715 E Highway 76 Ste C, , ,Ocala,FL,Marion,34478, , , , ,12083,"2715 E Highway 76 Ste C, Ocala, FL 34478",29.1871986,-82.14009229999999
Elizabeth Police,Local police department,348, , , , , ,One Police Plaza, , ,Elizabeth,NJ,Union,7201, , , , ,34039,"One Police Plaza, Elizabeth, NJ 7201",40.6666895,-74.2128067
Bakersfield Police Department,Local police department,348, , , , , ,1601 Truxtun Avenue, , ,Bakersfield,CA,Kern,93301, , , , ,6029,"1601 Truxtun Avenue, Bakersfield, CA 93301",35.3731395,-119.0206941
Harris County Constable Pct. 4,Constable/marshal,346, , , , , ,6831 Cypresswood Dr,Attn: Lt. Walls, ,Spring,TX,Harris,77379, , , , ,48201,"6831 Cypresswood Dr, Spring, TX 77379",30.0118442,-95.5115587
San Bernardino Police Department,Local police department,345, , , , , ,710 North D Street, , ,San Bernardino,CA,San Bernardino,92401, , , , ,6071,"710 North D Street, San Bernardino, CA 92401",34.1124314,-117.292334
Irving Police Department,Local police department,344, , , , , ,Po Box 152288, , ,Irving,TX,Dallas,75015, , , , ,48113,"Po Box 152288, Irving, TX 75015",32.830161,-96.9803989
South Carolina Law Enforcement Division,Special jurisdiction,344, , , , , ,Po Box 21398, , ,Columbia,SC,Richland,29221, , , , ,45079,"Po Box 21398, Columbia, SC 29221",34.0008322,-81.035147
Plano Police Department,Local police department,343, , , , , ,P. O. Box 860358, , ,Plano,TX,Collin,75086, , , , ,48085,"P. O. Box 860358, Plano, TX 75086",33.02,-96.69999999999999
New Jersey Division of Criminal Justice,Special jurisdiction,342, , , , , ,P.O. Box 085, , ,Trenton,NJ,Mercer,8625, , , , ,34021,"P.O. Box 085, Trenton, NJ 8625",40.2205824,-74.759717
Salt Lake County Sheriff's Office,Sheriff's office,342, , , , , ,2001 S State St Ste S2700, , ,Salt Lake City,UT,Salt Lake,84190, , , , ,49035,"2001 S State St Ste S2700, Salt Lake City, UT 84190",40.726827,-111.88734
Fayetteville Police Department,Local police department,341, , , , , ,308 West Market Street, , ,Fayetteville,NC,Cumberland,28301, , , , ,37051,"308 West Market Street, Fayetteville, NC 28301",35.06375209999999,-78.8722341
Los Angeles School Police Department,Special jurisdiction,340, , , , , ,1330 West Pico Boulevard, , ,Los Angleles,CA,Los Angeles,90015, , , , ,6037,"1330 West Pico Boulevard, Los Angleles, CA 90015",34.0421846,-118.2741318
Cherokee County Sheriff's Office,Sheriff's office,340, , , , , ,111 N 5Th St, , ,Canton,GA,Cherokee,30115, , , , ,13057,"111 N 5Th St, Canton, GA 30115",34.2367621,-84.4907621
Hialeah Police Department,Local police department,338, , , , , ,5555 East 8Th Avenue, , ,Hialeah,FL,Miami-Dade,33013, , , , ,12086,"5555 East 8Th Avenue, Hialeah, FL 33013",25.8726209,-80.2663685
Clayton County Police Department,Local police department,336, , , , , ,7930 N. Mcdonough Street, , ,Jonesboro,GA,Clayton,30236, , , , ,13063,"7930 N. Mcdonough Street, Jonesboro, GA 30236",33.5397805,-84.3461411
Henderson Police Department,Local police department,336, , , , , ,223 Lead Street,PO Box 95050, ,Henderson,NV,Clark,89009, , , , ,32003,"223 Lead Street, Henderson, NV 89009",36.0300707,-114.983262
San Mateo County Sheriff's Office,Sheriff's office,334, , , , , ,400 County Ctr, , ,Redwood City,CA,San Mateo,94063, , , , ,6081,"400 County Ctr, Redwood City, CA 94063",37.4881407,-122.2306653
Maine State Police,Primary state law enforcement agency,334, , , , , ,"45 Commerce Drive, Suite 1", , ,Augusta,ME,Kennebec,4333, , , , ,23011,"45 Commerce Drive, Suite 1, Augusta, ME 4333",44.3663582,-69.8009059
Chandler Police Department,Local police department,333, , , , , ,P. O. Box 425, , ,Chandler,AZ,Maricopa,85244, , , , ,4013,"P. O. Box 425, Chandler, AZ 85244",33.3046757,-111.8387038
Hamilton County Sheriff's Office,Sheriff's office,330, , , , , ,Po Box 764,103 West Ave C, ,Cincinnati,OH,Hamilton,45202, , , , ,39061,"Po Box 764, Cincinnati, OH 45202",39.100248,-84.5119313
California Dept of Fish And Game - Law Enforcement,Special jurisdiction,330, , , , , ,1416 Ninth St,Room 1326, ,Sacramento,CA,Sacramento,95814, , , , ,6067,"1416 Ninth St, Sacramento, CA 95814",38.5756389,-121.4974296
Maui (County) Police Department,Local police department,329, , , , , ,55 Mahalani Street, , ,Wailuku,HI,Maui,96793, , , , ,15009,"55 Mahalani Street, Wailuku, HI 96793",20.888132,-156.4886278
Albany Police Department,Local police department,328, , , , , ,204 Water St., , ,Albany,NY,Albany,12210, , , , ,36001,"204 Water St., Albany, NY 12210",42.65741999999999,-73.74269199999999
DeKalb County Sheriff's Office,Sheriff's office,325, , , , , ,4415 Memorial Dr, , ,Decatur,GA,DeKalb,30032, , , , ,13089,"4415 Memorial Dr, Decatur, GA 30032",33.7756919,-84.24480260000001
North Charleston Police Department,Local police department,325, , , , , ,Po Box 62558, , ,North Charleston,SC,Charleston,29419, , , , ,45019,"Po Box 62558, North Charleston, SC 29419",32.8769132,-80.01138689999999
Garland Police Department,Local police department,321, , , , , ,1891 Forest Lane, , ,Garland,TX,Dallas,75042, , , , ,48113,"1891 Forest Lane, Garland, TX 75042",32.9098087,-96.65597980000001
New York State Department of Environmental Conservation,Special jurisdiction,321, , , , , ,Division Of Law Enforcement, , ,Albany,NY,Albany,12233, , , , ,36001,"Division Of Law Enforcement, Albany, NY 12233",42.72,-73.83
Grand Rapids Police Department,Local police department,319, , , , , ,1 Monroe Center Nw, , ,Grand Rapids,MI,Kent,49503, , , , ,26081,"1 Monroe Center Nw, Grand Rapids, MI 49503",42.9637202,-85.66901209999999
Clackamas County Sheriff's Office,Sheriff's office,319, , , , , ,2223 Kaen Rd, , ,Oregon City,OR,Clackamas,97045, , , , ,41005,"2223 Kaen Rd, Oregon City, OR 97045",45.3299508,-122.600396
Hennepin County Sheriff's Office,Sheriff's office,319, , , , , ,350 S 5Th St,Room 6 Courthouse, ,Minneapolis,MN,Hennepin,55415, , , , ,27053,"350 S 5Th St, Minneapolis, MN 55415",44.9772839,-93.2652365
Harris County Constable Pct. 5,Constable/marshal,318, , , , , ,17423 Katy Freeway, , ,Houston,TX,Harris,77094, , , , ,48201,"17423 Katy Freeway, Houston, TX 77094",29.783774,-95.6824889
Hollywood Police Department,Local police department,316, , , , , ,Post Office Box 308, , ,Hollywood,FL,Broward,33021, , , , ,12011,"Post Office Box 308, Hollywood, FL 33021",26.0197012,-80.1819268
Alexandria Police Department,Local police department,315, , , , , ,8236 W. Main St., , ,Alexandria,VA,Alexandria City,22314, , , , ,51510,"8236 W. Main St., Alexandria, VA 22314",38.7999723,-77.0506896
Monterey County Sheriff's Office,Sheriff's office,315, , , , , ,1414 Natividad Rd, , ,Salinas,CA,Monterey,93906, , , , ,6053,"1414 Natividad Rd, Salinas, CA 93906",36.7011471,-121.6307691
New Hanover County Sheriff's Office,Sheriff's office,315, , , , , ,3950 Juvenile Center Rd, , ,Castle Hayne,NC,New Hanover,28429, , , , ,37129,"3950 Juvenile Center Rd, Castle Hayne, NC 28429",34.325154,-77.89455099999999
Amarillo Police Department,Local police department,311, , , , , ,200 E. Third Avenue, , ,Amarillo,TX,Potter,79101, , , , ,48375,"200 E. Third Avenue, Amarillo, TX 79101",35.2109392,-101.8377922
West Palm Beach Police Department,Local police department,310, , , , , ,600 Banyan Boulevard, , ,West Palm Beach,FL,Palm Beach,33401, , , , ,12099,"600 Banyan Boulevard, West Palm Beach, FL 33401",26.714148,-80.0574271
MARTA Police Department,Special jurisdiction,309, , , , , ,2424 Piedmont Rd N.E., , ,Atlanta,GA,Fulton,30324, , , , ,13121,"2424 Piedmont Rd N.E., Atlanta, GA 30324",33.8241328,-84.3684155
Henrico County Sheriff's Office,Sheriff's office,308, , , , , ,Po Box 27032, , ,Richmond,VA,Henrico,23273, , , , ,51087,"Po Box 27032, Richmond, VA 23273",37.63721590000001,-77.4737823
Lincoln Police Dept,Local police department,308, , , , , ,911 Pekin St, , ,Lincoln,NE,Lancaster,68508, , , , ,31109,"911 Pekin St, Lincoln, NE 68508",40.8136634,-96.7025764
Vermont State Police,Primary state law enforcement agency,307, , , , , ,103 S. Main St., , ,Waterbury,VT,Washington,5671, , , , ,50023,"103 S. Main St., Waterbury, VT 5671",44.3325273,-72.7526323
Wilmington Police Department,Local police department,306, , , , , ,One Safety Square,300 N. Walnut Street, ,Wilmington,DE,New Castle,19801, , , , ,10003,"One Safety Square, Wilmington, DE 19801",39.73174849999999,-75.5784992
Springfield Police Dept,Local police department,306, , , , , ,800 E Monroe  Room 345, , ,Springfield,MO,Greene,65802, , , , ,29077,"800 E Monroe  Room 345, Springfield, MO 65802",37.2013593,-93.2823781
Boise Police Department,Local police department,306, , , , , ,7200 Barrister, , ,Boise,ID,Ada,83704, , , , ,16001,"7200 Barrister, Boise, ID 83704",43.6081258,-116.2701351
New York State Park Police,Special jurisdiction,305, , , , , ,Agency Building #1,"Empire State Plaza, 11th Floor", ,Albany,NY,Albany,12238, , , , ,36001,"Agency Building #1, Albany, NY 12238",42.6497671,-73.7616216
Joliet Police Dept,Local police department,302, , , , , ,150 West Washington Street, , ,Joliet,IL,Will,60432, , , , ,17197,"150 West Washington Street, Joliet, IL 60432",41.5234366,-88.0853137
Rockford Police Dept,Local police department,300, , , , , ,420 West State Street, , ,Rockford,IL,Winnebago,61101, , , , ,17201,"420 West State Street, Rockford, IL 61101",42.2719061,-89.097456
Cumberland County Sheriff's Office,Sheriff's office,300, , , , , ,Po Box 56,166 Courthouse Square, ,Fayetteville,NC,Cumberland,28301, , , , ,37051,"Po Box 56, Fayetteville, NC 28301",35.06375209999999,-78.8722341
Bossier Parish Sheriff's Office,Sheriff's office,300, , , , , ,Po Box 850, , ,Benton,LA,Bossier,71006, , , , ,22015,"Po Box 850, Benton, LA 71006",32.6948677,-93.7418454
Butler County Sheriff's Office,Sheriff's office,300, , , , , ,Po Box 345,428 Sixth St, ,Hamilton,OH,Butler,45011, , , , ,39017,"Po Box 345, Hamilton, OH 45011",39.4296413,-84.5117321
Terrebonne Parish Sheriff's Office,Sheriff's office,300, , , , , ,Po Box 1670, , ,Houma,LA,Terrebonne,70361, , , , ,22109,"Po Box 1670, Houma, LA 70361",29.63743,-90.76021
Aurora Police Dept,Local police department,297, , , , , ,715 12Th St., , ,Aurora,IL,Kane,60506, , , , ,17089,"715 12Th St., Aurora, IL 60506",41.76919840000001,-88.38219889999999
Mahoning County Sheriff's Office,Sheriff's office,297, , , , , ,110 5Th Ave,Justice Center, ,Youngstown,OH,Mahoning,44503, , , , ,39099,"110 5Th Ave, Youngstown, OH 44503",41.1042306,-80.6549256
Spartanburg County Sheriff's Office,Sheriff's office,297, , , , , ,Po Box 771,8045 Howard St, ,Spartanburg,SC,Spartanburg,29304, , , , ,45083,"Po Box 771, Spartanburg, SC 29304",35.0053068,-82.0007889
Spokane Police Department,Local police department,295, , , , , ,West 1100 Mallon, , ,Spokane,WA,Spokane,99260, , , , ,53063,"West 1100 Mallon, Spokane, WA 99260",47.6655915,-117.4289708
Santa Barbara County Sheriff's Office,Sheriff's office,294, , , , , ,4434 Calle Real,PO Box 6427, ,Santa Barbara,CA,Santa Barbara,93110, , , , ,6083,"4434 Calle Real, Santa Barbara, CA 93110",34.4435448,-119.776794
Pierce County Sheriff's Office,Sheriff's office,292, , , , , ,Po Box 226, , ,Tacoma,WA,Pierce,98402, , , , ,53053,"Po Box 226, Tacoma, WA 98402",47.2529105,-122.4417426
St. Charles Parish Sheriff's Office,Sheriff's office,291, , , , , ,Po Box 426, , ,Hahnville,LA,St. Charles,70057, , , , ,22089,"Po Box 426, Hahnville, LA 70057",29.9765931,-90.40897079999999
Hawaii Department of Public Safety,Primary state law enforcement agency,290, , , , , ,919 Ala Moana Blvd,Ste 400, ,Honolulu,HI,Honolulu,96814, , , , ,15003,"919 Ala Moana Blvd, Honolulu, HI 96814",21.2950641,-157.858888
Bibb County Sheriff's Office,Sheriff's office,290, , , , , ,668 Oglethorpe St,PO Box 930, ,Macon,GA,Bibb,31201, , , , ,13021,"668 Oglethorpe St, Macon, GA 31201",32.8291993,-83.6372538
Travis County Sheriff's Office,Sheriff's office,290, , , , , ,P.O. Box 1748, , ,Austin,TX,Travis,78767, , , , ,48453,"P.O. Box 1748, Austin, TX 78767",30.2694174,-97.739694
Charles County Sheriff's Office,Sheriff's office,289, , , , , ,6915 Crain Hwy,PO Box 189, ,La Plata,MD,Charles,20646, , , , ,24017,"6915 Crain Hwy, La Plata, MD 20646",38.5230625,-76.9828951
Lucas County Sheriff's Office,Sheriff's office,289, , , , , ,1023 Linden Ave,PO Box 816, ,Toledo,OH,Lucas,43604, , , , ,39095,"1023 Linden Ave, Toledo, OH 43604",41.6541814,-83.5443287
New Bedford Police Department,Local police department,288, , , , , ,871 Rockdale Avenue, , ,New Bedford,MA,Bristol,2740, , , , ,25005,"871 Rockdale Avenue, New Bedford, MA 2740",41.6380876,-70.9509448
Snohomish County Sheriff's Office,Sheriff's office,287, , , , , ,3000 Rockefeller Ave,M/S 606, ,Everett,WA,Snohomish,98201, , , , ,53061,"3000 Rockefeller Ave, Everett, WA 98201",47.9770341,-122.2046516
Montgomery County Sheriff's Office,Sheriff's office,287, , , , , ,Po Box 432,200 Clark Dr, ,Clarksville,TN,Montgomery,37040, , , , ,47125,"Po Box 432, Clarksville, TN 37040",36.4722803,-87.3612205
Lafourche Parish Sheriff's Office,Sheriff's office,287, , , , , ,200 Canal Blvd Attn: Beccy Hebert,PO Box 5608, ,Thibodaux,LA,Lafourche,70302, , , , ,22057,"200 Canal Blvd Attn: Beccy Hebert, Thibodaux, LA 70302",29.8006181,-90.81800059999999
Lake County Sheriff's Office,Sheriff's office,286, , , , , ,513 CENTER STREET, , ,Tavares,FL,Lake,32778, , , , ,12069,"513 CENTER STREET, Tavares, FL 32778",28.8041579,-81.725632
Charlotte County Sheriff's Office,Sheriff's office,285, , , , , ,222 Law Ln, , ,Punta Gorda,FL,Charlotte,33982, , , , ,12015,"222 Law Ln, Punta Gorda, FL 33982",26.9297836,-82.0453664
Topeka Police Department,Local police department,283, , , , , ,320 S Kansas St Suite 100, , ,Topeka,KS,Shawnee,66603, , , , ,20177,"320 S Kansas St Suite 100, Topeka, KS 66603",39.055018,-95.6706542
East Orange Police,Local police department,283, , , , , ,61 North Munn Avenue, , ,East Orange,NJ,Essex,7017, , , , ,34013,"61 North Munn Avenue, East Orange, NJ 7017",40.7617537,-74.20848749999999
Lakewood Police Department,Local police department,282, , , , , ,12650 Detroit Avenue, , ,Lakewood,CO,Jefferson,80226, , , , ,8059,"12650 Detroit Avenue, Lakewood, CO 80226",39.7047095,-105.0813734
Tennessee Bureau of Investigation,Special jurisdiction,281, , , , , ,901 R. S. Gass Blvd., , ,Nashville,TN,Davidson,37216, , , , ,47037,"901 R. S. Gass Blvd., Nashville, TN 37216",36.2130772,-86.746783
Harford County Sheriff's Office,Sheriff's office,280, , , , , ,45 S Main St,PO Box 150, ,Bel Air,MD,Harford,21014, , , , ,24025,"45 S Main St, Bel Air, MD 21014",39.5360421,-76.34828449999999
San Joaquin County Sheriff's Office,Sheriff's office,280, , , , , ,7000 S Michael N Canlis Way, , ,French Camp,CA,San Joaquin,95231, , , , ,6077,"7000 S Michael N Canlis Way, French Camp, CA 95231",37.8855836,-121.2982695
Bernalillo County Sheriff's Office,Sheriff's office,279, , , , , ,Po Box 25927,400 Roma NW, ,Albuquerque,NM,Bernalillo,87125, , , , ,35001,"Po Box 25927, Albuquerque, NM 87125",35.09,-106.64
Georgia Bureau of Investigation,Special jurisdiction,278, , , , , ,3121 Panthersville Road, , ,Decatur,GA,DeKalb,30034, , , , ,13089,"3121 Panthersville Road, Decatur, GA 30034",33.6927503,-84.27303739999999
Evansville Police,Local police department,277, , , , , ,15 N.W. Mlk Jr. Blvd., , ,Evansville,IN,Vanderburgh,47708, , , , ,18163,"15 N.W. Mlk Jr. Blvd., Evansville, IN 47708",37.9738464,-87.5674988
Texas Alcoholic Beverage Commission,Special jurisdiction,277, , , , , ,5806 Mesa Drive,Enforcement Training Section, ,Austin,TX,Travis,78731, , , , ,48453,"5806 Mesa Drive, Austin, TX 78731",30.3421103,-97.7712124
Alachua County Sheriff's Office,Sheriff's office,276, , , , , ,Po Box 1210,2621 Hawthorne Rd, ,Gainesville,FL,Alachua,32602, , , , ,12001,"Po Box 1210, Gainesville, FL 32602",29.66482409999999,-82.3244464
Gainesville Police Department,Local police department,275, , , , , ,201 Santa Fe St., , ,Gainesville,FL,Alachua,32602, , , , ,12001,"201 Santa Fe St., Gainesville, FL 32602",29.66482409999999,-82.3244464
Tennessee Wildlife Resources Agency,Special jurisdiction,275, , , , , ,P.O. Box 40747, , ,Nashville,TN,Davidson,37204, , , , ,47037,"P.O. Box 40747, Nashville, TN 37204",36.1059132,-86.7768273
Alaska State Troopers,Primary state law enforcement agency,274, , , , , ,5700 E Tudor Road, , ,Anchorage,AK,Anchorage,99507, , , , ,2020,"5700 E Tudor Road, Anchorage, AK 99507",61.1797003,-149.7759669
Springfield Police Dept,Local police department,273, , , , , ,800 E Monroe  Room 345, , ,Springfield,IL,Sangamon,62701, , , , ,17167,"800 E Monroe  Room 345, Springfield, IL 62701",39.7990264,-89.64455860000001
McAllen Police Department,Local police department,273, , , , , ,P.O. Box 220,1601 N. BICENTENNIAL, ,McAllen,TX,Hidalgo,78505, , , , ,48215,"P.O. Box 220, McAllen, TX 78505",26.2,-98.22999999999999
Monroe County Sheriff's Office,Sheriff's office,273, , , , , ,301 N College Ave,Justice Building, ,Rochester,NY,Monroe,14614, , , , ,36055,"301 N College Ave, Rochester, NY 14614",43.1593035,-77.5869504
Cambridge Police Department,Local police department,272, , , , , ,125 sixth street, , ,Cambridge,MA,Middlesex,2142, , , , ,25017,"125 sixth street, Cambridge, MA 2142",42.3673019,-71.0861221
Westchester County Department of Public Safety,Local police department,270, , , , , ,1 Saw Mill River Parkway, , ,Hawthorne,NY,Westchester,10532, , , , ,36119,"1 Saw Mill River Parkway, Hawthorne, NY 10532",41.1083758,-73.80708059999999
Macon Police Department,Local police department,270, , , , , ,301 E Bourke Street, , ,Macon,GA,Bibb,31202, , , , ,13021,"301 E Bourke Street, Macon, GA 31202",32.8406946,-83.6324022
Suffolk County Sheriff's Office,Sheriff's office,270, , , , , ,20 Bradston St, , ,Riverhead,NY,Suffolk,11901, , , , ,36103,"20 Bradston St, Riverhead, NY 11901",40.9170435,-72.66204019999999
St. Johns County Sheriff's Office,Sheriff's office,269, , , , , ,4015 Lewis Speedway, , ,Saint Augustine,FL,St. Johns,32084, , , , ,12109,"4015 Lewis Speedway, Saint Augustine, FL 32084",29.9409433,-81.3365895
Wilmington Police Department,Local police department,266, , , , , ,One Safety Square,300 N. Walnut Street, ,Wilmington,NC,New Hanover,28402, , , , ,37129,"One Safety Square, Wilmington, NC 28402",34.2378598,-77.9476394
Roanoke City Police Department,Local police department,264, , , , , ,348 Campbell Avenue Sw, , ,Roanoke,VA,Roanoke City,24016, , , , ,51770,"348 Campbell Avenue Sw, Roanoke, VA 24016",37.271068,-79.9476882
Glendale Police Department,Local police department,264, , , , , ,424 N Sappington Rd, , ,Glendale,CA,Los Angeles,91206, , , , ,6037,"424 N Sappington Rd, Glendale, CA 91206",34.1425078,-118.255075
Idaho State Police,Primary state law enforcement agency,264, , , , , ,700 S. Stratford Drive, , ,Meridian,ID,Ada,83642, , , , ,16001,"700 S. Stratford Drive, Meridian, ID 83642",43.5990014,-116.3827685
Tuscaloosa Police Department,Local police department,263, , , , , ,3801 Mill Creek Avenue, , ,Tuscaloosa,AL,Tuscaloosa,35401, , , , ,1125,"3801 Mill Creek Avenue, Tuscaloosa, AL 35401",33.1733526,-87.5574919
Morris County Sheriff's Office,Sheriff's office,262, , , , , ,"Courthouse, Washington St",PO Box 900, ,Morristown,NJ,Morris,7963, , , , ,34027,"Courthouse, Washington St, Morristown, NJ 7963",40.799459,-74.487994
Hidalgo County Sheriff's Office,Sheriff's office,262, , , , , ,711 El Cibolo Road, , ,Edinburg,TX,Hidalgo,78542, , , , ,48215,"711 El Cibolo Road, Edinburg, TX 78542",26.4155165,-98.13023190000001
Modesto Police Department,Local police department,262, , , , , ,601 - 10Th Street, , ,Modesto,CA,Stanislaus,95353, , , , ,6099,"601 - 10Th Street, Modesto, CA 95353",37.6366159,-120.996203
Maryland State Forest And Park Service,Special jurisdiction,261, , , , , ,"Tawes, 580 Taylor Avenue; E-3", , ,Annapolis,MD,Anne Arundel,21401, , , , ,24003,"Tawes, 580 Taylor Avenue; E-3, Annapolis, MD 21401",38.9861813,-76.5030767
Ascension Parish Sheriff's Office,Sheriff's office,260, , , , , ,Po Box 268, , ,Donaldsonville,LA,Ascension,70346, , , , ,22005,"Po Box 268, Donaldsonville, LA 70346",30.1010323,-90.9928773
Pasadena Police Department,Local police department,260, , , , , ,1114 JEFF GINN MEMORIAL DRIVE, , ,Pasadena,TX,Harris,77506, , , , ,48201,"1114 JEFF GINN MEMORIAL DRIVE, Pasadena, TX 77506",29.6885512,-95.19767879999999
Charleston County Sheriff's Office,Sheriff's office,259, , , , , ,3505 Pinehaven Dr, , ,Charleston,SC,Charleston,29405, , , , ,45019,"3505 Pinehaven Dr, Charleston, SC 29405",32.8560597,-79.97997409999999
St. Lucie County Sheriff's Office,Sheriff's office,259, , , , , ,4700 W Midway Rd, , ,Fort Pierce,FL,St. Lucie,34981, , , , ,12111,"4700 W Midway Rd, Fort Pierce, FL 34981",27.375372,-80.3729644
Overland Park Police Department,Local police department,258, , , , , ,12400 Foster St, , ,Overland Park,KS,Johnson,66213, , , , ,20091,"12400 Foster St, Overland Park, KS 66213",38.903774,-94.6730735
Okaloosa County Sheriff's Office,Sheriff's office,258, , , , , ,1250 Eglin Pkwy, , ,Shalimar,FL,Okaloosa,32579, , , , ,12091,"1250 Eglin Pkwy, Shalimar, FL 32579",30.4459509,-86.5802722
Hall County Sheriff's Office,Sheriff's office,257, , , , , ,"512 Main St, Ste 7", , ,Gainesville,GA,Hall,30501, , , , ,13139,"512 Main St, Ste 7, Gainesville, GA 30501",34.2959669,-83.8254604
SEPTA Transit Police,Special jurisdiction,256, , , , , ,"1234 Market Street, 4Th Floor", , ,Philadelphia,PA,Philadelphia,19107, , , , ,42101,"1234 Market Street, 4Th Floor, Philadelphia, PA 19107",39.9519255,-75.1610652
Waterbury Police Department,Local police department,256, , , , , ,P.O. Box 9, , ,Waterbury,CT,New Haven,6702, , , , ,9009,"P.O. Box 9, Waterbury, CT 6702",41.5567064,-73.0449551
MBTA Transit Police,Special jurisdiction,256, , , , , ,240 Southampton Street, , ,Boston,MA,Suffolk,2118, , , , ,25025,"240 Southampton Street, Boston, MA 2118",42.331049,-71.06466800000001
South Bend Police,Local police department,255, , , , , ,701 West Sample Street, , ,South Bend,IN,St. Joseph,46601, , , , ,18141,"701 West Sample Street, South Bend, IN 46601",41.6658647,-86.25855399999999
Marion County Sheriff's Office,Sheriff's office,255, , , , , ,2715 E Highway 76 Ste C, , ,Salem,OR,Marion,97301, , , , ,41047,"2715 E Highway 76 Ste C, Salem, OR 97301",44.9428975,-123.0350963
Clearwater Police Department,Local police department,255, , , , , ,Po Box 453, , ,Clearwater,FL,Pinellas,33756, , , , ,12103,"Po Box 453, Clearwater, FL 33756",27.9413341,-82.79402970000001
Barnstable County Sheriff's Office,Sheriff's office,254, , , , , ,6000 Sheriff  Place, , ,Bourne,MA,Barnstable,2532, , , , ,25001,"6000 Sheriff  Place, Bourne, MA 2532",41.67763370000001,-70.5706725
Forsyth County Sheriff's Office,Sheriff's office,253, , , , , ,120 W 3Rd St,PO Box 21089, ,Cumming,GA,Forsyth,30040, , , , ,13117,"120 W 3Rd St, Cumming, GA 30040",34.2073196,-84.14019259999999
Sonoma County Sheriff's Office,Sheriff's office,251, , , , , ,2796 Ventura Ave, , ,Santa Rosa,CA,Sonoma,95403, , , , ,6097,"2796 Ventura Ave, Santa Rosa, CA 95403",38.4682015,-122.7227873
Washington State Parks and Recreation Commission,Special jurisdiction,250, , , , , ,P.O. Box 42650, , ,Olympia,WA,Thurston,95804, , , , ,53067,"P.O. Box 42650, Olympia, WA 95804",47.0378741,-122.9006951
Concordia Parish Sheriff's Office,Sheriff's office,250, , , , , ,4001 Carter St Rm 7, , ,Vidalia,LA,Concordia,71373, , , , ,22029,"4001 Carter St Rm 7, Vidalia, LA 71373",31.5752343,-91.4580074
Daytona Beach Police Department,Local police department,250, , , , , ,990 Orange Avenue, , ,Daytona Beach,FL,Volusia,32114, , , , ,12127,"990 Orange Avenue, Daytona Beach, FL 32114",29.2008213,-81.03791319999999
Hernando County Sheriff's Office,Sheriff's office,249, , , , , ,Po Box 10070,18900 Cortez Blvd, ,Brooksville,FL,Hernando,34603, , , , ,12053,"Po Box 10070, Brooksville, FL 34603",28.5552719,-82.3878709
Lexington County Sheriff's Office,Sheriff's office,249, , , , , ,Po Box 639, , ,Lexington,SC,Lexington,29071, , , , ,45063,"Po Box 639, Lexington, SC 29071",33.9799999,-81.24
El Paso County Sheriff's Office,Sheriff's office,248, , , , , ,3850 Justice Drive, , ,El Paso,TX,El Paso,79938, , , , ,48141,"3850 Justice Drive, El Paso, TX 79938",31.8113261,-106.2591814
Beaumont Police Department,Local police department,246, , , , , ,P. O. Box 3827, , ,Beaumont,TX,Jefferson,77704, , , , ,48245,"P. O. Box 3827, Beaumont, TX 77704",30.0802412,-94.0997344
Waco Police Department,Local police department,246, , , , , ,721 N. 4Th, , ,Waco,TX,McLennan,76701, , , , ,48309,"721 N. 4Th, Waco, TX 76701",31.5624483,-97.1357805
Peoria Police Dept,Local police department,246, , , , , ,600 Sw Adams, , ,Peoria,IL,Peoria,61602, , , , ,17143,"600 Sw Adams, Peoria, IL 61602",40.6873501,-89.59596169999999
Pasadena Police Department,Local police department,246, , , , , ,1114 JEFF GINN MEMORIAL DRIVE, , ,Pasadena,CA,Los Angeles,91101, , , , ,6037,"1114 JEFF GINN MEMORIAL DRIVE, Pasadena, CA 91101",36.778261,-119.4179324
Macomb County Sheriff's Office,Sheriff's office,245, , , , , ,43565 Elizabeth St, , ,Mount Clemens,MI,Macomb,48043, , , , ,26099,"43565 Elizabeth St, Mount Clemens, MI 48043",42.6163402,-82.8875748
Port St. Lucie Police Department,Local police department,245, , , , , ,121 Sw Port St. Lucie Blvd., , ,Port St. Lucie,FL,St. Lucie,34984, , , , ,12111,"121 Sw Port St. Lucie Blvd., Port St. Lucie, FL 34984",27.2730734,-80.3582454
Kalamazoo Dept of Public Safety,Local police department,244, , , , , ,150 E Crosstown Pky,Suite A, ,Kalamazoo,MI,Kalamazoo,49001, , , , ,26077,"150 E Crosstown Pky, Kalamazoo, MI 49001",42.2796528,-85.58138919999999
Chula Vista Police Department,Local police department,244, , , , , ,315 Fourth Avenue, , ,Chula Vista,CA,San Diego,91910, , , , ,6073,"315 Fourth Avenue, Chula Vista, CA 91910",32.6399808,-117.0829019
Spokane County Sheriff's Office,Sheriff's office,244, , , , , ,1100 W Mallon Ave,Public Safety Bldg, ,Spokane,WA,Spokane,99260, , , , ,53063,"1100 W Mallon Ave, Spokane, WA 99260",47.6655915,-117.4289708
Horry County Police Department,Local police department,243, , , , , ,"2560 N. Main Street, Suite 7", , ,Conway,SC,Horry,29526, , , , ,45051,"2560 N. Main Street, Suite 7, Conway, SC 29526",33.8643407,-79.0532727
Gary Police,Local police department,243, , , , , ,Ste 4002,555 Polk St., ,Gary,IN,Lake,46402, , , , ,18089,"Ste 4002, Gary, IN 46402",41.6053514,-87.33639339999999
Lafayette Police Department,Local police department,243, , , , , ,Post Office Box 87, , ,Lafayette,LA,Lafayette,70502, , , , ,22055,"Post Office Box 87, Lafayette, LA 70502",30.2276425,-92.01473659999999
Iberia Parish Sheriff's Office,Sheriff's office,242, , , , , ,300 S Iberia St Ste 120, , ,New Iberia,LA,Iberia,70560, , , , ,22045,"300 S Iberia St Ste 120, New Iberia, LA 70560",30.0043763,-91.8213233
Onondaga County Sheriff's Office,Sheriff's office,242, , , , , ,407 S State St, , ,Syracuse,NY,Onondaga,13202, , , , ,36067,"407 S State St, Syracuse, NY 13202",43.0477841,-76.14712449999999
Lansing Police Department,Local police department,240, , , , , ,PO BOX 470, , ,Lansing,MI,Ingham,48933, , , , ,26065,"PO BOX 470, Lansing, MI 48933",42.7371075,-84.55628779999999
Harris County Constable Pct. 1,Constable/marshal,240, , , , , ,"1302 Preston, 3Rd Floor", , ,Houston,TX,Harris,77002, , , , ,48201,"1302 Preston, 3Rd Floor, Houston, TX 77002",29.7595776,-95.3585162
Guilford County Sheriff's Office,Sheriff's office,240, , , , , ,Po Box 3427, , ,Greensboro,NC,Guilford,27402, , , , ,37081,"Po Box 3427, Greensboro, NC 27402",35.9670631,-79.7722673
Galveston County Sheriff's Office,Sheriff's office,240, , , , , ,601-54Th St, , ,Galveston,TX,Galveston,77551, , , , ,48167,"601-54Th St, Galveston, TX 77551",29.2933928,-94.8305804
Lowell Police Department,Local police department,239, , , , , ,50 Arcand Dr, , ,Lowell,MA,Middlesex,1852, , , , ,25017,"50 Arcand Dr, Lowell, MA 1852",42.6470001,-71.3134065
Jefferson County Sheriff's Office,Sheriff's office,239, , , , , ,16001 State Route 7, , ,Louisville,KY,Jefferson,40202, , , , ,21111,"16001 State Route 7, Louisville, KY 40202",38.2526647,-85.7584557
Clarksville Police Department,Local police department,238, , , , , ,800 W. Main Street, , ,Clarksville,TN,Montgomery,37040, , , , ,47125,"800 W. Main Street, Clarksville, TN 37040",36.3228502,-87.7331079
Pembroke Pines Police Department,Local police department,238, , , , , ,9500 Pines Boulevard, , ,Pembroke Pines,FL,Broward,33024, , , , ,12011,"9500 Pines Boulevard, Pembroke Pines, FL 33024",26.0077665,-80.2713429
South Carolina Department of Natural Resources,Special jurisdiction,238, , , , , ,Po Box 167, , ,Columbia,SC,Richland,29202, , , , ,45079,"Po Box 167, Columbia, SC 29202",34.0,-81.03999999999999
Fall River Police Department,Local police department,237, , , , , ,641 South Main Street,P.O. Box 37, ,Fall River,MA,Bristol,2721, , , , ,25005,"641 South Main Street, Fall River, MA 2721",41.6957133,-71.16345869999999
Tulsa County Sheriff's Office,Sheriff's office,237, , , , , ,500 S Denver Ave, , ,Tulsa,OK,Tulsa,74103, , , , ,40143,"500 S Denver Ave, Tulsa, OK 74103",36.1546259,-95.99130679999999
Dallas/Fort Worth International Airport D.P.S.,Special jurisdiction,237, , , , , ,P. O. Box 619428, , ,D/Fw Airport,TX,Dallas,75261, , , , ,48113,"P. O. Box 619428, D/Fw Airport, TX 75261",32.8990434,-97.0335765
Portsmouth Police Department,Local police department,235, , , , , ,700 Crawford St., , ,Portsmouth,VA,Portsmouth City,23704, , , , ,51740,"700 Crawford St., Portsmouth, VA 23704",36.8336144,-76.2981223
Torrance Police Department,Local police department,235, , , , , ,3300 Civic Center Drive, , ,Torrance,CA,Los Angeles,90503, , , , ,6037,"3300 Civic Center Drive, Torrance, CA 90503",33.8397829,-118.3424965
Ramsey County Sheriff's Office,Sheriff's office,235, , , , , ,222 Walnut St W, , ,Saint Paul,MN,Ramsey,55101, , , , ,27123,"222 Walnut St W, Saint Paul, MN 55101",44.9391099,-93.1002344
Prince George's County Sheriff's Office,Sheriff's office,233, , , , , ,Po Box 548, , ,Upper Marlboro,MD,Prince Georges,20773, , , , ,24033,"Po Box 548, Upper Marlboro, MD 20773",38.82,-76.75
Hampton Police Department,Local police department,232, , , , , ,40 Lincoln St., , ,Hampton,VA,Hampton City,23669, , , , ,51650,"40 Lincoln St., Hampton, VA 23669",37.0284797,-76.3440676
Chatham County Sheriff's Office,Sheriff's office,232, , , , , ,1050 Carl Griffin Dr,PO Box 10026, ,Savannah,GA,Chatham,31405, , , , ,13051,"1050 Carl Griffin Dr, Savannah, GA 31405",32.0667768,-81.166573
Buncombe County Sheriff's Office,Sheriff's office,231, , , , , ,202 Haywood St, , ,Asheville,NC,Buncombe,28801, , , , ,37021,"202 Haywood St, Asheville, NC 28801",35.595614,-82.55954059999999
Warren Police Department,Local police department,230, , , , , ,318 W Third Ave, , ,Warren,MI,Macomb,48093, , , , ,26099,"318 W Third Ave, Warren, MI 48093",42.5190114,-83.0092803
Brownsville Police Department,Local police department,230, , , , , ,600 E. Jackson, , ,Brownsville,TX,Cameron,78520, , , , ,48061,"600 E. Jackson, Brownsville, TX 78520",25.908208,-97.4986897
"Mississippi Department of Wildlife, Fisheries & Parks",Special jurisdiction,230, , , , , ,Post Office Box 451, , ,Jackson,MS,Hinds,39205, , , , ,28049,"Post Office Box 451, Jackson, MS 39205",32.3503996,-90.1529468
Stanislaus County Sheriff's Office,Sheriff's office,230, , , , , ,250 E Hackett Rd, , ,Modesto,CA,Stanislaus,95358, , , , ,6099,"250 E Hackett Rd, Modesto, CA 95358",37.5864644,-120.989273
Ontario Police Department,Local police department,230, , , , , ,555 North Stumbo Road, , ,Ontario,CA,San Bernardino,91761, , , , ,6071,"555 North Stumbo Road, Ontario, CA 91761",34.0633443,-117.6508876
Oxnard Police Department,Local police department,228, , , , , ,"251 South ""C"" Street", , ,Oxnard,CA,Ventura,93030, , , , ,6111,"251 South ""C"" Street, Oxnard, CA 93030",34.2008791,-119.181452
Placer County Sheriff's Office,Sheriff's office,228, , , , , ,2929 Richardson Dr,PO Box 6990, ,Auburn,CA,Placer,95603, , , , ,6061,"2929 Richardson Dr, Auburn, CA 95603",38.9372848,-121.1076946
Muscogee County Sheriff's Office,Sheriff's office,228, , , , , ,Po Box 1338, , ,Columbus,GA,Muscogee,31902, , , , ,13215,"Po Box 1338, Columbus, GA 31902",32.46862,-84.99141
Gilbert Police Department,Local police department,227, , , , , ,Po Box 600, , ,Gilbert,AZ,Maricopa,85296, , , , ,4013,"Po Box 600, Gilbert, AZ 85296",33.3345698,-111.7383162
Lakeland Police Department,Local police department,226, , , , , ,219 No. Massachusetts Avenue, , ,Lakeland,FL,Polk,33801, , , , ,12105,"219 No. Massachusetts Avenue, Lakeland, FL 33801",28.0464035,-81.9536905
Mesquite Police Department,Local police department,226, , , , , ,500 Hillside Drive, , ,Mesquite,TX,Dallas,75149, , , , ,48113,"500 Hillside Drive, Mesquite, TX 75149",32.7663328,-96.6435743
Indian River County Sheriff's Office,Sheriff's office,226, , , , , ,Human Resources,4055 41st AVENUE, ,Verobeach,FL,Indian River,32960, , , , ,12061,"Human Resources, Verobeach, FL 32960",27.6445079,-80.4048306
High Point Police Department,Local police department,225, , , , , ,1009 Leonard Ave., , ,High Point,NC,Guilford,27260, , , , ,37081,"1009 Leonard Ave., High Point, NC 27260",35.9598143,-79.9933851
Henry County Police Department,Local police department,225, , , , , ,108 South Zack Hinton Parkway, , ,McDonough,GA,Henry,30253, , , , ,13151,"108 South Zack Hinton Parkway, McDonough, GA 30253",33.4439086,-84.13722279999999
Chesterfield County Sheriff's Office,Sheriff's office,225, , , , , ,Po Box 7,9500 Courthouse Rd, ,Chesterfield,VA,Chesterfield,23832, , , , ,51041,"Po Box 7, Chesterfield, VA 23832",37.3770935,-77.5049863
Citrus County Sheriff's Office,Sheriff's office,224, , , , , ,1 Dr Martin Luther King Jr Ave, , ,Inverness,FL,Citrus,34450, , , , ,12017,"1 Dr Martin Luther King Jr Ave, Inverness, FL 34450",28.8354407,-82.3282945
Maryland Natural Resources Police,Special jurisdiction,224, , , , , ,580 Taylor Ave E-3, , ,Annapolis,MD,Anne Arundel,21401, , , , ,24003,"580 Taylor Ave E-3, Annapolis, MD 21401",38.9861813,-76.5030767
Denton County Sheriff's Office,Sheriff's office,223, , , , , ,127 N Woodrow Ln, , ,Denton,TX,Denton,76205, , , , ,48121,"127 N Woodrow Ln, Denton, TX 76205",33.2136319,-97.1131625
Douglas County Sheriff's Office,Sheriff's office,223, , , , , ,6856 Broad St, , ,Douglasville,GA,Douglas,30134, , , , ,13097,"6856 Broad St, Douglasville, GA 30134",33.7514966,-84.7477136
Grand Prairie Police Department,Local police department,223, , , , , ,801 Conover Dr., , ,Grand Prairie,TX,Dallas,75051, , , , ,48113,"801 Conover Dr., Grand Prairie, TX 75051",32.7374473,-97.01599639999999
Huntington Beach Police Department,Local police department,223, , , , , ,2000 Main Street, , ,Huntington Beach,CA,Orange,92648, , , , ,6059,"2000 Main Street, Huntington Beach, CA 92648",33.6779666,-118.0010588
Montgomery County Sheriff's Office,Sheriff's office,222, , , , , ,Po Box 432,200 Clark Dr, ,Dayton,OH,Montgomery,45401, , , , ,39113,"Po Box 432, Dayton, OH 45401",39.7587998,-84.1787904
Sioux Falls Police Department,Local police department,221, , , , , ,320 W. 4Th Street, , ,Sioux Falls,SD,Minnehaha,57104, , , , ,46099,"320 W. 4Th Street, Sioux Falls, SD 57104",43.554538,-96.7301657
Hudson County Sheriff's Office,Sheriff's office,221, , , , , ,595 Newark Ave, , ,Jersey City,NJ,Hudson,7306, , , , ,34017,"595 Newark Ave, Jersey City, NJ 7306",40.7325501,-74.0579644
Cape Coral Police Department,Local police department,220, , , , , ,815 Nicholas Parkway, , ,Cape Coral,FL,Lee,33990, , , , ,12071,"815 Nicholas Parkway, Cape Coral, FL 33990",26.6298068,-81.95728419999999
"Calfornia DMV, Investigations Division",Special jurisdiction,219, , , , , ,2120 Broadway N215, , ,Sacramento,CA,Sacramento,95818, , , , ,6067,"2120 Broadway N215, Sacramento, CA 95818",38.5583083,-121.4836833
Manchester Police Department,Local police department,218, , , , , ,"3215 Long Lane, P.O.Box 830", , ,Manchester,NH,Hillsborough,3101, , , , ,33011,"3215 Long Lane, P.O.Box 830, Manchester, NH 3101",42.9901899,-71.4625883
Montana Highway Patrol,Primary state law enforcement agency,218, , , , , ,2550 Prospect,PO BOX 201419, ,Helena,MT,Lewis and Clark,59601, , , , ,30049,"2550 Prospect, Helena, MT 59601",46.5919622,-111.9933104
Pinal County Sheriff's Office,Sheriff's office,218, , , , , ,"971 N Jason Lopez Circle, Bldg C",PO Box 867, ,Florence,AZ,Pinal,85232, , , , ,4021,"971 N Jason Lopez Circle, Bldg C, Florence, AZ 85232",33.0412483,-111.3760986
Forsyth County Sheriff's Office,Sheriff's office,217, , , , , ,120 W 3Rd St,PO Box 21089, ,Winston Salem,NC,Forsyth,27101, , , , ,37067,"120 W 3Rd St, Winston Salem, NC 27101",36.0973803,-80.2460301
Broome County Sheriff's Office,Sheriff's office,216, , , , , ,155 Lt Vanwinkle Dr, , ,Binghamton,NY,Broome,13905, , , , ,36007,"155 Lt Vanwinkle Dr, Binghamton, NY 13905",42.1323906,-75.9167787
Hanover County Sheriff's Office,Sheriff's office,215, , , , , ,Po Box 40, , ,Hanover,VA,Hanover,23069, , , , ,51085,"Po Box 40, Hanover, VA 23069",37.7665686,-77.37024439999999
Murfreesboro Police Department,Local police department,213, , , , , ,302 S. Church St., , ,Murfreesboro,TN,Rutherford,37130, , , , ,47149,"302 S. Church St., Murfreesboro, TN 37130",35.8437759,-86.39215519999999
Bay County Sheriff's Office,Sheriff's office,213, , , , , ,503 3Rd St, , ,Panama City,FL,Bay,32405, , , , ,12005,"503 3Rd St, Panama City, FL 32405",30.1545807,-85.65098809999999
Athens-Clarke County Police Dept,Local police department,213, , , , , ,3035 Lexington Road, , ,Athens,GA,Clarke,30605, , , , ,13059,"3035 Lexington Road, Athens, GA 30605",33.9422911,-83.328259
Bayonne Police,Local police department,212, , , , , ,630 Avenue C, , ,Bayonne,NJ,Hudson,7002, , , , ,34017,"630 Avenue C, Bayonne, NJ 7002",40.66854840000001,-74.11725489999999
Asheville Police Department,Local police department,212, , , , , ,Po Box 7148, , ,Asheville,NC,Buncombe,28802, , , , ,37021,"Po Box 7148, Asheville, NC 28802",35.59399,-82.55574969999999
Rapides Parish Sheriff's Office,Sheriff's office,212, , , , , ,Po Box 1510, , ,Alexandria,LA,Rapides,71309, , , , ,22079,"Po Box 1510, Alexandria, LA 71309",31.31943799999999,-92.4672927
Arlington County Sheriff's Office,Sheriff's office,211, , , , , ,"1425 N Court House Rd, Ste 9100", , ,Arlington,VA,Arlington,22201, , , , ,51013,"1425 N Court House Rd, Ste 9100, Arlington, VA 22201",38.8899796,-77.08349299999999
Sunnyvale Department of Public Safety,Local police department,210, , , , , ,P.O. Box 3707, , ,Sunnyvale,CA,Santa Clara,94088, , , , ,6085,"P.O. Box 3707, Sunnyvale, CA 94088",37.42,-122.0
Hammond Police,Local police department,210, , , , , ,509 Douglas Street, , ,Hammond,IN,Lake,46320, , , , ,18089,"509 Douglas Street, Hammond, IN 46320",41.6156938,-87.5160083
White Plains Police Department,Local police department,210, , , , , ,77 South Lexington Ave., , ,White Plains,NY,Westchester,10601, , , , ,36119,"77 South Lexington Ave., White Plains, NY 10601",41.0301714,-73.7712281
Miami-Dade School Police Department,Special jurisdiction,210, , , , , ,6100 Northwest 2Nd Avenue, , ,Miami,FL,Miami-Dade,33127, , , , ,12086,"6100 Northwest 2Nd Avenue, Miami, FL 33127",25.8319051,-80.2007694
Oceanside Police Department,Local police department,210, , , , , ,3855 Mission Avenue, , ,Oceanside,CA,San Diego,92054, , , , ,6073,"3855 Mission Avenue, Oceanside, CA 92054",33.226093,-117.328857
Philadelphia County Sheriff's Office,Sheriff's office,209, , , , , ,Land Title Bldg,100 South Broad St 5th Fl, ,Philadelphia,PA,Philadelphia,19110, , , , ,42101,"Land Title Bldg, Philadelphia, PA 19110",39.95052219999999,-75.1643174
North Carolina Wildlife Resources Commission,Special jurisdiction,209, , , , , ,1717 Msc, , ,Raleigh,NC,Wake,27699, , , , ,37183,"1717 Msc, Raleigh, NC 27699",35.67,-78.66
Tennessee Dept. of Environment Conservation - Park Rangers,Special jurisdiction,209, , , , , ,401 Church Street,"1st Floor, L&C Annex", ,Nashville,TN,Davidson,37243, , , , ,47037,"401 Church Street, Nashville, TN 37243",36.1632264,-86.7790065
Beaufort County Sheriff's Office,Sheriff's office,209, , , , , ,2001 Duke St,PO Box 1758, ,Beaufort,SC,Beaufort,29902, , , , ,45013,"2001 Duke St, Beaufort, SC 29902",32.4364985,-80.686221
Georgia Department of Natural Resources - Wildlife Resource Div.,Special jurisdiction,209, , , , , ,2070 U.S. Highway 278 Southwest, , ,Social Circle,GA,Walton,30025, , , , ,13297,"2070 U.S. Highway 278 Southwest, Social Circle, GA 30025",33.6241971,-83.6782371
Woodbridge Police,Local police department,206, , , , , ,1 Main Street, , ,Woodbridge,NJ,Middlesex,7095, , , , ,34023,"1 Main Street, Woodbridge, NJ 7095",40.5550594,-74.27616359999999
Independence Police Department,Local police department,206, , , , , ,136 E. Main St.,P.O. Box 99, ,Independence,MO,Jackson,64051, , , , ,29095,"136 E. Main St., Independence, MO 64051",39.0921632,-94.41854239999999
Columbia County Sheriff's Office,Sheriff's office,206, , , , , ,4917 Us Highway 90, , ,Appling,GA,Columbia,30802, , , , ,13073,"4917 Us Highway 90, Appling, GA 30802",33.54609000000001,-82.3163154
Williamson County Sheriff's Office,Sheriff's office,206, , , , , ,200 W Jefferson St, , ,Georgetown,TX,Williamson,78626, , , , ,48491,"200 W Jefferson St, Georgetown, TX 78626",30.6414662,-97.68120549999999
Metropolitan Washington Airports Authority Police,Special jurisdiction,206, , , , , ,"Headquarters Reagan-National,", , ,Arlington,VA,Arlington,22202, , , , ,51013,"Headquarters Reagan-National,, Arlington, VA 22202",38.851242,-77.04023149999999
Quincy Police Department,Local police department,205, , , , , ,1 Sea Street, , ,Quincy,MA,Norfolk,2169, , , , ,25021,"1 Sea Street, Quincy, MA 2169",42.2557559,-70.9960909
Santa Monica Police Department,Local police department,205, , , , , ,333 Olympic Drive, , ,Santa Monica,CA,Los Angeles,90401, , , , ,6037,"333 Olympic Drive, Santa Monica, CA 90401",34.0121978,-118.4908669
Roanoke (City) Sheriff's Office,Sheriff's office,205, , , , , ,340 Campbell Ave, , ,Roanoke,VA,Roanoke City,24016, , , , ,51770,"340 Campbell Ave, Roanoke, VA 24016",37.2717859,-79.9362829
Mount Vernon Police Department,Local police department,205, , , , , ,1805 Continental Place, , ,Mount Vernon,NY,Westchester,10550, , , , ,36119,"1805 Continental Place, Mount Vernon, NY 10550",40.9125992,-73.8370786
Wyoming Highway Patrol,Primary state law enforcement agency,204, , , , , ,5300 Bishop Blvd, , ,Cheyenne,WY,Laramie,82009, , , , ,56021,"5300 Bishop Blvd, Cheyenne, WY 82009",41.1660946,-104.8416153
Flint Police Department,Local police department,204, , , , , ,210 E 5Th St, , ,Flint,MI,Genesee,48502, , , , ,26049,"210 E 5Th St, Flint, MI 48502",43.0118872,-83.68505220000002
Jackson Police Department,Local police department,204, , , , , ,Po Box 614, , ,Jackson,TN,Madison,38301, , , , ,47113,"Po Box 614, Jackson, TN 38301",35.5821649,-88.8455037
Kent County Sheriff's Office,Sheriff's office,204, , , , , ,P. O. Box 7,101 N. Main St., ,Grand Rapids,MI,Kent,49503, , , , ,26081,"P. O. Box 7, Grand Rapids, MI 49503",42.9616689,-85.6588999
Missouri Dept. of Conservation,Special jurisdiction,204, , , , , ,2901 W Truman Blvd, , ,Jefferson City,MO,Cole,65109, , , , ,29051,"2901 W Truman Blvd, Jefferson City, MO 65109",38.5941447,-92.2288939
Reading Police Department,Local police department,203, , , , , ,15 Union Street, , ,Reading,PA,Berks,19601, , , , ,42011,"15 Union Street, Reading, PA 19601",40.3594614,-75.9349944
Allegheny County Police Department.,Local police department,202, , , , , ,400 North Lexington St. Suite 201, , ,Pittsburgh,PA,Allegheny,15208, , , , ,42003,"400 North Lexington St. Suite 201, Pittsburgh, PA 15208",40.4508326,-79.8981448
Marin County Sheriff's Office,Sheriff's office,202, , , , , ,3501 Civic Central Dr,Room 145, ,San Rafael,CA,Marin,94903, , , , ,6041,"3501 Civic Central Dr, San Rafael, CA 94903",37.9979317,-122.5306612
Coral Springs Police Department,Local police department,202, , , , , ,2801 Coral Springs Drive, , ,Coral Springs,FL,Broward,33065, , , , ,12011,"2801 Coral Springs Drive, Coral Springs, FL 33065",26.2641988,-80.2651102
Wilson County Sheriff's Office,Sheriff's office,202, , , , , ,925 Pierce St, , ,Lebanon,TN,Wilson,37087, , , , ,47189,"925 Pierce St, Lebanon, TN 37087",36.2169091,-86.3346882
Indiana Department of Natural Resources,Special jurisdiction,201, , , , , ,Law Enforcement Division,402 W. Washington St. Room W255D, ,Indianapolis,IN,Marion,46204, , , , ,18097,"Law Enforcement Division, Indianapolis, IN 46204",39.7572843,-86.182854
New Jersey Transit Police,Special jurisdiction,201, , , , , ,One Penn Plaza East,7th Floor, ,Newark,NJ,Essex,7105, , , , ,34013,"One Penn Plaza East, Newark, NJ 7105",40.7497019,-74.16363129999999
Rhode Island State Police,Primary state law enforcement agency,201, , , , , ,311 Danielson Pike, , ,North Scituate,RI,Providence,2857, , , , ,44007,"311 Danielson Pike, North Scituate, RI 2857",41.8315333,-71.6063229
Minnesota Dept of Natural Resources - Enforcement Division,Special jurisdiction,200, , , , , ,P.O. Box 47,500 LAFAYETTE RD., ,St. Paul,MN,Ramsey,55155, , , , ,27123,"P.O. Box 47, St. Paul, MN 55155",44.9527456,-93.102088
Allentown Police Department,Local police department,200, , , , , ,425 Hamilton St, , ,Allentown,PA,Lehigh,18101, , , , ,42077,"425 Hamilton St, Allentown, PA 18101",40.6041556,-75.4665624
Bradley County Sheriff's Office,Sheriff's office,200, , , , , ,107 N. Myrtle St., , ,Cleveland,TN,Bradley,37311, , , , ,47011,"107 N. Myrtle St., Cleveland, TN 37311",35.0981107,-84.9297206
Middlesex Sheriff's Office,Sheriff's office,200, , , , , ,"400 MYSTIC AVENUE, 4TH FLOOR", , ,Medford,MA,Middlesex,2155, , , , ,25017,"400 MYSTIC AVENUE, 4TH FLOOR, Medford, MA 2155",42.4021807,-71.0970849
McLennan County Sheriff's Office,Sheriff's office,200, , , , , ,901 Washington Avenue, , ,Waco,TX,McLennan,76701, , , , ,48309,"901 Washington Avenue, Waco, TX 76701",31.5545724,-97.1367872
Vancouver Police Department,Local police department,199, , , , , ,605 E. Evergreen Boulevard,PO BOX 1995, ,Vancouver,WA,Clark,98668, , , , ,53011,"605 E. Evergreen Boulevard, Vancouver, WA 98668",45.6282129,-122.6655449
Dearborn Police Department,Local police department,198, , , , , ,16099 Michigan Ave, , ,Dearborn,MI,Wayne,48126, , , , ,26163,"16099 Michigan Ave, Dearborn, MI 48126",42.3133107,-83.20014809999999
Brockton Police Department,Local police department,197, , , , , ,7 Commercial St, , ,Brockton,MA,Plymouth,2302, , , , ,25023,"7 Commercial St, Brockton, MA 2302",42.0848777,-71.0162175
North Carolina DMV Enforcement,Special jurisdiction,197, , , , , ,1100 New Bern Ave., , ,Raleigh,NC,Wake,27697, , , , ,37183,"1100 New Bern Ave., Raleigh, NC 27697",35.7785584,-78.6225844
Houston I.S.D. Police Dept.,Special jurisdiction,197, , , , , ,3500 TAMPA STREET, , ,Houston,TX,Harris,77021, , , , ,48201,"3500 TAMPA STREET, Houston, TX 77021",29.7037113,-95.3656176
Cedar Rapids Police Department,Local police department,197, , , , , ,505 1St St Sw, , ,Cedar Rapids,IA,Linn,52404, , , , ,19113,"505 1St St Sw, Cedar Rapids, IA 52404",41.9723424,-91.6697293
Irvine Police Department,Local police department,197, , , , , ,101 Chestnut Street, , ,Irvine,CA,Orange,92606, , , , ,6059,"101 Chestnut Street, Irvine, CA 92606",33.6912614,-117.8223506
Oklahoma County Sheriff's Office,Sheriff's office,196, , , , , ,201 N Shartel Ave, , ,Oklahoma City,OK,Oklahoma,73102, , , , ,40109,"201 N Shartel Ave, Oklahoma City, OK 73102",35.4696416,-97.5267827
Racine Police Department,Local police department,195, , , , , ,405 Main Street,P.O. Box 399, ,Racine,WI,Racine,53403, , , , ,55101,"405 Main Street, Racine, WI 53403",42.7291665,-87.7829048
Michigan Department of Natural Resources,Special jurisdiction,195, , , , , ,Law Enforcement Division,PO Box 30031, ,Lansing,MI,Ingham,48909, , , , ,26065,"Law Enforcement Division, Lansing, MI 48909",42.7326272,-84.5592602
Pueblo Police Dept,Local police department,195, , , , , ,130 Central Main St., , ,Pueblo,CO,Pueblo,81003, , , , ,8101,"130 Central Main St., Pueblo, CO 81003",38.265888,-104.6093682
Gulfport Police Department,Local police department,193, , , , , ,Post Office Drawer S, , ,Gulfport,MS,Harrison,39502, , , , ,28047,"Post Office Drawer S, Gulfport, MS 39502",30.3669872,-89.09216119999999
Passaic Police,Local police department,193, , , , , ,330 Passaic Street, , ,Passaic,NJ,Passaic,7055, , , , ,34031,"330 Passaic Street, Passaic, NJ 7055",40.8607916,-74.1232035
Kenosha Police Department,Local police department,192, , , , , ,1000 55Th Street, , ,Kenosha,WI,Kenosha,53140, , , , ,55059,"1000 55Th Street, Kenosha, WI 53140",42.5856494,-87.82411859999999
BART Police Department,Special jurisdiction,192, , , , , ,P.O. Box 12500, , ,Oakland,CA,Alameda,94504, , , , ,6001,"P.O. Box 12500, Oakland, CA 94504",37.8043514,-122.2711639
Florence County Sheriff's Office,Sheriff's office,192, , , , , ,Po Box 678, , ,Effingham,SC,Florence,29541, , , , ,45041,"Po Box 678, Effingham, SC 29541",34.0575712,-79.75341159999999
Anderson County Sheriff's Office,Sheriff's office,191, , , , , ,141 S Main St, , ,Anderson,SC,Anderson,29625, , , , ,45007,"141 S Main St, Anderson, SC 29625",34.5031186,-82.6492222
Pennsylvania Game Commission - Law Enforcement,Special jurisdiction,191, , , , , ,2001 Elmerton Ave, , ,Harrisburg,PA,Dauphin,17110, , , , ,42043,"2001 Elmerton Ave, Harrisburg, PA 17110",40.2948084,-76.8547083
Irvington Police,Local police department,190, , , , , ,1 Civic Square, , ,Irvington,NJ,Essex,7111, , , , ,34013,"1 Civic Square, Irvington, NJ 7111",40.7269224,-74.23411899999999
Killeen Police Department,Local police department,190, , , , , ,402 N. 2Nd Street, , ,Killeen,TX,Bell,76541, , , , ,48027,"402 N. 2Nd Street, Killeen, TX 76541",31.1216937,-97.7295669
Miami Gardens Police Department,Local police department,190, , , , , ,1515 NW 167th St., , ,Miami Gardens,FL,Miami-Dade,33169, , , , ,12086,"1515 NW 167th St., Miami Gardens, FL 33169",25.9280355,-80.2269031
Santa Rosa County Sheriff's Office,Sheriff's office,190, , , , , ,Po Box 7129, , ,Milton,FL,Santa Rosa,32572, , , , ,12113,"Po Box 7129, Milton, FL 32572",30.63,-87.03999999999999
Newport News (City) Sheriff's Office,Sheriff's office,189, , , , , ,Po Box 57, , ,Newport News,VA,Newport News City,23607, , , , ,51700,"Po Box 57, Newport News, VA 23607",36.9995165,-76.4397512
Wisconsin Department of Natural Resources,Special jurisdiction,189, , , , , ,"101 S Webster, P.O. Box 7921",Bureau of Law Enforcement, ,Madison,WI,Dane,53707, , , , ,55025,"101 S Webster, P.O. Box 7921, Madison, WI 53707",43.0754009,-89.3802497
Monroe County Sheriff's Office,Sheriff's office,189, , , , , ,301 N College Ave,Justice Building, ,Key West,FL,Monroe,33040, , , , ,12087,"301 N College Ave, Key West, FL 33040",24.5550593,-81.7799871
Rutherford County Sheriff's Office,Sheriff's office,189, , , , , ,198 N Washington St, , ,Murfreesboro,TN,Rutherford,37129, , , , ,47149,"198 N Washington St, Murfreesboro, TN 37129",35.9173416,-86.4490926
St. Bernard Parish Sheriff's Office,Sheriff's office,189, , , , , ,8201 W Judge Perez Dr,Ste 210, ,Chalmette,LA,St. Bernard,70044, , , , ,22087,"8201 W Judge Perez Dr, Chalmette, LA 70044",29.9564016,-89.98281159999999
Peoria Police Department,Local police department,189, , , , , ,8351 W. Cinnabar Avenue, , ,Peoria,AZ,Maricopa,85345, , , , ,4013,"8351 W. Cinnabar Avenue, Peoria, AZ 85345",33.5747747,-112.2385345
Edison Police,Local police department,189, , , , , ,100 Municipal Boulevard, , ,Edison,NJ,Middlesex,8817, , , , ,34023,"100 Municipal Boulevard, Edison, NJ 8817",40.5273427,-74.3937286
Monroe Police Department,Local police department,188, , , , , ,818 W Main, , ,Monroe,LA,Ouachita,71210, , , , ,22073,"818 W Main, Monroe, LA 71210",32.5,-92.11
Cabarrus County Sheriff's Office,Sheriff's office,188, , , , , ,Po Box 525, , ,Concord,NC,Cabarrus,28026, , , , ,37025,"Po Box 525, Concord, NC 28026",35.4109398,-80.5777935
Lake County Sheriff's Office,Sheriff's office,188, , , , , ,513 CENTER STREET, , ,Waukegan,IL,Lake,60085, , , , ,17097,"513 CENTER STREET, Waukegan, IL 60085",42.3706094,-87.83679509999999
Boca Raton Police Department,Local police department,188, , , , , ,100 N.W. 2Nd Avenue, , ,Boca Raton,FL,Palm Beach,33432, , , , ,12099,"100 N.W. 2Nd Avenue, Boca Raton, FL 33432",26.3517728,-80.08897929999999
Mississippi Department of Transportation,Special jurisdiction,188, , , , , ,401 North West Street, , ,Jackson,MS,Hinds,39201, , , , ,28049,"401 North West Street, Jackson, MS 39201",32.3032213,-90.1841459
Salem Police Department,Local police department,187, , , , , ,5 Park Avenue, , ,Salem,OR,Marion,97301, , , , ,41047,"5 Park Avenue, Salem, OR 97301",44.9481364,-123.0007833
Inglewood Police Department,Local police department,187, , , , , ,One Manchester Blvd., , ,Inglewood,CA,Los Angeles,90301, , , , ,6037,"One Manchester Blvd., Inglewood, CA 90301",33.961645,-118.3595518
Berkeley Police Department,Local police department,186, , , , , ,5850 N Hanley Rd, , ,Berkeley,CA,Alameda,94704, , , , ,6001,"5850 N Hanley Rd, Berkeley, CA 94704",37.8715226,-122.273042
West Valley City Police Department,Local police department,186, , , , , ,3600 South Constitution Blvd, , ,West Valley City,UT,Salt Lake,84119, , , , ,49035,"3600 South Constitution Blvd, West Valley City, UT 84119",40.72477079999999,-111.9580857
Tyler Police Department,Local police department,185, , , , , ,711 West Ferguson St., , ,Tyler,TX,Smith,75702, , , , ,48423,"711 West Ferguson St., Tyler, TX 75702",32.352354,-95.3078977
New Rochelle Police Department,Local police department,185, , , , , ,475 North Avenue, , ,New Rochelle,NY,Westchester,10801, , , , ,36119,"475 North Avenue, New Rochelle, NY 10801",40.9190487,-73.7861348
North Little Rock Police Dept.,Local police department,185, , , , , ,200 Pershing Blvd, , ,North Little Rock,AR,Pulaski,72114, , , , ,5119,"200 Pershing Blvd, North Little Rock, AR 72114",34.7788306,-92.2689328
Hayward Police Department,Local police department,185, , , , , ,15889 West Third Street,P.O. Box 969, ,Hayward,CA,Alameda,94544, , , , ,6001,"15889 West Third Street, Hayward, CA 94544",37.6270256,-122.0496521
North Carolina Division of State Parks & Recreation,Special jurisdiction,185, , , , , ,1615 Msc, , ,Raleigh,NC,Wake,27699, , , , ,37183,"1615 Msc, Raleigh, NC 27699",35.67,-78.66
Fontana Police Department,Local police department,184, , , , , ,17005 Upland Avenue, , ,Fontana,CA,San Bernardino,92335, , , , ,6071,"17005 Upland Avenue, Fontana, CA 92335",34.1016369,-117.4337501
Naperville Police Dept,Local police department,184, , , , , ,1350 W. Aurora Avenue, , ,Naperville,IL,Du Page,60540, , , , ,17043,"1350 W. Aurora Avenue, Naperville, IL 60540",41.764229,-88.1763965
Coral Gables Police Department,Local police department,184, , , , , ,2801 Salzedo Street, , ,Coral Gables,FL,Miami-Dade,33134, , , , ,12086,"2801 Salzedo Street, Coral Gables, FL 33134",25.7459687,-80.26009839999999
Albany Police Department,Local police department,184, , , , , ,204 Water St., , ,Albany,GA,Dougherty,31702, , , , ,13095,"204 Water St., Albany, GA 31702",31.58,-84.16
St. Louis (city) Sheriff's Office,Sheriff's office,183, , , , , ,1114 Market St,#112, ,Saint Louis,MO,St. Louis City,63101, , , , ,29510,"1114 Market St, Saint Louis, MO 63101",38.6267613,-90.19765459999999
Arkansas Game And Fish - Enforcement Division,Special jurisdiction,183, , , , , ,#2 Nautral Resources Drive, , ,Little Rock,AR,Pulaski,72205, , , , ,5119,"#2 Nautral Resources Drive, Little Rock, AR 72205",34.7577241,-92.3879761
West Baton Rouge Parish Sheriff's Office,Sheriff's office,183, , , , , ,Po Box 129,850 8th St, ,Port Allen,LA,West Baton Rouge,70767, , , , ,22121,"Po Box 129, Port Allen, LA 70767",30.4474878,-91.20732609999999
Sullivan County Sheriff's Office,Sheriff's office,183, , , , , ,24 S State St, , ,Blountville,TN,Sullivan,37617, , , , ,47163,"24 S State St, Blountville, TN 37617",36.5331586,-82.32680599999999
Sarasota Police Department,Local police department,183, , , , , ,Post Office Box 3528, , ,Sarasota,FL,Sarasota,34230, , , , ,12115,"Post Office Box 3528, Sarasota, FL 34230",27.3350021,-82.537412
Pomona Police Department,Local police department,182, , , , , ,490 W. Mission Boulevard, , ,Pomona,CA,Los Angeles,91766, , , , ,6037,"490 W. Mission Boulevard, Pomona, CA 91766",34.0544968,-117.7539275
Fremont Police Department,Local police department,182, , , , , ,P.O. Box 1,425 Main Street, ,Fremont,CA,Alameda,94538, , , , ,6001,"P.O. Box 1, Fremont, CA 94538",37.5746413,-121.9788406
Bellevue Police Department,Local police department,182, , , , , ,450 110Th Ave Ne,PO BOX 90012, ,Bellevue,WA,King,98009, , , , ,53033,"450 110Th Ave Ne, Bellevue, WA 98009",47.6145544,-122.1926385
Youngstown Police Department,Local police department,182, , , , , ,116 West Boardman Street, , ,Youngstown,OH,Mahoning,44503, , , , ,39099,"116 West Boardman Street, Youngstown, OH 44503",41.10009669999999,-80.6516371
Charleston Police Department,Local police department,182, , , , , ,Post Office Box 420, , ,Charleston,WV,Kanawha,25330, , , , ,54039,"Post Office Box 420, Charleston, WV 25330",38.35,-81.63
Hamilton Police,Local police department,182, , , , , ,1270 Whitehorse-Mercerville Road, , ,Hamilton,NJ,Mercer,8619, , , , ,34021,"1270 Whitehorse-Mercerville Road, Hamilton, NJ 8619",40.2111328,-74.6940917
Elgin Police Dept,Local police department,181, , , , , ,Box 240, , ,Elgin,IL,Kane,60120, , , , ,17089,"Box 240, Elgin, IL 60120",42.03528559999999,-88.25585249999999
Plantation Police Department,Local police department,180, , , , , ,451 Northwest 70Th Terrace, , ,Plantation,FL,Broward,33317, , , , ,12011,"451 Northwest 70Th Terrace, Plantation, FL 33317",26.127722,-80.2430328
Green Bay Police Department,Local police department,179, , , , , ,307 South Adams Street, , ,Green Bay,WI,Brown,54301, , , , ,55009,"307 South Adams Street, Green Bay, WI 54301",44.5111595,-88.01592269999999
Utica Police Department,Local police department,179, , , , , ,413 Oriskany Street West, , ,Utica,NY,Oneida,13502, , , , ,36065,"413 Oriskany Street West, Utica, NY 13502",43.1040437,-75.23345789999999
Eugene Police Department,Local police department,179, , , , , ,Training Section-1705 W. 2Nd Ave, , ,Eugene,OR,Lane,97402, , , , ,41039,"Training Section-1705 W. 2Nd Ave, Eugene, OR 97402",44.0579483,-123.1188132
El Dorado County Sheriff's Office,Sheriff's office,179, , , , , ,300 Fair Ln, , ,Placerville,CA,El Dorado,95667, , , , ,6017,"300 Fair Ln, Placerville, CA 95667",38.7267413,-120.8269104
Corona Police Department,Local police department,179, , , , , ,849 W. Sixth Street, , ,Corona,CA,Riverside,92882, , , , ,6065,"849 W. Sixth Street, Corona, CA 92882",33.8768376,-117.5765336
Santa Rosa Police Department,Local police department,179, , , , , ,P. O. Box 326, , ,Santa Rosa,CA,Sonoma,95404, , , , ,6097,"P. O. Box 326, Santa Rosa, CA 95404",38.5386881,-122.695547
Harris County Metropolitan Transit Authority Police Dept.,Special jurisdiction,179, , , , , ,810 N. San Jacinto, , ,Houston,TX,Harris,77002, , , , ,48201,"810 N. San Jacinto, Houston, TX 77002",29.7658745,-95.3565491
Myrtle Beach Police Department,Local police department,179, , , , , ,1101 Oak Street, , ,Myrtle Beach,SC,Horry,29577, , , , ,45051,"1101 Oak Street, Myrtle Beach, SC 29577",33.6977914,-78.88203969999999
Bossier City Police Dept,Local police department,178, , , , , ,Po Box 6216, , ,Bossier City,LA,Bossier,71171, , , , ,22015,"Po Box 6216, Bossier City, LA 71171",32.5170024,-93.71683709999999
Lynn Police Department,Local police department,178, , , , , ,300 Washington St, , ,Lynn,MA,Essex,1902, , , , ,25009,"300 Washington St, Lynn, MA 1902",42.4656234,-70.94881889999999
Greenville Police Department,Local police department,178, , , , , ,Po Box 1109, , ,Greenville,SC,Greenville,29601, , , , ,45045,"Po Box 1109, Greenville, SC 29601",34.8505552,-82.39399999999999
Kansas Dept of Wildlife & Parks,Special jurisdiction,178, , , , , ,512 Se 25Th Ave, , ,Pratt,KS,Pratt,67124, , , , ,20151,"512 Se 25Th Ave, Pratt, KS 67124",37.632011,-98.6926802
Westminster Police Dept,Local police department,178, , , , , ,9110 Yates Street, , ,Westminster,CO,Adams,80031, , , , ,8001,"9110 Yates Street, Westminster, CO 80031",39.8615517,-105.0485268
Warwick Police Department,Local police department,177, , , , , ,99 Veterans Memorial Drive, , ,Warwick,RI,Kent,2886, , , , ,44003,"99 Veterans Memorial Drive, Warwick, RI 2886",41.7031388,-71.45856169999999
Wichita Falls Police Department,Local police department,177, , , , , ,610 Holliday, , ,Wichita Falls,TX,Wichita,76301, , , , ,48485,"610 Holliday, Wichita Falls, TX 76301",33.9079667,-98.5025584
Salinas Police Department,Local police department,177, , , , , ,222 Lincoln Avenue, , ,Salinas,CA,Monterey,93901, , , , ,6053,"222 Lincoln Avenue, Salinas, CA 93901",36.6744065,-121.6574758
Frederick County Sheriff's Office,Sheriff's office,177, , , , , ,Frederick County Sheriff'S Office,1080 Coverstone Dr, ,Frederick,MD,Frederick,21701, , , , ,24021,"Frederick County Sheriff'S Office, Frederick, MD 21701",39.4076788,-77.37558039999999
Blount County Sheriff's Office,Sheriff's office,176, , , , , ,225 Industrial Park Rd, , ,Maryville,TN,Blount,37804, , , , ,47009,"225 Industrial Park Rd, Maryville, TN 37804",35.7830899,-83.91089680000002
Union County Sheriff's Office,Sheriff's office,176, , , , , ,250 American Rd, , ,Elizabeth,NJ,Union,7207, , , , ,34039,"250 American Rd, Elizabeth, NJ 7207",40.6697924,-74.2158541
Palm Beach County School District Police,Special jurisdiction,176, , , , , ,3330 Forest Hill Blvd. Suite 127-B, , ,West Palm Beach,FL,Palm Beach,33406, , , , ,12099,"3330 Forest Hill Blvd. Suite 127-B, West Palm Beach, FL 33406",26.6492914,-80.09370609999999
Greenville Police Department,Local police department,175, , , , , ,Po Box 1109, , ,Greenville,NC,Pitt,27835, , , , ,37147,"Po Box 1109, Greenville, NC 27835",35.61,-77.36999999999999
Paulding County Sheriff's Office,Sheriff's office,175, , , , , ,500 E Perry St, , ,Dallas,GA,Paulding,30132, , , , ,13223,"500 E Perry St, Dallas, GA 30132",33.9244531,-84.8413056
Sunrise Police Department,Local police department,175, , , , , ,777 Sawgrass Corporate Parkway, , ,Sunrise,FL,Broward,33323, , , , ,12011,"777 Sawgrass Corporate Parkway, Sunrise, FL 33323",26.1317028,-80.3338519
Boulder County Sheriff's Office,Sheriff's office,174, , , , , ,1777 6Th St, , ,Boulder,CO,Boulder,80302, , , , ,8013,"1777 6Th St, Boulder, CO 80302",40.0143562,-105.2887003
Sterling Heights Police Department,Local police department,172, , , , , ,40333 Dodge Park Rd, , ,Sterling Heights,MI,Macomb,48313, , , , ,26099,"40333 Dodge Park Rd, Sterling Heights, MI 48313",42.5910801,-83.01257439999999
Lane County Sheriff's Office,Sheriff's office,172, , , , , ,Po Box 478, , ,Eugene,OR,Lane,97401, , , , ,41039,"Po Box 478, Eugene, OR 97401",44.0637173,-123.0847061
Canton Police Department,Local police department,172, , , , , ,P.O. Box 382, , ,Canton,OH,Stark,44702, , , , ,39151,"P.O. Box 382, Canton, OH 44702",40.7988285,-81.3770606
Alexandria (City) Sheriff's Office,Sheriff's office,172, , , , , ,2003 Mill Road, , ,Alexandria,VA,Alexandria City,22314, , , , ,51510,"2003 Mill Road, Alexandria, VA 22314",38.7981298,-77.0646677
Bartow County Sheriff's Office,Sheriff's office,172, , , , , ,104 Zena Dr,PO Box 476, ,Cartersville,GA,Bartow,30121, , , , ,13015,"104 Zena Dr, Cartersville, GA 30121",34.1911781,-84.7774105
Plymouth County Sheriff's Office,Sheriff's office,172, , , , , ,451 14Th Ave Ne, , ,Plymouth,MA,Plymouth,2360, , , , ,25023,"451 14Th Ave Ne, Plymouth, MA 2360",41.9584457,-70.6672621
Sedgwick County Sheriff's Office,Sheriff's office,172, , , , , ,315 Cedar St,Courthouse, ,Wichita,KS,Sedgwick,67203, , , , ,20173,"315 Cedar St, Wichita, KS 67203",37.7006858,-97.36786239999999
Nashua Police Department,Local police department,172, , , , , ,Po Box 38, , ,Nashua,NH,Hillsborough,3061, , , , ,33011,"Po Box 38, Nashua, NH 3061",42.75931689999999,-71.4628117
Suffolk Police Department,Local police department,171, , , , , ,120 Henley Place, , ,Suffolk,VA,Suffolk,23434, , , , ,51800,"120 Henley Place, Suffolk, VA 23434",36.7300286,-76.589788
Miramar Police Department,Local police department,171, , , , , ,3064 North Commerce Parkway, , ,Miramar,FL,Broward,33025, , , , ,12011,"3064 North Commerce Parkway, Miramar, FL 33025",25.9812826,-80.2827417
Clarkstown Town Police Department,Local police department,170, , , , , ,20 Maple Avenue, , ,New City,NY,Rockland,10956, , , , ,36087,"20 Maple Avenue, New City, NY 10956",41.1604286,-73.99475629999999
Middlesex County Sheriff's Department,Sheriff's office,170, , , , , ,P. O. Box 1188,701 Livingston Avenue, ,New Brunswick,NJ,Middlesex,8903, , , , ,34023,"P. O. Box 1188, New Brunswick, NJ 8903",40.4862157,-74.4518188
Rockdale County Sheriff's Office,Sheriff's office,170, , , , , ,911 Chambers Dr Nw, , ,Conyers,GA,Rockdale,30012, , , , ,13247,"911 Chambers Dr Nw, Conyers, GA 30012",33.6866407,-84.0573503
Mobile County Sheriff's Office,Sheriff's office,170, , , , , ,Po Box 113, , ,Mobile,AL,Mobile,36601, , , , ,1097,"Po Box 113, Mobile, AL 36601",30.69595,-88.04373
California Dept. of Alcoholic Beverage Control,Special jurisdiction,170, , , , , ,3927 Lennane Dr,Ste 100, ,Sacramento,CA,Sacramento,95834, , , , ,6067,"3927 Lennane Dr, Sacramento, CA 95834",38.64071560000001,-121.4928353
Fort Myers Police Department,Local police department,170, , , , , ,2210 Widman Way, , ,Fort Myers,FL,Lee,33901, , , , ,12071,"2210 Widman Way, Fort Myers, FL 33901",26.6394988,-81.8682309
Lake County Sheriff's Office,Sheriff's office,170, , , , , ,513 CENTER STREET, , ,Crown Point,IN,Lake,46307, , , , ,18089,"513 CENTER STREET, Crown Point, IN 46307",41.4137117,-87.35658629999999
Union County Sheriff's Office,Sheriff's office,170, , , , , ,250 American Rd, , ,Monroe,NC,Union,28112, , , , ,37179,"250 American Rd, Monroe, NC 28112",34.9102669,-80.5216184
Rhode Island State Sheriff's Department,Special jurisdiction,169, , , , , ,670 New London Avenue, , ,Cranston,RI,Providence,2920, , , , ,44007,"670 New London Avenue, Cranston, RI 2920",41.7481111,-71.46734599999999
Durham County Sheriff's Office,Sheriff's office,168, , , , , ,Po Box 170, , ,Durham,NC,Durham,27702, , , , ,37063,"Po Box 170, Durham, NC 27702",35.98999999999999,-78.89999999999999
New York City Department of Environmental Protection Police,Special jurisdiction,168, , , , , ,2 Walker Rd, , ,Valhalla,NY,Westchester,10595, , , , ,36119,"2 Walker Rd, Valhalla, NY 10595",41.0767808,-73.8125123
Erie Police Department,Local police department,167, , , , , ,626 State Street, , ,Erie,PA,Erie,16501, , , , ,42049,"626 State Street, Erie, PA 16501",42.1286145,-80.0853868
Orange Police Department,Local police department,167, , , , , ,1107 N. Batavia Street, , ,Orange,CA,Orange,92667, , , , ,6059,"1107 N. Batavia Street, Orange, CA 92667",33.8065105,-117.8610741
Alexandria Police Department,Local police department,167, , , , , ,8236 W. Main St., , ,Alexandria,LA,Rapides,71301, , , , ,22079,"8236 W. Main St., Alexandria, LA 71301",31.3080674,-92.43957
Las Cruces Police Department,Local police department,167, , , , , ,P.O. Box 20000, , ,Las Cruces,NM,Dona Ana,88004, , , , ,35013,"P.O. Box 20000, Las Cruces, NM 88004",32.3199396,-106.7636538
Yuma Police Department,Local police department,167, , , , , ,1500 So. First Avenue, , ,Yuma,AZ,Yuma,85364, , , , ,4027,"1500 So. First Avenue, Yuma, AZ 85364",32.6992242,-114.6207829
Norwalk Police Department,Local police department,167, , , , , ,37 North Linwood Avenue, , ,Norwalk,CT,Fairfield,6854, , , , ,9001,"37 North Linwood Avenue, Norwalk, CT 6854",41.11774399999999,-73.4081575
Schenectady Police Department,Local police department,166, , , , , ,531 Liberty Street, , ,Schenectady,NY,Schenectady,12305, , , , ,36093,"531 Liberty Street, Schenectady, NY 12305",42.8145873,-73.9369924
Gastonia Police Department,Local police department,166, , , , , ,Po Box 1748, , ,Gastonia,NC,Gaston,28053, , , , ,37071,"Po Box 1748, Gastonia, NC 28053",35.2637147,-81.185756
Abilene Police Department,Local police department,166, , , , , ,P. O. Box 174,450 PECAN STREET, ,Abilene,TX,Taylor,79604, , , , ,48441,"P. O. Box 174, Abilene, TX 79604",32.4520305,-99.73229049999999
Garden Grove Police Department,Local police department,166, , , , , ,11301 Acacia Parkway, , ,Garden Grove,CA,Orange,92640, , , , ,6059,"11301 Acacia Parkway, Garden Grove, CA 92640",33.7763715,-117.9357469
Decatur Police Dept,Local police department,166, , , , , ,P.O. Box 66, , ,Decatur,IL,Macon,62523, , , , ,17115,"P.O. Box 66, Decatur, IL 62523",39.8441959,-88.9521595
Davenport Police Department,Local police department,166, , , , , ,P. O. Box 279, , ,Davenport,IA,Scott,52801, , , , ,19163,"P. O. Box 279, Davenport, IA 52801",41.521107,-90.57188839999999
Longview Police Department,Local police department,165, , , , , ,P. O. Box 1952, , ,Longview,TX,Gregg,75606, , , , ,48183,"P. O. Box 1952, Longview, TX 75606",32.462314,-94.730502
Union City Police,Local police department,165, , , , , ,3715 Palisade Avenue, , ,Union City,NJ,Hudson,7087, , , , ,34017,"3715 Palisade Avenue, Union City, NJ 7087",40.7738902,-74.0249171
Lawton Police Department,Local police department,165, , , , , ,125 S Main St,PO Box 117, ,Lawton,OK,Comanche,73501, , , , ,40031,"125 S Main St, Lawton, OK 73501",34.5927278,-98.3582755
Richmond Police Department,Local police department,165, , , , , ,207 Summit Street, , ,Richmond,CA,Contra Costa,94804, , , , ,6013,"207 Summit Street, Richmond, CA 94804",37.9271568,-122.3885767
Walton County Sheriff's Office,Sheriff's office,165, , , , , ,1425 S Madison Ave, , ,Defuniak Springs,FL,Walton,32433, , , , ,12131,"1425 S Madison Ave, Defuniak Springs, FL 32433",30.7607992,-86.3089921
Boynton Beach Police Department,Local police department,165, , , , , ,100 E. Boynton Beach Blvd., , ,Boynton Beach,FL,Palm Beach,33435, , , , ,12099,"100 E. Boynton Beach Blvd., Boynton Beach, FL 33435",26.5284115,-80.0631145
Boulder Police Department,Local police department,165, , , , , ,P O Box 791, , ,Boulder,CO,Boulder,80306, , , , ,8013,"P O Box 791, Boulder, CO 80306",40.0177203,-105.2757897
Lynchburg Police Department,Local police department,164, , , , , ,P.O. Box 620,440 N. Main Street, ,Lynchburg,VA,Lynchburg City,24505, , , , ,51680,"P.O. Box 620, Lynchburg, VA 24505",37.4099999,-79.14
Collin County Sheriff's Office,Sheriff's office,164, , , , , ,4300 Community Ave., , ,Mckinney,TX,Collin,75071, , , , ,48085,"4300 Community Ave., Mckinney, TX 75071",33.2452154,-96.6346681
Schenectady County Sheriff's Office,Sheriff's office,164, , , , , ,320 Veeder Ave, , ,Schenectady,NY,Schenectady,12307, , , , ,36093,"320 Veeder Ave, Schenectady, NY 12307",42.8102961,-73.9402546
Davie Police Department,Local police department,164, , , , , ,1230 South Nob Hill Road, , ,Davie,FL,Broward,33324, , , , ,12011,"1230 South Nob Hill Road, Davie, FL 33324",26.1051865,-80.2805525
Burbank Police Department,Local police department,164, , , , , ,200 N. Third St., , ,Burbank,CA,Los Angeles,91502, , , , ,6037,"200 N. Third St., Burbank, CA 91502",34.1831467,-118.3087397
Escondido Police Department,Local police department,163, , , , , ,700 W. Grand Avenue, , ,Escondido,CA,San Diego,92025, , , , ,6073,"700 W. Grand Avenue, Escondido, CA 92025",33.1177217,-117.0903596
Camden County Prosecutor's Chief,Special jurisdiction,163, , , , , ,25 North 5Th Street,3rd Floor, ,Camden,NJ,Camden,8102, , , , ,34007,"25 North 5Th Street, Camden, NJ 8102",39.9448458,-75.1216089
Melbourne Police Department,Local police department,163, , , , , ,650 North Apollo Boulevard, , ,Melbourne,FL,Brevard,32935, , , , ,12009,"650 North Apollo Boulevard, Melbourne, FL 32935",28.1171718,-80.6389013
Kenner Police Department,Local police department,162, , , , , ,500 Veterans Blvd., , ,Kenner,LA,Jefferson,70062, , , , ,22051,"500 Veterans Blvd., Kenner, LA 70062",30.0057814,-90.2639848
Cary Police Department,Local police department,162, , , , , ,Po Box 8005, , ,Cary,NC,Wake,27512, , , , ,37183,"Po Box 8005, Cary, NC 27512",35.76,-78.78999999999999
Fort Collins Police Department,Local police department,162, , , , , ,2221 Timberline Road, , ,Fort Collins,CO,Larimer,80521, , , , ,8069,"2221 Timberline Road, Fort Collins, CO 80521",40.5572264,-105.0402015
Lancaster Police Department,Local police department,161, , , , , ,25 Main Street, , ,Lancaster,PA,Lancaster,17603, , , , ,42071,"25 Main Street, Lancaster, PA 17603",40.0144597,-76.3289941
Olathe Police Department,Local police department,161, , , , , ,Po Box 768, , ,Olathe,KS,Johnson,66061, , , , ,20091,"Po Box 768, Olathe, KS 66061",38.9071042,-94.8728093
Galveston Police Department,Local police department,161, , , , , ,P.O. Box 17251, , ,Galveston,TX,Galveston,77552, , , , ,48167,"P.O. Box 17251, Galveston, TX 77552",29.2895189,-94.83251899999999
Concord Police Department,Local police department,161, , , , , ,Po Box 308, , ,Concord,CA,Contra Costa,94520, , , , ,6013,"Po Box 308, Concord, CA 94520",38.0349026,-122.026918
Randolph County Sheriff's Office,Sheriff's office,161, , , , , ,372 Highway Jj, , ,Asheboro,NC,Randolph,27205, , , , ,37151,"372 Highway Jj, Asheboro, NC 27205",35.68935099999999,-79.8119372
Arvada Police Department,Local police department,161, , , , , ,P O Box 8101, , ,Arvada,CO,Jefferson,80002, , , , ,8059,"P O Box 8101, Arvada, CO 80002",39.7907566,-105.0849687
Thornton Police Dept,Local police department,161, , , , , ,700 Park, , ,Thornton,CO,Adams,80229, , , , ,8001,"700 Park, Thornton, CO 80229",39.8580556,-104.9564084
Camden County Sheriff's Office,Sheriff's office,160, , , , , ,"Courthouse, Rm. 100, 520 Market St", , ,Camden,NJ,Camden,8102, , , , ,34007,"Courthouse, Rm. 100, 520 Market St, Camden, NJ 8102",39.94545979999999,-75.1208506
Toms River Police,Local police department,160, , , , , ,255 Oak Drive, , ,Toms River,NJ,Ocean,8753, , , , ,34029,"255 Oak Drive, Toms River, NJ 8753",39.987268,-74.1845622
Ann Arbor Police Department,Local police department,160, , , , , ,100 North Fifth Ave, , ,Ann Arbor,MI,Washtenaw,48104, , , , ,26161,"100 North Fifth Ave, Ann Arbor, MI 48104",42.281758,-83.745373
Portsmouth (City) Sheriff's Office,Sheriff's office,160, , , , , ,701 Crawford St, , ,Portsmouth,VA,Portsmouth City,23704, , , , ,51740,"701 Crawford St, Portsmouth, VA 23704",36.8337424,-76.29710109999999
Essex County Prosecutor's Chief,Special jurisdiction,160, , , , , ,Essex County Courts Building,50 West Market Street, ,Newark,NJ,Essex,7102, , , , ,34013,"Essex County Courts Building, Newark, NJ 7102",40.7317775,-74.1726312
New Britain Police Department,Local police department,160, , , , , ,125 Columbus Boulevard, , ,New Britain,CT,Hartford,6051, , , , ,9003,"125 Columbus Boulevard, New Britain, CT 6051",41.6673456,-72.777571
Virginia Department Game and Inland Fisheries,Special jurisdiction,160, , , , , ,4010 W. Broad, , ,Richmond,VA,Richmond City,23230, , , , ,51760,"4010 W. Broad, Richmond, VA 23230",37.572462,-77.4817589
Fullerton Police Department,Local police department,159, , , , , ,237 W. Commonwealth Avenue, , ,Fullerton,CA,Orange,92832, , , , ,6059,"237 W. Commonwealth Avenue, Fullerton, CA 92832",33.8706603,-117.9281039
Carrollton Police Department,Local police department,159, , , , , ,206 W. Washington Ave, , ,Carrollton,TX,Dallas,75006, , , , ,48113,"206 W. Washington Ave, Carrollton, TX 75006",32.9678449,-96.8887202
Avoyelles Parish Sheriff's Office,Sheriff's office,159, , , , , ,675 Government St, , ,Marksville,LA,Avoyelles,71351, , , , ,22009,"675 Government St, Marksville, LA 71351",31.1168186,-92.06735270000001
Portland Police Department,Local police department,159, , , , , ,773 E Grand River Ave, , ,Portland,ME,Cumberland,4101, , , , ,23005,"773 E Grand River Ave, Portland, ME 4101",43.6590993,-70.2568189
Palm Bay Police Department,Local police department,159, , , , , ,130 Malabar Road Southeast, , ,Palm Bay,FL,Brevard,32907, , , , ,12009,"130 Malabar Road Southeast, Palm Bay, FL 32907",27.9977041,-80.66940810000001
Iredell County Sheriff's Office,Sheriff's office,159, , , , , ,Po Box 287, , ,Statesville,NC,Iredell,28687, , , , ,37097,"Po Box 287, Statesville, NC 28687",35.78,-80.89
Evanston Police Dept,Local police department,159, , , , , ,1454 Elmwood, , ,Evanston,IL,Cook,60201, , , , ,17031,"1454 Elmwood, Evanston, IL 60201",42.0444959,-87.68380979999999
Norfolk County Sheriff's Office,Sheriff's office,158, , , , , ,200 West St, , ,Dedham,MA,Norfolk,2026, , , , ,25021,"200 West St, Dedham, MA 2026",42.260328,-71.2085658
Clifton Police,Local police department,158, , , , , ,900 Clifton Avenue, , ,Clifton,NJ,Passaic,7013, , , , ,34031,"900 Clifton Avenue, Clifton, NJ 7013",40.8678759,-74.1623133
Fort Smith Police Department,Local police department,158, , , , , ,100 South 10Th Street, , ,Fort Smith,AR,Sebastian,72901, , , , ,5131,"100 South 10Th Street, Fort Smith, AR 72901",35.3827782,-94.4237979
Costa Mesa Police Department,Local police department,158, , , , , ,99 Fair Drive, , ,Costa Mesa,CA,Orange,92628, , , , ,6059,"99 Fair Drive, Costa Mesa, CA 92628",33.6633845,-117.9042152
Hoover Police Department,Local police department,158, , , , , ,100 Municipal Drive, , ,Hoover,AL,Jefferson,35216, , , , ,1073,"100 Municipal Drive, Hoover, AL 35216",33.382782,-86.7638939
York County Sheriff's Office,Sheriff's office,157, , , , , ,1675-2A York Hwy, , ,York,SC,York,29745, , , , ,45091,"1675-2A York Hwy, York, SC 29745",34.9828857,-81.1962998
Clark County School District Police Dept,Special jurisdiction,157, , , , , ,120 Corporate Park Drive, , ,Henderson,NV,Clark,89074, , , , ,32003,"120 Corporate Park Drive, Henderson, NV 89074",36.0370713,-115.0333178
Salem County Sheriff's Office,Sheriff's office,157, , , , , ,94 Market St, , ,Salem,NJ,Salem,8079, , , , ,34033,"94 Market St, Salem, NJ 8079",39.5725638,-75.46652209999999
Vineland Police,Local police department,157, , , , , ,111 North 6Th Street, , ,Vineland,NJ,Cumberland,8360, , , , ,34011,"111 North 6Th Street, Vineland, NJ 8360",39.4875949,-75.0229729
Berkshire County Sheriff's Office,Sheriff's office,157, , , , , ,467 Cheshire Rd, , ,Pittsfield,MA,Berkshire,1201, , , , ,25003,"467 Cheshire Rd, Pittsfield, MA 1201",42.4874196,-73.2022237
Hoboken Police,Local police department,156, , , , , ,106 Hudson Street, , ,Hoboken,NJ,Hudson,7030, , , , ,34017,"106 Hudson Street, Hoboken, NJ 7030",40.7377218,-74.0300583
Dallas Area Rapid Transit Police,Special jurisdiction,156, , , , , ,"1333 N. Stemmons Freeway, Suite 105", , ,Dallas,TX,Dallas,75257, , , , ,48113,"1333 N. Stemmons Freeway, Suite 105, Dallas, TX 75257",32.7918845,-96.8153313
Hampton (City) Sheriff's Office,Sheriff's office,156, , , , , ,1928 W Pembroke Ave, , ,Hampton,VA,Hampton City,23661, , , , ,51650,"1928 W Pembroke Ave, Hampton, VA 23661",37.0102914,-76.39043819999999
San Luis Obispo County Sheriff's Office,Sheriff's office,156, , , , , ,Po Box 32, , ,San Luis Obispo,CA,San Luis Obispo,93406, , , , ,6079,"Po Box 32, San Luis Obispo, CA 93406",35.3095379,-120.6645779
Spotsylvania County Sheriff's Office,Sheriff's office,156, , , , , ,Po Box 124, , ,Spotsylvania,VA,Spotsylvania,22553, , , , ,51177,"Po Box 124, Spotsylvania, VA 22553",38.1979096,-77.58776519999999
Pueblo County Sheriff's Office,Sheriff's office,155, , , , , ,909 Court St, , ,Pueblo,CO,Pueblo,81003, , , , ,8101,"909 Court St, Pueblo, CO 81003",38.2755508,-104.6106231
Waukegan Police Dept,Local police department,155, , , , , ,420 Robert V Sabonjian Place, , ,Waukegan,IL,Lake,60085, , , , ,17097,"420 Robert V Sabonjian Place, Waukegan, IL 60085",42.3612504,-87.83509749999999
Harrisburg Police Department,Local police department,155, , , , , ,123 Walnut Street, , ,Harrisburg,PA,Dauphin,17101, , , , ,42043,"123 Walnut Street, Harrisburg, PA 17101",40.2600382,-76.88358180000002
Scranton Police Department,Local police department,155, , , , , ,Po Box 143, , ,Scranton,PA,Lackawanna,18503, , , , ,42069,"Po Box 143, Scranton, PA 18503",41.4108493,-75.6659016
Denton Police Department,Local police department,155, , , , , ,Po Box 1099, , ,Denton,TX,Denton,76205, , , , ,48121,"Po Box 1099, Denton, TX 76205",33.1837961,-97.1305536
McKinney Police Department,Local police department,155, , , , , ,2200 Taylor-Burk, , ,McKinney,TX,Collin,75071, , , , ,48085,"2200 Taylor-Burk, McKinney, TX 75071",33.2241136,-96.6407689
Columbia Police Department,Local police department,155, , , , , ,Po Box 10, , ,Columbia,MO,Boone,65201, , , , ,29019,"Po Box 10, Columbia, MO 65201",38.9339202,-92.3167151
Ocala Police Department,Local police department,155, , , , , ,Post Office Box 1270, , ,Ocala,FL,Marion,34478, , , , ,12083,"Post Office Box 1270, Ocala, FL 34478",29.1832134,-82.1382132
St. Clair County Sheriff's Office,Sheriff's office,154, , , , , ,1170 Michigan Rd, , ,Belleville,IL,St. Clair,62220, , , , ,17163,"1170 Michigan Rd, Belleville, IL 62220",38.4744782,-89.99067339999999
Bethlehem Police Department,Local police department,154, , , , , ,Post Office Box 6339, , ,Bethlehem,PA,Northampton,18018, , , , ,42095,"Post Office Box 6339, Bethlehem, PA 18018",40.6238902,-75.3936808
Shasta County Sheriff's Office,Sheriff's office,154, , , , , ,1525 Court St, , ,Redding,CA,Shasta,96001, , , , ,6089,"1525 Court St, Redding, CA 96001",40.5828534,-122.3952295
Concord Police Department,Local police department,153, , , , , ,Po Box 308, , ,Concord,NC,Cabarrus,28026, , , , ,37025,"Po Box 308, Concord, NC 28026",35.4109398,-80.5777935
Midland Police Department,Local police department,153, , , , , ,601 North Loraine, , ,Midland,TX,Midland,79701, , , , ,48329,"601 North Loraine, Midland, TX 79701",32.0032301,-102.076125
Pawtucket Police Department,Local police department,153, , , , , ,121 Roosevelt Avenue, , ,Pawtucket,RI,Providence,2860, , , , ,44007,"121 Roosevelt Avenue, Pawtucket, RI 2860",41.8792567,-71.3820956
Lake Charles Police Department,Local police department,153, , , , , ,Po Box 1564, , ,Lake Charles,LA,Calcasieu,70602, , , , ,22019,"Po Box 1564, Lake Charles, LA 70602",30.2268519,-93.2132614
Amherst Town Police Department,Local police department,153, , , , , ,500 John James Audubon Parkway, , ,Amherst,NY,Erie,14228, , , , ,36029,"500 John James Audubon Parkway, Amherst, NY 14228",43.01765779999999,-78.7804463
St. Charles County Sheriff's Office,Sheriff's office,153, , , , , ,101 Crossing Industrial Court, , ,O Fallon,MO,St. Charles,63366, , , , ,29183,"101 Crossing Industrial Court, O Fallon, MO 63366",38.8060711,-90.7534714
Danbury Police Department,Local police department,153, , , , , ,Po Box 243,23 High Street, ,Danbury,CT,Fairfield,6810, , , , ,9001,"Po Box 243, Danbury, CT 6810",41.3755722,-73.45337789999999
Newton County Sheriff's Office,Sheriff's office,152, , , , , ,304 E Seymour St, , ,Covington,GA,Newton,30014, , , , ,13217,"304 E Seymour St, Covington, GA 30014",33.5937082,-83.8557361
Delray Beach Police Department,Local police department,152, , , , , ,300 West Atlantic Avenue, , ,Delray Beach,FL,Palm Beach,33444, , , , ,12099,"300 West Atlantic Avenue, Delray Beach, FL 33444",26.4609043,-80.07645360000001
South Dakota Highway Patrol,Primary state law enforcement agency,152, , , , , ,118 W. Capitol, , ,Pierre,SD,Hughes,57501, , , , ,46065,"118 W. Capitol, Pierre, SD 57501",44.3695882,-100.3522615
Lawrence Police Department,Local police department,151, , , , , ,90 Lowell St, , ,Lawrence,MA,Essex,1840, , , , ,25009,"90 Lowell St, Lawrence, MA 1840",42.7081838,-71.1651146
Allegheny County Sheriff's Office,Sheriff's office,151, , , , , ,436 Grant St,Room 111 Courthouse, ,Pittsburgh,PA,Allegheny,15219, , , , ,42003,"436 Grant St, Pittsburgh, PA 15219",40.4389964,-79.996889
Greenwich Police Department,Local police department,151, , , , , ,47 Main Street, , ,Greenwich,CT,Fairfield,6830, , , , ,9001,"47 Main Street, Greenwich, CT 6830",41.0670166,-73.6182979
Plainfield Police Department,Local police department,151, , , , , ,14300 S. Coil Plus Drive, , ,Plainfield,NJ,Union,7060, , , , ,34039,"14300 S. Coil Plus Drive, Plainfield, NJ 7060",40.6337136,-74.4073736
Richland Parish Sheriff's Office,Sheriff's office,150, , , , , ,708 Julia St, , ,Rayville,LA,Richland,71269, , , , ,22083,"708 Julia St, Rayville, LA 71269",32.4768394,-91.7591768
Duluth Police Department,Local police department,150, , , , , ,411 W. 1St Street,CITY HALL #104A, ,Duluth,MN,St. Louis,55802, , , , ,27137,"411 W. 1St Street, Duluth, MN 55802",46.7838421,-92.1053512
Santa Fe Police Department,Local police department,150, , , , , ,P.O. Box 950, , ,Santa Fe,NM,Santa Fe,87507, , , , ,35049,"P.O. Box 950, Santa Fe, NM 87507",35.6869752,-105.937799
Waltham Police Department,Local police department,150, , , , , ,155 Lexington St, , ,Waltham,MA,Middlesex,2154, , , , ,25017,"155 Lexington St, Waltham, MA 2154",42.3836379,-71.2343128
Hinds County Sheriff's Office,Sheriff's office,150, , , , , ,Po Box 1452, , ,Jackson,MS,Hinds,39215, , , , ,28049,"Po Box 1452, Jackson, MS 39215",32.3,-90.17999999999999
Waukesha County Sheriff's Office,Sheriff's office,150, , , , , ,515 W Moreland Blvd, , ,Waukesha,WI,Waukesha,53188, , , , ,55133,"515 W Moreland Blvd, Waukesha, WI 53188",43.0227067,-88.2301255
Southfield Police Department,Local police department,149, , , , , ,26000 Evergreen,PO Box 2055, ,Southfield,MI,Oakland,48037, , , , ,26125,"26000 Evergreen, Southfield, MI 48037",42.4840339,-83.2390585
Livonia Police Department,Local police department,149, , , , , ,Po Box 307, , ,Livonia,MI,Wayne,48154, , , , ,26163,"Po Box 307, Livonia, MI 48154",42.39398629999999,-83.3735966
Oklahoma State Bureau of Investigation,Special jurisdiction,149, , , , , ,6600 N. Harvey, , ,"Okla. City,",OK,Oklahoma,73116, , , , ,40109,"6600 N. Harvey, Okla. City,, OK 73116",35.5405521,-97.5182837
Kalamazoo County Sheriff's Office,Sheriff's office,149, , , , , ,1500 Lamont Ave, , ,Kalamazoo,MI,Kalamazoo,49048, , , , ,26077,"1500 Lamont Ave, Kalamazoo, MI 49048",42.2758285,-85.54907039999999
Santa Cruz County Sheriff's Office,Sheriff's office,149, , , , , ,1250 N Hohokam Dr,Box 1150, ,Santa Cruz,CA,Santa Cruz,95060, , , , ,6087,"1250 N Hohokam Dr, Santa Cruz, CA 95060",36.9741171,-122.0307963
Arkansas Highway Police,Special jurisdiction,149, , , , , ,PO Box 2779, , ,Little Rock,AR,Pulaski,72203, , , , ,5119,"PO Box 2779, Little Rock, AR 72203",34.7461459,-92.28785669999999
Cranston Police Department,Local police department,148, , , , , ,5 Garfield Avenue, , ,Cranston,RI,Providence,2920, , , , ,44007,"5 Garfield Avenue, Cranston, RI 2920",41.8024694,-71.44270809999999
Washington County Sheriff's Office,Sheriff's office,148, , , , , ,399 Broadway, , ,Fayetteville,AR,Washington,72701, , , , ,5143,"399 Broadway, Fayetteville, AR 72701",36.0626579,-94.16058389999999
Dothan Police Department,Local police department,148, , , , , ,210 North Saint Andrews Street, , ,Dothan,AL,Houston,36303, , , , ,1069,"210 North Saint Andrews Street, Dothan, AL 36303",31.2260062,-85.3906475
Stafford County Sheriff's Office,Sheriff's office,148, , , , , ,209 N Broadway St, , ,Stafford,VA,Stafford,22555, , , , ,51179,"209 N Broadway St, Stafford, VA 22555",38.42,-77.41
Wisconsin Department of Natural Resources - Parks and Recreation,Special jurisdiction,147, , , , , ,101 South Webster Street,P.O. Box 7921, ,Madison,WI,Dane,53707, , , , ,55025,"101 South Webster Street, Madison, WI 53707",43.0754009,-89.3802497
St. Mary Parish Sheriff's Office,Sheriff's office,147, , , , , ,500 Main St,PO Box 571, ,Franklin,LA,St. Mary,70538, , , , ,22101,"500 Main St, Franklin, LA 70538",29.7912491,-91.49946349999999
Johnson City Police Department,Local police department,146, , , , , ,P.O. Box 159, , ,Johnson City,TN,Washington,37605, , , , ,47179,"P.O. Box 159, Johnson City, TN 37605",36.31,-82.35
Cicero Police Dept,Local police department,146, , , , , ,4901 W Cermak Rd.,4901 W. Cermak Rd., ,Cicero,IL,Cook,60804, , , , ,17031,"4901 W Cermak Rd., Cicero, IL 60804",41.850886,-87.7478671
Racine County Sheriff's Office,Sheriff's office,146, , , , , ,717 Wisconsin Ave, , ,Racine,WI,Racine,53403, , , , ,55101,"717 Wisconsin Ave, Racine, WI 53403",42.724685,-87.7831988
Hamilton County Sheriff's Office,Sheriff's office,146, , , , , ,Po Box 764,103 West Ave C, ,Chattanooga,TN,Hamilton,37402, , , , ,47065,"Po Box 764, Chattanooga, TN 37402",35.0449767,-85.31620660000002
Greeley Police Department,Local police department,146, , , , , ,2875 W. 10Th Street, , ,Greeley,CO,Weld,80634, , , , ,8123,"2875 W. 10Th Street, Greeley, CO 80634",40.4235618,-104.7272573
Pensacola Police Department,Local police department,146, , , , , ,Post Office Box 1750, , ,Pensacola,FL,Escambia,32591, , , , ,12033,"Post Office Box 1750, Pensacola, FL 32591",30.42,-87.22
Cherry Hill Police,Local police department,145, , , , , ,P.O. Box 5002, , ,Cherry Hill,NJ,Camden,8034, , , , ,34007,"P.O. Box 5002, Cherry Hill, NJ 8034",39.9021937,-74.9968543
Niagara Falls Police Department,Local police department,145, , , , , ,520 Hyde Park Blvd,P.O. Box 69, ,Niagara Falls,NY,Niagara,14301, , , , ,36063,"520 Hyde Park Blvd, Niagara Falls, NY 14301",43.0927362,-79.02356429999999
Lowndes County Sheriff's Office,Sheriff's office,145, , , , , ,527 S Mlk Jr. Dr, , ,Valdosta,GA,Lowndes,31603, , , , ,13185,"527 S Mlk Jr. Dr, Valdosta, GA 31603",30.8286996,-83.2697781
El Monte Police Department,Local police department,145, , , , , ,11333 Valley Boulevard, , ,El Monte,CA,Los Angeles,91731, , , , ,6037,"11333 Valley Boulevard, El Monte, CA 91731",34.0715889,-118.0302756
Plaquemines Parish Sheriff's Office,Sheriff's office,145, , , , , ,302 Main St, , ,Belle Chasse,LA,Plaquemines,70037, , , , ,22075,"302 Main St, Belle Chasse, LA 70037",29.8572182,-89.9840179
Brown County Sheriff's Office,Sheriff's office,144, , , , , ,706 Utah St, , ,Green Bay,WI,Brown,54301, , , , ,55009,"706 Utah St, Green Bay, WI 54301",44.4812116,-88.01674059999999
Genesee County Sheriff's Office,Sheriff's office,144, , , , , ,165 Park Rd, , ,Flint,MI,Genesee,48502, , , , ,26049,"165 Park Rd, Flint, MI 48502",43.0142978,-83.6893547
Delaware River Port Authority - Transit Police,Special jurisdiction,144, , , , , ,Ben Franklin Bridge Admin Bldg,P.O. Box 1949, ,Camden,NJ,Camden,8101, , , , ,34007,"Ben Franklin Bridge Admin Bldg, Camden, NJ 8101",39.95287709999999,-75.1343815
Seminole Tribal Police Department,Local police department,144, , , , , ,3280 North 64Th Avenue, , ,Hollywood,FL,Broward,33024, , , , ,12011,"3280 North 64Th Avenue, Hollywood, FL 33024",26.039026,-80.2168737
Webb County Sheriff's Office,Sheriff's office,144, , , , , ,Po Box 29,902 Victoria St, ,Laredo,TX,Webb,78042, , , , ,48479,"Po Box 29, Laredo, TX 78042",27.5064542,-99.5084859
Jefferson County Sheriff's Office,Sheriff's office,143, , , , , ,16001 State Route 7, , ,Hillsboro,MO,Jefferson,63050, , , , ,29099,"16001 State Route 7, Hillsboro, MO 63050",38.2362744,-90.5610254
Yavapai County Sheriff's Office,Sheriff's office,143, , , , , ,255 E Gurley St, , ,Prescott,AZ,Yavapai,86301, , , , ,4025,"255 E Gurley St, Prescott, AZ 86301",34.5413831,-112.4664875
Rocky Mount Police Department,Local police department,143, , , , , ,Po Box 1180, , ,Rocky Mount,NC,Nash,27802, , , , ,37127,"Po Box 1180, Rocky Mount, NC 27802",35.9628234,-77.8529159
Fayette County Sheriff's Office,Sheriff's office,143, , , , , ,Po Box 509, , ,Fayetteville,GA,Fayette,30214, , , , ,13113,"Po Box 509, Fayetteville, GA 30214",33.473501,-84.5012435
Montgomery County Sheriff's Office,Sheriff's office,143, , , , , ,Po Box 432,200 Clark Dr, ,Rockville,MD,Montgomery,20850, , , , ,24031,"Po Box 432, Rockville, MD 20850",39.0839994,-77.1527813
San Angelo Police Department,Local police department,142, , , , , ,401 E Beauregard, , ,San Angelo,TX,Tom Green,76902, , , , ,48451,"401 E Beauregard, San Angelo, TX 76902",31.4637488,-100.4303135
Odessa Police Department,Local police department,142, , , , , ,205 N. Grant, , ,Odessa,TX,Ector,79761, , , , ,48135,"205 N. Grant, Odessa, TX 79761",31.8459008,-102.3689345
Baltimore City School Police Dept.,Special jurisdiction,142, , , , , ,200 E. North Avenue,Room 002, ,Baltimore,MD,Baltimore City,21202, , , , ,24510,"200 E. North Avenue, Baltimore, MD 21202",39.3119016,-76.6132013
Jefferson County Sheriff's Office,Sheriff's office,142, , , , , ,16001 State Route 7, , ,Beaumont,TX,Jefferson,77701, , , , ,48245,"16001 State Route 7, Beaumont, TX 77701",30.0887749,-94.1203406
Winnebago County Sheriff's Office,Sheriff's office,142, , , , , ,216 S Clark St,PO Box 66, ,Rockford,IL,Winnebago,61102, , , , ,17201,"216 S Clark St, Rockford, IL 61102",42.2133849,-89.1515476
Cuyahoga County Sheriff's Office,Sheriff's office,141, , , , , ,1215 W 3Rd St, , ,Cleveland,OH,Cuyahoga,44113, , , , ,39035,"1215 W 3Rd St, Cleveland, OH 44113",41.5016776,-81.69752629999999
Santa Clara Police Department,Local police department,141, , , , , ,601 El Camino Real, , ,Santa Clara,CA,Santa Clara,95050, , , , ,6085,"601 El Camino Real, Santa Clara, CA 95050",37.3537382,-121.938645
Kentucky Department of Fish & Wildlife,Special jurisdiction,140, , , , , ,#1 Sportsman Lane, , ,Frankfort,KY,Franklin,40601, , , , ,21073,"#1 Sportsman Lane, Frankfort, KY 40601",38.1739699,-84.9225184
Largo Police Department,Local police department,140, , , , , ,201 Highland Avenue, , ,Largo,FL,Pinellas,33770, , , , ,12103,"201 Highland Avenue, Largo, FL 33770",27.9193265,-82.77580239999999
Ocean County Sheriff's Office,Sheriff's office,140, , , , , ,Po Box 2191,120 Hooper Ave, ,Toms River,NJ,Ocean,8754, , , , ,34029,"Po Box 2191, Toms River, NJ 8754",39.9529325,-74.2008626
Illinois Department of Natural Resources,Special jurisdiction,140, , , , , ,1 Natural Resources Way, , ,Springfield,IL,Sangamon,62702, , , , ,17167,"1 Natural Resources Way, Springfield, IL 62702",39.8405032,-89.6465903
Maryland Transit Administration Police,Special jurisdiction,140, , , , , ,1040 Park Ave,Ste 306, ,Baltimore,MD,Baltimore City,21201, , , , ,24510,"1040 Park Ave, Baltimore, MD 21201",39.3035401,-76.6196831
Pine Bluff Police Department,Local police department,140, , , , , ,200 East 8Th Ave., , ,Pine Bluff,AR,Jefferson,71601, , , , ,5069,"200 East 8Th Ave., Pine Bluff, AR 71601",34.2205146,-92.0014593
Newport Beach Police Department,Local police department,140, , , , , ,870 Santa Barbara Drive, , ,Newport Beach,CA,Orange,92660, , , , ,6059,"870 Santa Barbara Drive, Newport Beach, CA 92660",33.6233866,-117.8806226
Lower Merion Township Police Dep,Local police department,139, , , , , ,71 E Lancaster Ave, , ,Ardmore,PA,Montgomery,19003, , , , ,42091,"71 E Lancaster Ave, Ardmore, PA 19003",40.006856,-75.288411
Kootenai County Sheriff's Office,Sheriff's office,139, , , , , ,5500 N Government Way,PO Box 9000, ,Coeur D Alene,ID,Kootenai,83816, , , , ,16055,"5500 N Government Way, Coeur D Alene, ID 83816",47.721284,-116.786212
Ada County Sheriff's Office,Sheriff's office,139, , , , , ,7200 Barrister Dr, , ,Boise,ID,Ada,83704, , , , ,16001,"7200 Barrister Dr, Boise, ID 83704",43.6081258,-116.2701351
San Diego Harbor Police,Special jurisdiction,139, , , , , ,3380 N. Harbor Dr, , ,San Diego,CA,San Diego,92101, , , , ,6073,"3380 N. Harbor Dr, San Diego, CA 92101",32.7285981,-117.1941636
Binghamton Police Department,Local police department,139, , , , , ,38 Hawley Street, , ,Binghamton,NY,Broome,13901, , , , ,36007,"38 Hawley Street, Binghamton, NY 13901",42.0964962,-75.91191909999999
North Dakota Highway Patrol,Primary state law enforcement agency,139, , , , , ,600 E. Boulevard Ave,Dpt 504, ,Bismarck,ND,Burleigh,58505, , , , ,38015,"600 E. Boulevard Ave, Bismarck, ND 58505",46.8209473,-100.7815645
Mercer County Sheriff's Office,Sheriff's office,139, , , , , ,906 Sw 3Rd St, , ,Trenton,NJ,Mercer,8608, , , , ,34021,"906 Sw 3Rd St, Trenton, NJ 8608",40.2052008,-74.7554081
Lewisville Police Department,Local police department,138, , , , , ,P O Box 299002, , ,Lewisville,TX,Denton,75029, , , , ,48121,"P O Box 299002, Lewisville, TX 75029",33.0440443,-97.0237605
Billings Police Department,Local police department,138, , , , , ,Po Box 1554, , ,Billings,MT,Yellowstone,59103, , , , ,30111,"Po Box 1554, Billings, MT 59103",45.7827229,-108.5033049
Kent Police Department,Local police department,138, , , , , ,319 South Water Street, , ,Kent,WA,King,98032, , , , ,53033,"319 South Water Street, Kent, WA 98032",47.3830671,-122.234771
Frederick Police Department,Local police department,138, , , , , ,100 W. Patrick Street, , ,Frederick,MD,Frederick,21701, , , , ,24021,"100 W. Patrick Street, Frederick, MD 21701",39.4136667,-77.412909
New Brunswick Police,Local police department,138, , , , , ,25 Kirkpatric Street, , ,New Brunswick,NJ,Middlesex,8901, , , , ,34023,"25 Kirkpatric Street, New Brunswick, NJ 8901",40.4933406,-74.446069
Wright County Sheriff's Office,Sheriff's office,138, , , , , ,719 2Nd St Sw,PO Box 348, ,Buffalo,MN,Wright,55313, , , , ,27171,"719 2Nd St Sw, Buffalo, MN 55313",45.1488539,-93.89818299999999
Coweta County Sheriff's Office,Sheriff's office,137, , , , , ,560 Greison Trl, , ,Newnan,GA,Coweta,30263, , , , ,13077,"560 Greison Trl, Newnan, GA 30263",33.3818052,-84.783293
Beverly Hills Police Department,Local police department,137, , , , , ,18600 W. 13 Mile Road, , ,Beverly Hills,CA,Los Angeles,90210, , , , ,6037,"18600 W. 13 Mile Road, Beverly Hills, CA 90210",34.0736204,-118.4003563
Ogden Police Department,Local police department,137, , , , , ,2186 Lincoln Avenue, , ,Ogden,UT,Weber,84401, , , , ,49057,"2186 Lincoln Avenue, Ogden, UT 84401",41.2277444,-111.9752614
Mount Pleasant Police Department,Local police department,137, , , , , ,P.O. Box 426, , ,Mount Pleasant,SC,Charleston,29464, , , , ,45019,"P.O. Box 426, Mount Pleasant, SC 29464",32.8234848,-79.8520818
Alabama Department of Conservation - Wildlife & Fisheries,Special jurisdiction,136, , , , , ,Post Office Box 301456, , ,Montgomery,AL,Montgomery,36130, , , , ,1101,"Post Office Box 301456, Montgomery, AL 36130",32.3777405,-86.2990026
Alamance County Sheriff's Office,Sheriff's office,136, , , , , ,109 S Maple St, , ,Graham,NC,Alamance,27253, , , , ,37001,"109 S Maple St, Graham, NC 27253",36.0684415,-79.4034501
Newton Police Department,Local police department,136, , , , , ,Po Box 385,2 Amesbury Road, ,Newton,MA,Middlesex,2465, , , , ,25017,"Po Box 385, Newton, MA 2465",42.3469147,-71.2220832
Baytown Police Department,Local police department,136, , , , , ,3200 North Main, , ,Baytown,TX,Harris,77521, , , , ,48201,"3200 North Main, Baytown, TX 77521",29.7562772,-94.96271519999999
Visalia Department of Public Safety,Local police department,136, , , , , ,303 S. Johnson Street, , ,Visalia,CA,Tulare,93291, , , , ,6107,"303 S. Johnson Street, Visalia, CA 93291",36.3282845,-119.2990642
Longmont Police Department,Local police department,136, , , , , ,225 Kimbark Street, , ,Longmont,CO,Boulder,80501, , , , ,8013,"225 Kimbark Street, Longmont, CO 80501",40.1631227,-105.1011364
Kissimmee Police Department,Local police department,136, , , , , ,8 North Stewart Street, , ,Kissimmee,FL,Osceola,34741, , , , ,12097,"8 North Stewart Street, Kissimmee, FL 34741",28.2924727,-81.4085353
Santa Barbara Police Department,Local police department,136, , , , , ,215 E. Figueroa Street, , ,Santa Barbara,CA,Santa Barbara,93101, , , , ,6083,"215 E. Figueroa Street, Santa Barbara, CA 93101",34.4252399,-119.7007966
Hamilton Police Department,Local police department,135, , , , , ,200 S Davis, , ,Hamilton,OH,Butler,45011, , , , ,39017,"200 S Davis, Hamilton, OH 45011",39.4392042,-84.5304161
Bloomfield Police,Local police department,135, , , , , ,12 E.Main Street,P. O. Box 411, ,Bloomfield,NJ,Essex,7003, , , , ,34013,"12 E.Main Street, Bloomfield, NJ 7003",40.7989068,-74.1885825
Roanoke County Police Department,Local police department,135, , , , , ,Cove Road,5925, ,Roanoke,VA,Roanoke,24019, , , , ,51161,"Cove Road, Roanoke, VA 24019",37.3123343,-79.9979956
Union Police,Local police department,135, , , , , ,981 Caldwell Avenue, , ,Union,NJ,Union,7083, , , , ,34039,"981 Caldwell Avenue, Union, NJ 7083",40.6968346,-74.27684409999999
New Jersey Department of Human Services Police,Special jurisdiction,135, , , , , ,P.O. Box 700, , ,Trenton,NJ,Mercer,8628, , , , ,34021,"P.O. Box 700, Trenton, NJ 8628",40.2697068,-74.82146929999999
Stark County Sheriff's Office,Sheriff's office,135, , , , , ,130 W Jefferson, , ,Canton,OH,Stark,44705, , , , ,39151,"130 W Jefferson, Canton, OH 44705",40.82953699999999,-81.3344408
Yakima Police Department,Local police department,134, , , , , ,200 S 3Rd Street, , ,Yakima,WA,Yakima,98901, , , , ,53077,"200 S 3Rd Street, Yakima, WA 98901",46.5995454,-120.5022338
Berkeley County Sheriff's Office,Sheriff's office,134, , , , , ,223 N Live Oak Dr, , ,Moncks Corner,SC,Berkeley,29461, , , , ,45015,"223 N Live Oak Dr, Moncks Corner, SC 29461",33.2002712,-80.0063369
Clark County Sheriff's Office,Sheriff's office,134, , , , , ,Po Box 296, , ,Springfield,OH,Clark,45502, , , , ,39023,"Po Box 296, Springfield, OH 45502",39.9242266,-83.8088171
Licking County Sheriff's Office,Sheriff's office,134, , , , , ,155 E Main St, , ,Newark,OH,Licking,43055, , , , ,39089,"155 E Main St, Newark, OH 43055",40.05876749999999,-82.3949319
East Hartford Police Department,Local police department,134, , , , , ,31 School Street, , ,East Hartford,CT,Hartford,6108, , , , ,9003,"31 School Street, East Hartford, CT 6108",41.7807875,-72.61228779999999
Ventura Police Department,Local police department,134, , , , , ,1425 Dowell Drive, , ,Ventura,CA,Ventura,93003, , , , ,6111,"1425 Dowell Drive, Ventura, CA 93003",34.2599016,-119.2234468
McHenry County Sheriff's Office,Sheriff's office,134, , , , , ,407 Main St. S#303, , ,Woodstock,IL,McHenry,60098, , , , ,17111,"407 Main St. S#303, Woodstock, IL 60098",42.3165305,-88.4474132
Jonesboro Police Department,Local police department,134, , , , , ,100 4Th St., , ,Jonesboro,AR,Craighead,72401, , , , ,5031,"100 4Th St., Jonesboro, AR 72401",35.8478682,-90.7083005
Anoka County Sheriff's Office,Sheriff's office,133, , , , , ,325 E Jackson St, , ,Anoka,MN,Anoka,55303, , , , ,27003,"325 E Jackson St, Anoka, MN 55303",45.19886959999999,-93.38603660000001
Federal Way Police Department,Local police department,133, , , , , ,33325 8Th Avenue South,PO BOX 9718, ,Federal Way,WA,King,98063, , , , ,53033,"33325 8Th Avenue South, Federal Way, WA 98063",47.3039373,-122.3266247
Round Rock Police Department,Local police department,133, , , , , ,2701 N. Mays St., , ,Round Rock,TX,Williamson,78665, , , , ,48491,"2701 N. Mays St., Round Rock, TX 78665",30.5408259,-97.6870314
Decatur Police Department,Local police department,133, , , , , ,114 N Phelps St, , ,Decatur,AL,Morgan,35602, , , , ,1103,"114 N Phelps St, Decatur, AL 35602",34.6059253,-86.9833417
Port of Los Angeles Police,Special jurisdiction,133, , , , , ,425 S. Palos Verdes St, , ,San Pedro,CA,Los Angeles,90731, , , , ,6037,"425 S. Palos Verdes St, San Pedro, CA 90731",33.7406966,-118.28192
Chicopee Police Department,Local police department,133, , , , , ,110 Church St, , ,Chicopee,MA,Hampden,2120, , , , ,25013,"110 Church St, Chicopee, MA 2120",42.1561621,-72.5848314
Terre Haute Police,Local police department,133, , , , , ,1211 Wabash Avenue, , ,Terre Haute,IN,Vigo,47807, , , , ,18167,"1211 Wabash Avenue, Terre Haute, IN 47807",39.4673956,-87.398669
Biloxi Police Department,Local police department,133, , , , , ,Post Office Drawer 1904, , ,Biloxi,MS,Harrison,39533, , , , ,28047,"Post Office Drawer 1904, Biloxi, MS 39533",30.3951021,-88.8857069
Gaston County Police Department,Local police department,133, , , , , ,Po Box 1578, , ,Gastonia,NC,Gaston,28053, , , , ,37071,"Po Box 1578, Gastonia, NC 28053",35.2637147,-81.185756
Washtenaw County Sheriff's Office,Sheriff's office,133, , , , , ,2201 Hogback Rd, , ,Ann Arbor,MI,Washtenaw,48105, , , , ,26161,"2201 Hogback Rd, Ann Arbor, MI 48105",42.2553779,-83.6789423
Monmouth County Prosecutor's Chief,Special jurisdiction,133, , , , , ,132 A. Jerseyville Avenue, , ,Freehold,NJ,Monmouth,7728, , , , ,34025,"132 A. Jerseyville Avenue, Freehold, NJ 7728",40.2500887,-74.2653414
Linden Police,Local police department,133, , , , , ,P.O. Box 324, , ,Linden,NJ,Union,7036, , , , ,34039,"P.O. Box 324, Linden, NJ 7036",40.6216016,-74.22967129999999
Marietta Police Department,Local police department,133, , , , , ,101 W. Main, , ,Marietta,GA,Cobb,30060, , , , ,13067,"101 W. Main, Marietta, GA 30060",33.95260200000001,-84.5499327
Valdosta Police Department,Local police department,133, , , , , ,500 N. Toombs Street, , ,Valdosta,GA,Lowndes,31601, , , , ,13185,"500 N. Toombs Street, Valdosta, GA 31601",30.8347373,-83.2831343
Columbia County Sheriff's Office,Sheriff's office,132, , , , , ,4917 Us Highway 90, , ,Lake City,FL,Columbia,32025, , , , ,12023,"4917 Us Highway 90, Lake City, FL 32025",30.1904431,-82.5574017
Lakewood Police,Local police department,132, , , , , ,231 Third Street,Box 540, ,Lakewood,NJ,Ocean,8701, , , , ,34029,"231 Third Street, Lakewood, NJ 8701",40.093489,-74.21335959999999
West Allis Police Department,Local police department,132, , , , , ,11301 West Lincoln Avenue, , ,West Allis,WI,Milwaukee,53227, , , , ,55079,"11301 West Lincoln Avenue, West Allis, WI 53227",43.0019326,-88.0532319
Clark County Sheriff's Office,Sheriff's office,132, , , , , ,Po Box 296, , ,Vancouver,WA,Clark,98666, , , , ,53011,"Po Box 296, Vancouver, WA 98666",45.63,-122.67
Richardson Police Department,Local police department,132, , , , , ,P. O. Box 831078, , ,Richardson,TX,Dallas,75083, , , , ,48113,"P. O. Box 831078, Richardson, TX 75083",32.9584225,-96.7317083
Temple Police Department,Local police department,132, , , , , ,Post Office Box 160, , ,Temple,TX,Bell,76501, , , , ,48027,"Post Office Box 160, Temple, TX 76501",31.082147,-97.24371049999999
Upper Darby Township Police Department,Local police department,131, , , , , ,7236 West Chester Pike, , ,Upper Darby,PA,Delaware,19082, , , , ,42045,"7236 West Chester Pike, Upper Darby, PA 19082",39.96292469999999,-75.2662227
Davidson County Sheriff's Office,Sheriff's office,131, , , , , ,Po Box 513, , ,Lexington,NC,Davidson,27293, , , , ,37057,"Po Box 513, Lexington, NC 27293",35.73999999999999,-80.2099999
Dona Ana County Sheriff's Office,Sheriff's office,131, , , , , ,Ste A,750 N. Motel Blvd., ,Las Cruces,NM,Dona Ana,88007, , , , ,35013,"Ste A, Las Cruces, NM 88007",32.3495477,-106.7877207
Sanford Police Department,Local police department,131, , , , , ,Po Box 3729, , ,Sanford,FL,Seminole,32771, , , , ,12117,"Po Box 3729, Sanford, FL 32771",28.800557,-81.30693149999999
Sugar Land Police Department,Local police department,130, , , , , ,PO BOX 110, , ,Sugar Land,TX,Fort Bend,77478, , , , ,48157,"PO BOX 110, Sugar Land, TX 77478",29.6185208,-95.6090009
"Washingon Department of Fish & Wildlife, Enforcement",Special jurisdiction,130, , , , , ,600 Capital Way North, , ,Olympia,WA,Thurston,98501, , , , ,53067,"600 Capital Way North, Olympia, WA 98501",47.0494558,-122.901975
Schaumburg Police Dept,Local police department,130, , , , , ,1000 W. Schaumburg Road, , ,Schaumburg,IL,Cook,60194, , , , ,17031,"1000 W. Schaumburg Road, Schaumburg, IL 60194",42.0279009,-88.10382080000001
Norman Police Department,Local police department,130, , , , , ,201-B West Gray, , ,Norman,OK,Cleveland,73069, , , , ,40027,"201-B West Gray, Norman, OK 73069",35.2229932,-97.446108
Frisco Police Department,Local police department,130, , , , , ,7200 Stonebrook Parkway, , ,Frisco,TX,Collin,75034, , , , ,48085,"7200 Stonebrook Parkway, Frisco, TX 75034",33.1341949,-96.822718
Somerville Police Department,Local police department,130, , , , , ,117 W. North St., , ,Somerville,MA,Middlesex,2143, , , , ,25017,"117 W. North St., Somerville, MA 2143",42.4112418,-71.1277668
Boone County Sheriff's Office,Sheriff's office,130, , , , , ,400 E Prospect Ave, , ,Burlington,KY,Boone,41005, , , , ,21015,"400 E Prospect Ave, Burlington, KY 41005",39.02756,-84.7241133
Flagler County Sheriff's Office,Sheriff's office,130, , , , , ,1001 Justice Ln, , ,Bunnell,FL,Flagler,32110, , , , ,12035,"1001 Justice Ln, Bunnell, FL 32110",29.459752,-81.262728
Highlands County Sheriff's Office,Sheriff's office,130, , , , , ,434 Fernleaf Ave, , ,Sebring,FL,Highlands,33870, , , , ,12055,"434 Fernleaf Ave, Sebring, FL 33870",27.4935106,-81.43594949999999
Troy Police Department,Local police department,129, , , , , ,P.O. Box 246, , ,Troy,MI,Oakland,48084, , , , ,26125,"P.O. Box 246, Troy, MI 48084",42.5586572,-83.18097759999999
Lawrence Police Department,Local police department,129, , , , , ,90 Lowell St, , ,Lawrence,KS,Douglas,66049, , , , ,20045,"90 Lowell St, Lawrence, KS 66049",38.9716689,-95.2352501
Farmington Police Department,Local police department,129, , , , , ,531 Main Street, , ,Farmington,NM,San Juan,87401, , , , ,35045,"531 Main Street, Farmington, NM 87401",36.72901179999999,-108.2108559
Douglas County Sheriff's Office,Sheriff's office,129, , , , , ,6856 Broad St, , ,Omaha,NE,Douglas,68116, , , , ,31055,"6856 Broad St, Omaha, NE 68116",41.30652389999999,-96.1633042
Brookline Police Department,Local police department,129, , , , , ,350 Washington St, , ,Brookline,MA,Norfolk,2445, , , , ,25021,"350 Washington St, Brookline, MA 2445",42.3337251,-71.1214099
Tangipahoa Parish Sheriff's Office,Sheriff's office,129, , , , , ,15475 Club Deluxe Rd, , ,Hammond,LA,Tangipahoa,70403, , , , ,22105,"15475 Club Deluxe Rd, Hammond, LA 70403",30.4769004,-90.4678149
Erie County Sheriff's Office,Sheriff's office,129, , , , , ,10 Delaware Ave, , ,Buffalo,NY,Erie,14202, , , , ,36029,"10 Delaware Ave, Buffalo, NY 14202",42.8840881,-78.87913139999999
Fulton County Police Department,Local police department,129, , , , , ,130 Peachtree St.S.W., , ,Atlanta,GA,Fulton,30303, , , , ,13121,"130 Peachtree St.S.W., Atlanta, GA 30303",33.7513039,-84.3922613
Cheektowaga Town Police Department,Local police department,129, , , , , ,3223 Union Road, , ,Cheektowaga,NY,Erie,14227, , , , ,36029,"3223 Union Road, Cheektowaga, NY 14227",42.9016238,-78.75339369999999
Sarpy County Sheriff's Office,Sheriff's office,129, , , , , ,1208 Golden Gate Dr, , ,Papillion,NE,Sarpy,68046, , , , ,31153,"1208 Golden Gate Dr, Papillion, NE 68046",41.14162690000001,-96.0418207
Gresham Police Department,Local police department,129, , , , , ,1333 Nw Eastman Parkway, , ,Gresham,OR,Multnomah,97030, , , , ,41051,"1333 Nw Eastman Parkway, Gresham, OR 97030",45.5065788,-122.4358265
Clarke County Sheriff's Office,Sheriff's office,128, , , , , ,220 Town Line Rd,PO Box 537, ,Athens,GA,Clarke,30601, , , , ,13059,"220 Town Line Rd, Athens, GA 30601",34.00684500000001,-83.3468784
Lafayette Police,Local police department,128, , , , , ,20 North 6Th Street, , ,Lafayette,IN,Tippecanoe,47901, , , , ,18157,"20 North 6Th Street, Lafayette, IN 47901",40.4178621,-86.8909386
Robeson County Sheriff's Office,Sheriff's office,128, , , , , ,120 Legend Rd, , ,Lumberton,NC,Robeson,28358, , , , ,37155,"120 Legend Rd, Lumberton, NC 28358",34.5852718,-79.0523122
Linn County Sheriff's Office,Sheriff's office,128, , , , , ,Po Box 350,107 South 4th, ,Albany,OR,Linn,97321, , , , ,41043,"Po Box 350, Albany, OR 97321",44.6365107,-123.1059282
Henderson County Sheriff's Office,Sheriff's office,128, , , , , ,Po Box 228, , ,Hendersonville,NC,Henderson,28792, , , , ,37089,"Po Box 228, Hendersonville, NC 28792",35.3187279,-82.4609528
Fargo Police Department,Local police department,127, , , , , ,Po Box 150, , ,Fargo,ND,Cass,58107, , , , ,38017,"Po Box 150, Fargo, ND 58107",46.88,-96.78999999999999
Springfield Police Department,Local police department,127, , , , , ,Po Box 31, , ,Springfield,OH,Clark,45502, , , , ,39023,"Po Box 31, Springfield, OH 45502",39.9242266,-83.8088171
Henry County Sheriff's Office,Sheriff's office,127, , , , , ,3250 Kings Mountain Rd, , ,Mcdonough,GA,Henry,30253, , , , ,13151,"3250 Kings Mountain Rd, Mcdonough, GA 30253",33.4473361,-84.1468616
Brick Township Police,Local police department,127, , , , , ,401 Chambersbridge Rd., , ,Brick,NJ,Ocean,8723, , , , ,34029,"401 Chambersbridge Rd., Brick, NJ 8723",40.0754346,-74.1523674
Barrow County Sheriff's Office,Sheriff's office,127, , , , , ,30 N Broad St, , ,Winder,GA,Barrow,30680, , , , ,13013,"30 N Broad St, Winder, GA 30680",33.9923013,-83.72195889999999
Brazoria County Sheriff's Office,Sheriff's office,127, , , , , ,3602 County Rd 45, , ,Angleton,TX,Brazoria,77515, , , , ,48039,"3602 County Rd 45, Angleton, TX 77515",29.2438635,-95.4088103
Surprise Police Department,Local police department,127, , , , , ,"14250 W. Statler Plaza, Ste 103", , ,Surprise,AZ,Maricopa,85374, , , , ,4013,"14250 W. Statler Plaza, Ste 103, Surprise, AZ 85374",33.6297375,-112.3654922
Whittier Police Department,Local police department,127, , , , , ,7315 S. Painter Avenue, , ,Whittier,CA,Los Angeles,90602, , , , ,6037,"7315 S. Painter Avenue, Whittier, CA 90602",33.9743041,-118.0328081
Simi Valley Police Department,Local police department,127, , , , , ,3901 Alamo Street, , ,Simi Valley,CA,Ventura,93063, , , , ,6111,"3901 Alamo Street, Simi Valley, CA 93063",34.2872211,-118.7193559
Catawba County Sheriff's Office,Sheriff's office,126, , , , , ,100 Southwest Blvd Bldg B, , ,Newton,NC,Catawba,28658, , , , ,37035,"100 Southwest Blvd Bldg B, Newton, NC 28658",35.66216,-81.2320699
Hattiesburg Police Department,Local police department,126, , , , , ,One Government Plaza, , ,Hattiesburg,MS,Forrest,39401, , , , ,28035,"One Government Plaza, Hattiesburg, MS 39401",31.1942138,-89.2345603
Danville Police Department,Local police department,126, , , , , ,410 W. Main St., , ,Danville,VA,Pittsylvania,24543, , , , ,51143,"410 W. Main St., Danville, VA 24543",36.5773425,-79.4128341
Franklin Police Department,Local police department,126, , , , , ,9455 West Loomis Road, , ,Franklin,TN,Williamson,37064, , , , ,47187,"9455 West Loomis Road, Franklin, TN 37064",35.9889783,-86.8696743
Sioux City Police Department,Local police department,126, , , , , ,601 Douglas St, , ,Sioux City,IA,Woodbury,51101, , , , ,19193,"601 Douglas St, Sioux City, IA 51101",42.496607,-96.4068207
Roseville Police Department,Local police department,126, , , , , ,29753 Gratiot, , ,Roseville,CA,Placer,95678, , , , ,6061,"29753 Gratiot, Roseville, CA 95678",38.7521235,-121.2880059
Fort Pierce Police Department,Local police department,126, , , , , ,Post Office Box 1149, , ,Fort Pierce,FL,St. Lucie,34954, , , , ,12111,"Post Office Box 1149, Fort Pierce, FL 34954",27.4471979,-80.3416419
Elk Grove Police Department,Local police department,126, , , , , ,8400 Laguna Palms Way, , ,Elk Grove,CA,Sacramento,95758, , , , ,6067,"8400 Laguna Palms Way, Elk Grove, CA 95758",38.4172181,-121.3948087
Winnebago County Sheriff's Office,Sheriff's office,126, , , , , ,216 S Clark St,PO Box 66, ,Oshkosh,WI,Winnebago,54901, , , , ,55139,"216 S Clark St, Oshkosh, WI 54901",44.0291228,-88.49849909999999
Montgomery County Sheriff's Office,Sheriff's office,126, , , , , ,Po Box 432,200 Clark Dr, ,Montgomery,AL,Montgomery,36103, , , , ,1101,"Po Box 432, Montgomery, AL 36103",32.37,-86.3
Franklin Township Police,Local police department,125, , , , , ,495 Demott Lane, , ,Somerset,NJ,Somerset,8873, , , , ,34035,"495 Demott Lane, Somerset, NJ 8873",40.49931979999999,-74.5254601
Aiken County Sheriff's Office,Sheriff's office,125, , , , , ,420 Hampton Ave Ne, , ,Aiken,SC,Aiken,29801, , , , ,45003,"420 Hampton Ave Ne, Aiken, SC 29801",33.5671774,-81.71065759999999
Rio Rancho Department of Public Safety,Local police department,125, , , , , ,500 Quantum Road, , ,Rio Rancho,NM,Sandoval,87124, , , , ,35043,"500 Quantum Road, Rio Rancho, NM 87124",35.266221,-106.6336434
Mission Police Department,Local police department,125, , , , , ,Po Box 337,121 S. Main, ,Mission,TX,Hidalgo,78572, , , , ,48215,"Po Box 337, Mission, TX 78572",26.2159066,-98.32529319999999
Kauai (County) Police Department,Local police department,125, , , , , ,"3990 Kaana St., Suite 200", , ,Lihue,HI,Kauai,96766, , , , ,15007,"3990 Kaana St., Suite 200, Lihue, HI 96766",21.9769704,-159.3549381
Temple University Campus Police Dept,Special jurisdiction,125, , , , , ,1101 W. Montgomery Ave., , ,Philadelphia,PA,Philadelphia,19122, , , , ,42101,"1101 W. Montgomery Ave., Philadelphia, PA 19122",39.9799861,-75.1534683
Pitt County Sheriff's Office,Sheriff's office,125, , , , , ,Po Box 528, , ,Greenville,NC,Pitt,27835, , , , ,37147,"Po Box 528, Greenville, NC 27835",35.61,-77.36999999999999
Livingston Parish Sheriff's Office,Sheriff's office,125, , , , , ,Po Box 850,20180 Iowa St, ,Livingston,LA,Livingston,70754, , , , ,22063,"Po Box 850, Livingston, LA 70754",30.5021345,-90.7478737
Wayne County Airport Authority Police,Special jurisdiction,125, , , , , ,10250 Middlebelt Road, , ,Detroit,MI,Wayne,48242, , , , ,26163,"10250 Middlebelt Road, Detroit, MI 48242",42.2302159,-83.3288724
Salt River Tribal Police Department,Local police department,125, , , , , ,10005 East Osborn Road, , ,Scottsdale,AZ,Maricopa,85256, , , , ,4013,"10005 East Osborn Road, Scottsdale, AZ 85256",33.4871877,-111.8634933
Rochester Police Department,Local police department,125, , , , , ,P. O. Box 186, , ,Rochester,MN,Olmsted,55904, , , , ,27109,"P. O. Box 186, Rochester, MN 55904",43.95624919999999,-92.4208713
Elkhart Police,Local police department,124, , , , , ,175 Waterfall Drive, , ,Elkhart,IN,Elkhart,46516, , , , ,18039,"175 Waterfall Drive, Elkhart, IN 46516",41.6842674,-85.9691708
Allen County Sheriff's Office,Sheriff's office,124, , , , , ,333 N Main St,PO Box 1243, ,Fort Wayne,IN,Allen,46802, , , , ,18003,"333 N Main St, Fort Wayne, IN 46802",41.0644747,-85.17385759999999
Hays County Sheriff's Office,Sheriff's office,124, , , , , ,1307 Uhland Rd, , ,San Marcos,TX,Hays,78666, , , , ,48209,"1307 Uhland Rd, San Marcos, TX 78666",29.8964274,-97.9037991
Pearland Police Department,Local police department,124, , , , , ,2703 Veterans Drive, , ,Pearland,TX,Brazoria,77584, , , , ,48039,"2703 Veterans Drive, Pearland, TX 77584",29.5580333,-95.2890917
Broken Arrow Police Department,Local police department,124, , , , , ,P. O. Box 610, , ,Broken Arrow,OK,Tulsa,74012, , , , ,40143,"P. O. Box 610, Broken Arrow, OK 74012",36.05826630000001,-95.7932008
Fairfield Police Department,Local police department,124, , , , , ,1 Police Plaza, , ,Fairfield,CA,Solano,94533, , , , ,6095,"1 Police Plaza, Fairfield, CA 94533",38.2527241,-122.0524383
Beaverton Police Department,Local police department,124, , , , , ,130 Saginaw St, , ,Beaverton,OR,Washington,97076, , , , ,41067,"130 Saginaw St, Beaverton, OR 97076",45.4869283,-122.804032
Altamonte Springs Police Department,Local police department,124, , , , , ,225 Newburyport Avenue, , ,Altamonte Springs,FL,Seminole,32701, , , , ,12117,"225 Newburyport Avenue, Altamonte Springs, FL 32701",28.6651348,-81.3592336
Madison Parish Sheriff's Office,Sheriff's office,123, , , , , ,100 N Cedar St, , ,Tallulah,LA,Madison,71282, , , , ,22065,"100 N Cedar St, Tallulah, LA 71282",32.4075874,-91.1870239
Holyoke Police Department,Local police department,123, , , , , ,138 Appleton Street, , ,Holyoke,MA,Hampden,1040, , , , ,25013,"138 Appleton Street, Holyoke, MA 1040",42.2038346,-72.6086026
Harlingen Police Department,Local police department,123, , , , , ,1102 S Commerce, , ,Harlingen,TX,Cameron,78550, , , , ,48061,"1102 S Commerce, Harlingen, TX 78550",26.1809268,-97.68538269999999
Walton County Sheriff's Office,Sheriff's office,123, , , , , ,1425 S Madison Ave, , ,Monroe,GA,Walton,30655, , , , ,13297,"1425 S Madison Ave, Monroe, GA 30655",33.770767,-83.69944029999999
North Bergen Police,Local police department,123, , , , , ,4233 Kennedy Boulevard, , ,North Bergen,NJ,Hudson,7047, , , , ,34017,"4233 Kennedy Boulevard, North Bergen, NJ 7047",40.7793086,-74.02720339999999
Bryan Police Department,Local police department,123, , , , , ,103 North Beech Street, , ,Bryan,TX,Brazos,77805, , , , ,48041,"103 North Beech Street, Bryan, TX 77805",30.6743643,-96.3699632
Hillsboro Police Department,Local police department,123, , , , , ,Po Box 125, , ,Hillsboro,OR,Washington,97123, , , , ,41067,"Po Box 125, Hillsboro, OR 97123",45.4053517,-122.9907521
Bloomington Police Dept,Local police department,122, , , , , ,305 South East,P.O. Box 3157, ,Bloomington,IL,McLean,61702, , , , ,17113,"305 South East, Bloomington, IL 61702",40.475811,-88.99253
Gaston County Sheriff's Office,Sheriff's office,122, , , , , ,Po Box 1578, , ,Gastonia,NC,Gaston,28053, , , , ,37071,"Po Box 1578, Gastonia, NC 28053",35.2637147,-81.185756
Renton Police Department,Local police department,122, , , , , ,1055 S Grady Way, , ,Renton,WA,King,98057, , , , ,53033,"1055 S Grady Way, Renton, WA 98057",47.47476109999999,-122.2047435
West Haven Police Department,Local police department,122, , , , , ,200 Saw Mill Road, , ,West Haven,CT,New Haven,6516, , , , ,9009,"200 Saw Mill Road, West Haven, CT 6516",41.2733593,-72.9644349
Champaign Police Dept,Local police department,122, , , , , ,82 E University Ave, , ,Champaign,IL,Champaign,61820, , , , ,17019,"82 E University Ave, Champaign, IL 61820",40.1167441,-88.2392794
Bolingbrook Police Dept,Local police department,122, , , , , ,375 W Briarcliff Rd, , ,Bolingbrook,IL,Will,60440, , , , ,17197,"375 W Briarcliff Rd, Bolingbrook, IL 60440",41.6968177,-88.0804086
West Hartford Police Department,Local police department,122, , , , , ,103 Raymond Road, , ,West Hartford,CT,Hartford,6107, , , , ,9003,"103 Raymond Road, West Hartford, CT 6107",41.7590733,-72.739284
Bradenton Police Department,Local police department,122, , , , , ,100 10Th Street West, , ,Bradenton,FL,Manatee,34205, , , , ,12081,"100 10Th Street West, Bradenton, FL 34205",27.4986917,-82.5723378
Roswell Police Department,Local police department,122, , , , , ,P.O. Box 1994, , ,Roswell,GA,Fulton,30075, , , , ,13121,"P.O. Box 1994, Roswell, GA 30075",34.0586259,-84.38574419999999
North Miami Police Department,Local police department,122, , , , , ,P. O.  Box 53, , ,North Miami,FL,Miami-Dade,33161, , , , ,12086,"P. O.  Box 53, North Miami, FL 33161",25.8900949,-80.1867138
Kenosha County Sheriff's Office,Sheriff's office,122, , , , , ,1000 55Th St, , ,Kenosha,WI,Kenosha,53140, , , , ,55059,"1000 55Th St, Kenosha, WI 53140",42.5856494,-87.82411859999999
Sussex County Sheriff's Office,Sheriff's office,122, , , , , ,Po Box 1326,20212 Thornton Square, ,Newton,NJ,Sussex,7860, , , , ,34037,"Po Box 1326, Newton, NJ 7860",41.0581527,-74.7526651
Troy Police Department,Local police department,121, , , , , ,P.O. Box 246, , ,Troy,NY,Rensselaer,12180, , , , ,36083,"P.O. Box 246, Troy, NY 12180",42.7284117,-73.69178509999999
Rock Hill Police Department,Local police department,121, , , , , ,120 East Black Street, , ,Rock Hill,SC,York,29730, , , , ,45091,"120 East Black Street, Rock Hill, SC 29730",34.9252326,-81.0294685
Weld County Sheriff's Office,Sheriff's office,121, , , , , ,1950 O St, , ,Greeley,CO,Weld,80631, , , , ,8123,"1950 O St, Greeley, CO 80631",40.4513425,-104.7083823
Kitsap County Sheriff's Office,Sheriff's office,121, , , , , ,614 Division St #Ms-37, , ,Port Orchard,WA,Kitsap,98366, , , , ,53035,"614 Division St #Ms-37, Port Orchard, WA 98366",47.5372501,-122.638061
Rowan County Sheriff's Office,Sheriff's office,121, , , , , ,County Courthouse, , ,Salisbury,NC,Rowan,28144, , , , ,37159,"County Courthouse, Salisbury, NC 28144",35.6999973,-80.4660256
Weber County Sheriff's Office,Sheriff's office,121, , , , , ,721 W 12Th St, , ,Ogden,UT,Weber,84404, , , , ,49057,"721 W 12Th St, Ogden, UT 84404",41.2402118,-111.9934202
Ramapo Town Police Department,Local police department,120, , , , , ,237 Route 59, , ,Suffern,NY,Rockland,10901, , , , ,36087,"237 Route 59, Suffern, NY 10901",41.1114403,-74.10984169999999
West Orange Police,Local police department,120, , , , , ,66 Main Street, , ,West Orange,NJ,Essex,7052, , , , ,34013,"66 Main Street, West Orange, NJ 7052",40.7786184,-74.2393382
New York City Sheriff's Office,Sheriff's office,120, , , , , ,31 Chambers St Fl 6, , ,New York,NY,New York,10007, , , , ,36061,"31 Chambers St Fl 6, New York, NY 10007",40.7135271,-74.0042781
El Cajon Police Department,Local police department,120, , , , , ,100 Fletcher Parkway, , ,El Cajon,CA,San Diego,92020, , , , ,6073,"100 Fletcher Parkway, El Cajon, CA 92020",32.8084706,-116.9634419
Margate Police Department,Local police department,120, , , , , ,5790 Margate Boulevard, , ,Margate,FL,Broward,33063, , , , ,12011,"5790 Margate Boulevard, Margate, FL 33063",26.2420954,-80.2050177
Hawaii Dept. of Land And Natural Resources - DOCARE,Special jurisdiction,120, , , , , ,1151 Punchbowl St.,Room 311, ,Honolulu,HI,Honolulu,96819, , , , ,15003,"1151 Punchbowl St., Honolulu, HI 96819",21.3056296,-157.8556279
Waterloo Police Department,Local police department,120, , , , , ,136 North Monroe Street, , ,Waterloo,IA,Black Hawk,50703, , , , ,19013,"136 North Monroe Street, Waterloo, IA 50703",42.4963607,-92.3131393
Antioch Police Department,Local police department,120, , , , , ,300 L Street, , ,Antioch,CA,Contra Costa,94509, , , , ,6013,"300 L Street, Antioch, CA 94509",38.0161593,-121.8207725
Sandy Springs Police Department,Local police department,120, , , , , ,5995 Barfield Road, , ,Sandy Springs,GA,Fulton,30328, , , , ,13121,"5995 Barfield Road, Sandy Springs, GA 30328",33.9193034,-84.35902630000001
Albemarle County Police Department,Local police department,120, , , , , ,"1600 5Th St, Suite D", , ,Charlottesville,VA,Albemarle,22902, , , , ,51003,"1600 5Th St, Suite D, Charlottesville, VA 22902",38.0053636,-78.5166557
Illinois Secretary of State Police,Special jurisdiction,120, , , , , ,110 E. Adams, , ,Springfield,IL,Sangamon,62701, , , , ,17167,"110 E. Adams, Springfield, IL 62701",39.7999135,-89.6543457
St. Mary's County Sheriff's Office,Sheriff's office,120, , , , , ,23150 Leonard Hall Dr, , ,Leonardtown,MD,St. Marys,20650, , , , ,24037,"23150 Leonard Hall Dr, Leonardtown, MD 20650",38.3046278,-76.62890610000001
Nampa Police Department,Local police department,119, , , , , ,211 12Th Ave S, , ,Nampa,ID,Canyon,83651, , , , ,16027,"211 12Th Ave S, Nampa, ID 83651",43.5777617,-116.5614484
Spartanburg Public Safety Department,Local police department,119, , , , , ,Po Box 1746, , ,Spartanburg,SC,Spartanburg,29304, , , , ,45083,"Po Box 1746, Spartanburg, SC 29304",34.94,-81.92999999999999
West New York Police,Local police department,119, , , , , ,428-60Th Street, , ,West New York,NJ,Hudson,7093, , , , ,34017,"428-60Th Street, West New York, NJ 7093",40.7885467,-74.0151121
Lee's Summit Police Department,Local police department,119, , , , , ,10 Ne Tudor Rd, , ,Lee'S Summit,MO,Jackson,64086, , , , ,29095,"10 Ne Tudor Rd, Lee'S Summit, MO 64086",38.9315243,-94.3810069
Utah County Sheriff's Office,Sheriff's office,119, , , , , ,3075 N Main St,PO Box 330, ,Spanish Fork,UT,Utah,84660, , , , ,49049,"3075 N Main St, Spanish Fork, UT 84660",40.1488668,-111.6597178
Bristol Police Department,Local police department,119, , , , , ,501 Scott Street, , ,Bristol,CT,Hartford,6010, , , , ,9003,"501 Scott Street, Bristol, CT 6010",41.67176480000001,-72.9492703
Shelby County Sheriff's Office,Sheriff's office,119, , , , , ,"501 Main St, Courthouse, Ste 8", , ,Columbiana,AL,Shelby,35051, , , , ,1117,"501 Main St, Courthouse, Ste 8, Columbiana, AL 35051",33.1781718,-86.6072054
New York City Bureau of Fire Investigation,Special jurisdiction,119, , , , , ,9 Metrotech Center, , ,Brooklyn,NY,Kings,11201, , , , ,36047,"9 Metrotech Center, Brooklyn, NY 11201",40.694589,-73.9849869
West Covina Police Department,Local police department,119, , , , , ,1444 W. Garvey Ave. S, , ,West Covina,CA,Los Angeles,91790, , , , ,6037,"1444 W. Garvey Ave. S, West Covina, CA 91790",34.0708657,-117.9383331
Kearny Police,Local police department,119, , , , , ,237 Laurel Avenue, , ,Kearny,NJ,Hudson,7032, , , , ,34017,"237 Laurel Avenue, Kearny, NJ 7032",40.7719045,-74.137827
Sumter County Sheriff's Office,Sheriff's office,118, , , , , ,107 E Hampton Ave, , ,Sumter,SC,Sumter,29150, , , , ,45085,"107 E Hampton Ave, Sumter, SC 29150",33.9219028,-80.3392963
Port Arthur Police Department,Local police department,118, , , , , ,P. O. Box 1089, , ,Port Arthur,TX,Jefferson,77641, , , , ,48245,"P. O. Box 1089, Port Arthur, TX 77641",29.8688563,-93.9337944
Farmington Hills Police Department,Local police department,118, , , , , ,31655 W Eleven Mile Rd, , ,Farmington,MI,Oakland,48336, , , , ,26125,"31655 W Eleven Mile Rd, Farmington, MI 48336",42.4841214,-83.36024549999999
Framingham Police Department,Local police department,118, , , , , ,1 William Welch Way, , ,Framingham,MA,Middlesex,1702, , , , ,25017,"1 William Welch Way, Framingham, MA 1702",42.2805703,-71.4175551
Sauk County Sheriff's Office,Sheriff's office,118, , , , , ,1300 Lange Ct, , ,Baraboo,WI,Sauk,53913, , , , ,55111,"1300 Lange Ct, Baraboo, WI 53913",43.4616858,-89.76717889999999
Wisconsin Department of Transportation Safety & Office of Highway,Special jurisdiction,118, , , , , ,"4802 Sheboygan Avenue, Room 551", , ,Madison,WI,Dane,53707, , , , ,55025,"4802 Sheboygan Avenue, Room 551, Madison, WI 53707",43.0744204,-89.4606416
Maine Inland Fish And Wildlife Department,Special jurisdiction,117, , , , , ,284 State St #41, , ,Augusta,ME,Kennebec,4330, , , , ,23011,"284 State St #41, Augusta, ME 4330",44.3010791,-69.7829946
Oswego County Sheriff's Office,Sheriff's office,117, , , , , ,39 Churchill Rd, , ,Oswego,NY,Oswego,13126, , , , ,36075,"39 Churchill Rd, Oswego, NY 13126",43.43183150000001,-76.4799227
Wayne Township Police,Local police department,117, , , , , ,475 Valley Road, , ,Wayne,NJ,Passaic,7470, , , , ,34031,"475 Valley Road, Wayne, NJ 7470",40.9289491,-74.23141369999999
Anderson Police,Local police department,117, , , , , ,1040 Main Street, , ,Anderson,IN,Madison,46016, , , , ,18095,"1040 Main Street, Anderson, IN 46016",40.1055496,-85.6777584
Hackensack Police,Local police department,117, , , , , ,225 State Street, , ,Hackensack,NJ,Bergen,7601, , , , ,34003,"225 State Street, Hackensack, NJ 7601",40.8857007,-74.0441082
Hudson County Prosecutor's Chief,Special jurisdiction,117, , , , , ,Administration Building,595 Newark Avenue, ,Jersey City,NJ,Hudson,7306, , , , ,34017,"Administration Building, Jersey City, NJ 7306",40.7319641,-74.0591049
Springdale Police Department,Local police department,117, , , , , ,2915 Platt Springs Road, , ,Springdale,AR,Washington,72764, , , , ,5143,"2915 Platt Springs Road, Springdale, AR 72764",36.1874977,-94.1297992
Bergen County Prosecutor's Chief,Special jurisdiction,117, , , , , ,Bergen County Justice Center,"10 Main Street, Room 215", ,Hackensack,NJ,Bergen,7601, , , , ,34003,"Bergen County Justice Center, Hackensack, NJ 7601",40.8783812,-74.04383469999999
Fayetteville Police Department,Local police department,117, , , , , ,308 West Market Street, , ,Fayetteville,AR,Washington,72701, , , , ,5143,"308 West Market Street, Fayetteville, AR 72701",35.9980929,-94.08999109999999
Greenburgh Town Police Department,Local police department,116, , , , , ,188 Tarrytown Road, , ,White Plains,NY,Westchester,10607, , , , ,36119,"188 Tarrytown Road, White Plains, NY 10607",41.04127,-73.7884206
Wyandotte County Sheriff's Office,Sheriff's office,116, , , , , ,710 N 7Th St, , ,Kansas City,KS,Wyandotte,66101, , , , ,20209,"710 N 7Th St, Kansas City, KS 66101",39.1131817,-94.62865169999999
Bloomington Police Department,Local police department,116, , , , , ,1800 W. Old Shakopee Rd., , ,Bloomington,MN,Hennepin,55431, , , , ,27053,"1800 W. Old Shakopee Rd., Bloomington, MN 55431",44.8258883,-93.3022283
Iowa Department of Transportation - Motor Vehicle Division,Special jurisdiction,116, , , , , ,100 E Euclid Ave,6310 SE CONVENIENCE, ,Ankeny,IA,Polk,50021, , , , ,19153,"100 E Euclid Ave, Ankeny, IA 50021",41.6289878,-93.61832319999999
East Point Police Department,Local police department,116, , , , , ,2727 East Point Street, , ,East Point,GA,Fulton,30344, , , , ,13121,"2727 East Point Street, East Point, GA 30344",33.6806015,-84.44194929999999
Manchester Police Department,Local police department,116, , , , , ,"3215 Long Lane, P.O.Box 830", , ,Manchester,CT,Hartford,6045, , , , ,9003,"3215 Long Lane, P.O.Box 830, Manchester, CT 6045",41.78,-72.52
Vallejo Police Department,Local police department,116, , , , , ,111 Amador Street, , ,Vallejo,CA,Solano,94590, , , , ,6095,"111 Amador Street, Vallejo, CA 94590",38.1000337,-122.2435864
Greene County Sheriff's Office,Sheriff's office,116, , , , , ,400 Morrow Ave,PO Box 109, ,Springfield,MO,Greene,65802, , , , ,29077,"400 Morrow Ave, Springfield, MO 65802",37.1953893,-93.3892894
Charlottesville Police Dept.,Local police department,115, , , , , ,606 E. Market St., , ,Charlottesville,VA,Charlottesville City,22902, , , , ,51540,"606 E. Market St., Charlottesville, VA 22902",38.030203,-78.47735349999999
Clay County Sheriff's Office,Sheriff's office,115, , , , , ,539 Lincoln Ave,PO Box 115, ,Liberty,MO,Clay,64068, , , , ,29047,"539 Lincoln Ave, Liberty, MO 64068",39.2482006,-94.4158441
Oak Park Police Dept,Local police department,115, , , , , ,1 Village Hall Plaza, , ,Oak Park,IL,Cook,60302, , , , ,17031,"1 Village Hall Plaza, Oak Park, IL 60302",41.9326254,-87.7430627
Ottawa County Sheriff's Office,Sheriff's office,115, , , , , ,315 Madison St,Room 110, ,West Olive,MI,Ottawa,49460, , , , ,26139,"315 Madison St, West Olive, MI 49460",42.9214101,-86.1464352
Tupelo Police Department,Local police department,115, , , , , ,P. O. Box 360, , ,Tupelo,MS,Lee,38804, , , , ,28081,"P. O. Box 360, Tupelo, MS 38804",34.2576066,-88.7033859
Orange County Sheriff's Office,Sheriff's office,115, , , , , ,Po Box 1468, , ,Hillsborough,NC,Orange,27278, , , , ,37135,"Po Box 1468, Hillsborough, NC 27278",36.0754183,-79.0997347
Whitfield County Sheriff's Office,Sheriff's office,115, , , , , ,805 Professional Blvd, , ,Dalton,GA,Whitfield,30720, , , , ,13313,"805 Professional Blvd, Dalton, GA 30720",34.7937394,-84.979935
Lauderhill Police Department,Local police department,115, , , , , ,6279 West Oakland Park Blvd., , ,Lauderhill,FL,Broward,33313, , , , ,12011,"6279 West Oakland Park Blvd., Lauderhill, FL 33313",26.1654111,-80.233959
Montgomery County Sheriff's Office,Sheriff's office,115, , , , , ,Po Box 432,200 Clark Dr, ,Christiansburg,VA,Montgomery,24073, , , , ,51121,"Po Box 432, Christiansburg, VA 24073",37.1298517,-80.4089389
Arlington Heights Police Department,Local police department,114, , , , , ,200 East Sigwalt Street, , ,Arlington Heights,IL,Cook,60005, , , , ,17031,"200 East Sigwalt Street, Arlington Heights, IL 60005",42.0812907,-87.97898599999999
Annapolis Police Department,Local police department,114, , , , , ,199 Taylor Ave, , ,Annapolis,MD,Anne Arundel,21401, , , , ,24003,"199 Taylor Ave, Annapolis, MD 21401",38.9790564,-76.5064779
Brunswick County Sheriff's Office,Sheriff's office,114, , , , , ,Po Box 9, , ,Bolivia,NC,Brunswick,28422, , , , ,37019,"Po Box 9, Bolivia, NC 28422",34.0674911,-78.14829209999999
Wilson Police Department,Local police department,114, , , , , ,Po Box 454, , ,Wilson,NC,Wilson,27894, , , , ,37195,"Po Box 454, Wilson, NC 27894",35.72,-77.92
Hickory Police Department,Local police department,114, , , , , ,Post Office Box 10, , ,Hickory,NC,Catawba,28602, , , , ,37035,"Post Office Box 10, Hickory, NC 28602",35.6222816,-81.3232576
Dougherty County Sheriff's Office,Sheriff's office,114, , , , , ,P.O. Box 549, , ,Albany,GA,Dougherty,31702, , , , ,13095,"P.O. Box 549, Albany, GA 31702",31.58,-84.16
St. Joseph Police Dept,Local police department,114, , , , , ,501 Faraon, , ,St Joseph,MO,Buchanan,64501, , , , ,29021,"501 Faraon, St Joseph, MO 64501",39.7693364,-94.8539401
Cook County Forest Preserve District Police,Special jurisdiction,114, , , , , ,536 N Harlem Ave, , ,River Forest,IL,Cook,60305, , , , ,17031,"536 N Harlem Ave, River Forest, IL 60305",41.8887878,-87.8053245
Houston County Sheriff's Office,Sheriff's office,114, , , , , ,3330 State Hwy 149, , ,Warner Robins,GA,Houston,31088, , , , ,13153,"3330 State Hwy 149, Warner Robins, GA 31088",32.590481,-83.624201
Putnam County Sheriff's Office,Sheriff's office,114, , , , , ,13 Keightly Rd,PO Box 495, ,Palatka,FL,Putnam,32177, , , , ,12107,"13 Keightly Rd, Palatka, FL 32177",29.648697,-81.6422063
Palm Beach Gardens Police Department,Local police department,114, , , , , ,10500 No. Military Trail, , ,Palm Beach Gardens,FL,Palm Beach,33410, , , , ,12099,"10500 No. Military Trail, Palm Beach Gardens, FL 33410",26.8966898,-80.10385210000001
Carlsbad Police Department,Local police department,114, , , , , ,2560 Orion Way, , ,Carlsbad,CA,San Diego,92010, , , , ,6073,"2560 Orion Way, Carlsbad, CA 92010",33.1380836,-117.2653334
Harris County Constable Pct. 3,Constable/marshal,114, , , , , ,701 W. Baker Rd., , ,Baytown,TX,Harris,77521, , , , ,48201,"701 W. Baker Rd., Baytown, TX 77521",29.7687356,-94.9711336
Jackson County Sheriff's Office,Sheriff's office,114, , , , , ,Po Box 98, , ,Medford,OR,Jackson,97501, , , , ,41029,"Po Box 98, Medford, OR 97501",42.2855796,-122.886705
Clayton County Sheriff's Office,Sheriff's office,113, , , , , ,P.O. Box 10,22680 230th Street, ,Jonesboro,GA,Clayton,30236, , , , ,13063,"P.O. Box 10, Jonesboro, GA 30236",33.5215013,-84.3538128
Bannock County Sheriff's Office,Sheriff's office,113, , , , , ,Po Box 4666, , ,Pocatello,ID,Bannock,83205, , , , ,16005,"Po Box 4666, Pocatello, ID 83205",42.868187,-112.4431033
Fauquier County Sheriff's Office,Sheriff's office,113, , , , , ,78 W Lee St Ste 200, , ,Warrenton,VA,Fauquier,20186, , , , ,51061,"78 W Lee St Ste 200, Warrenton, VA 20186",38.7128606,-77.7987468
Battle Creek Police Department,Local police department,113, , , , , ,20 North Division, , ,Battle Creek,MI,Calhoun,49014, , , , ,26025,"20 North Division, Battle Creek, MI 49014",42.3477418,-85.0856761
Virginia Alcohol Beverage Control  - Bureau of Law Enforcement,Special jurisdiction,113, , , , , ,P.O. Box 27491, , ,Richmond,VA,Richmond City,23261, , , , ,51760,"P.O. Box 27491, Richmond, VA 23261",37.5407246,-77.4360481
Colorado State Parks - Enforcement,Special jurisdiction,113, , , , , ,13787 S Highway 85, , ,Littleton,CO,Douglas,80125, , , , ,8035,"13787 S Highway 85, Littleton, CO 80125",39.5069625,-105.0557415
Flagstaff Police Department,Local police department,113, , , , , ,911 East Sawmill Road, , ,Flagstaff,AZ,Coconino,86001, , , , ,4005,"911 East Sawmill Road, Flagstaff, AZ 86001",35.1881151,-111.6420445
Solano County Sheriff's Office,Sheriff's office,113, , , , , ,530 Union Ave Ste 100, , ,Fairfield,CA,Solano,94533, , , , ,6095,"530 Union Ave Ste 100, Fairfield, CA 94533",38.2475673,-122.0399649
Pittsylvania County Sheriff's Office,Sheriff's office,113, , , , , ,21 N. Main Street,P.O. Box 407, ,Chatham,VA,Pittsylvania,24531, , , , ,51143,"21 N. Main Street, Chatham, VA 24531",36.82569429999999,-79.3980806
Oklahoma Dept. of Wildlife Conservation,Special jurisdiction,113, , , , , ,1801 N. Lincoln, , ,"Okla. City,",OK,Oklahoma,73105, , , , ,40109,"1801 N. Lincoln, Okla. City,, OK 73105",35.4876492,-97.5043232
Meriden Police Department,Local police department,113, , , , , ,50 West Main Street, , ,Meriden,CT,New Haven,6451, , , , ,9009,"50 West Main Street, Meriden, CT 6451",41.5376317,-72.80433959999999
Daly City Police Department,Local police department,113, , , , , ,333 - 90Th Street, , ,Daly City,CA,San Mateo,94015, , , , ,6081,"333 - 90Th Street, Daly City, CA 94015",37.6905489,-122.4735213
Covington Police Department,Local police department,112, , , , , ,One Police Memorial Dr., , ,Covington,KY,Kenton,41014, , , , ,21117,"One Police Memorial Dr., Covington, KY 41014",39.0668765,-84.5065456
Pulaski County Sheriff's Office,Sheriff's office,112, , , , , ,301 Highway 44E Ste 136, , ,Little Rock,AR,Pulaski,72204, , , , ,5119,"301 Highway 44E Ste 136, Little Rock, AR 72204",34.7444618,-92.2880157
Jacksonville Police Department,Local police department,112, , , , , ,Po Drawer 436, , ,Jacksonville,NC,Onslow,28541, , , , ,37133,"Po Drawer 436, Jacksonville, NC 28541",34.7493743,-77.4217422
Henry County Sheriff's Office,Sheriff's office,112, , , , , ,3250 Kings Mountain Rd, , ,Martinsville,VA,Henry,24112, , , , ,51089,"3250 Kings Mountain Rd, Martinsville, VA 24112",36.7438313,-79.8942336
Skokie Police Dept,Local police department,112, , , , , ,8350 Laramie, , ,Skokie,IL,Cook,60077, , , , ,17031,"8350 Laramie, Skokie, IL 60077",42.0332237,-87.7573556
Sparks Police Department,Local police department,112, , , , , ,Post Office Box 186, , ,Sparks,NV,Washoe,89434, , , , ,32031,"Post Office Box 186, Sparks, NV 89434",39.5349112,-119.7526886
Hempstead Village Police Department,Local police department,112, , , , , ,99 Nichols Court, , ,Hempstead,NY,Nassau,11550, , , , ,36059,"99 Nichols Court, Hempstead, NY 11550",40.7060923,-73.61876149999999
Saratoga County Sheriff's Office,Sheriff's office,112, , , , , ,6010 County Farm Rd, , ,Ballston Spa,NY,Saratoga,12020, , , , ,36091,"6010 County Farm Rd, Ballston Spa, NY 12020",43.02031640000001,-73.87248350000002
Taunton Police Department,Local police department,112, , , , , ,23 Summer Street, , ,Taunton,MA,Bristol,2780, , , , ,25005,"23 Summer Street, Taunton, MA 2780",41.9009271,-71.0893413
Chapel Hill Police Department,Local police department,112, , , , , ,P.O. Box 157, , ,Chapel Hill,NC,Orange,27514, , , , ,37135,"P.O. Box 157, Chapel Hill, NC 27514",35.9722081,-79.04755589999999
